{
"type": "FeatureCollection",
"name": "01",
"crs": { "type": "name", "properties": { "name": "urn:ogc:def:crs:OGC:1.3:CRS84" } },
"features": [
{"type":"Feature","properties":{"iso3166":"PT-01"},"geometry":{"type":"Polygon","coordinates":[[[-8.7271799,40.4774647],[-8.7017898,40.4591816],[-8.6777697,40.4349125],[-8.6627426,40.4285003],[-8.6479255,40.4240527],[-8.6345766,40.4268402],[-8.6311639,40.4343957],[-8.6332501,40.4459742],[-8.6315666,40.4658204],[-8.6259087,40.4717844],[-8.620635,40.4821169],[-8.6151332,40.4854482],[-8.6071994,40.4809468],[-8.5853399,40.4795784],[-8.5768476,40.4686452],[-8.5710738,40.4505879],[-8.5782139,40.4427672],[-8.5793687,40.412381],[-8.5724424,40.4002899],[-8.5418239,40.4064979],[-8.5176846,40.4204862],[-8.5047292,40.4191452],[-8.508134,40.4074755],[-8.5047559,40.4000601],[-8.4986339,40.4000534],[-8.4829793,40.3887759],[-8.4822257,40.3753484],[-8.4873097,40.3686566],[-8.4832583,40.3627694],[-8.4918647,40.3455969],[-8.4859094,40.3320295],[-8.4849946,40.3153431],[-8.4949198,40.3154237],[-8.5159595,40.3125235],[-8.5298536,40.3156502],[-8.5255074,40.2995117],[-8.5258614,40.2940153],[-8.5094453,40.2893283],[-8.4881623,40.292183],[-8.4775835,40.2884059],[-8.4684821,40.2888302],[-8.4675438,40.2828406],[-8.4543631,40.2791736],[-8.4475974,40.2892953],[-8.4463501,40.2985298],[-8.4493752,40.3090408],[-8.4485833,40.3176153],[-8.4293525,40.3237468],[-8.4095882,40.3238617],[-8.4091106,40.3309131],[-8.4013401,40.3418847],[-8.4039565,40.3498244],[-8.375326,40.3413034],[-8.3578612,40.3474054],[-8.3546822,40.3618609],[-8.3591746,40.3689739],[-8.3548722,40.4088572],[-8.3457825,40.4105263],[-8.3380511,40.4188132],[-8.344831,40.4230378],[-8.3263974,40.4400488],[-8.3175767,40.4411968],[-8.3190388,40.4574473],[-8.3356022,40.4810551],[-8.3258437,40.491743],[-8.2994262,40.4991055],[-8.2828491,40.5091726],[-8.263834,40.5034798],[-8.2500933,40.5112178],[-8.2729906,40.5369333],[-8.2852822,40.5396509],[-8.2891896,40.5687855],[-8.2995462,40.5778199],[-8.3084199,40.5964078],[-8.3032773,40.6016189],[-8.2903205,40.6057399],[-8.2747787,40.6049284],[-8.2649365,40.6098983],[-8.2497697,40.6117729],[-8.2453833,40.6164054],[-8.2600261,40.6252132],[-8.2798719,40.6331007],[-8.2932478,40.6337818],[-8.2947983,40.6456807],[-8.2888316,40.6690241],[-8.2981422,40.6757506],[-8.2976446,40.6943401],[-8.3067232,40.69253],[-8.3138402,40.7038484],[-8.3263315,40.7111931],[-8.3235515,40.7194637],[-8.3335879,40.7370011],[-8.3197303,40.7429051],[-8.3092266,40.7424642],[-8.2877972,40.7517015],[-8.2691356,40.7672795],[-8.2631554,40.7832673],[-8.254994,40.7913732],[-8.2571308,40.7983777],[-8.2434212,40.8072613],[-8.2367635,40.8274916],[-8.2494846,40.8495123],[-8.2550878,40.8558422],[-8.231518,40.8646946],[-8.2053321,40.8480813],[-8.1905129,40.846123],[-8.1659376,40.8658782],[-8.1492376,40.8551614],[-8.1353815,40.8497736],[-8.1248784,40.8494519],[-8.1064214,40.8551654],[-8.1030436,40.8668711],[-8.1101356,40.8736078],[-8.1155931,40.8903268],[-8.1279604,40.8981502],[-8.120416,40.9179367],[-8.1271665,40.9284328],[-8.1320361,40.9420039],[-8.1315188,40.9506088],[-8.1221748,40.9547152],[-8.115275,40.9655758],[-8.1004627,40.9751762],[-8.1002321,40.980023],[-8.0891722,40.9875553],[-8.0920727,40.9977464],[-8.0910835,41.0089704],[-8.0990678,41.0134445],[-8.1054365,41.0034613],[-8.1184505,40.9970798],[-8.1207561,40.9882046],[-8.134108,40.9784748],[-8.1429181,40.9785566],[-8.1575453,40.9886344],[-8.1635909,40.9862825],[-8.1780781,40.9882026],[-8.1941491,40.998168],[-8.206952,40.9942792],[-8.2118034,41.0031412],[-8.2080313,41.0135258],[-8.2289198,41.0138747],[-8.2379488,41.0181602],[-8.2357372,41.0282417],[-8.2299547,41.0359015],[-8.2314904,41.0472446],[-8.2374139,41.0479113],[-8.2404357,41.0599961],[-8.2521171,41.0588466],[-8.2603086,41.0651078],[-8.2686166,41.0641836],[-8.2799323,41.0673981],[-8.2872253,41.0789366],[-8.2940817,41.0801257],[-8.3007049,41.0697199],[-8.3147087,41.0583952],[-8.3257857,41.0583727],[-8.3335972,41.0533116],[-8.3427962,41.042888],[-8.352164,41.0401033],[-8.358386,41.0421562],[-8.3685003,41.0501476],[-8.3814092,41.0493187],[-8.394398,41.0507536],[-8.3985666,41.048643],[-8.4009228,41.033244],[-8.3959797,41.0271466],[-8.3843965,41.0243478],[-8.3841858,41.0036531],[-8.3888524,41.0045301],[-8.3967659,41.0124479],[-8.4152159,41.0150691],[-8.4266746,41.0207249],[-8.4330025,41.0291985],[-8.4283754,41.0365939],[-8.4331019,41.0389126],[-8.4487407,41.0534612],[-8.452706,41.0458319],[-8.4599552,41.0451511],[-8.4738468,41.051132],[-8.4862695,41.0525965],[-8.4925805,41.0395989],[-8.4757019,41.0340442],[-8.4774835,41.0247988],[-8.4919327,41.02215],[-8.4891663,41.0134012],[-8.5056373,41.0093042],[-8.5143701,41.0146735],[-8.5279223,41.036274],[-8.5455976,41.0337027],[-8.5549694,41.0264957],[-8.5571929,41.0155639],[-8.5949453,41.0145609],[-8.6060588,41.0256944],[-8.6182694,41.020185],[-8.6310192,41.0183856],[-8.6356594,41.0152156],[-8.6449731,41.0159689],[-8.6479503,40.999009],[-8.646376,40.995685],[-8.650698,40.9707944],[-8.6563208,40.9577354],[-8.6570798,40.9490382],[-8.6616443,40.9324487],[-8.6607161,40.929241],[-8.6674876,40.9027527],[-8.6726188,40.8868268],[-8.6788638,40.8733525],[-8.6788687,40.8668949],[-8.6959288,40.8165208],[-8.7010357,40.7992201],[-8.7191132,40.747257],[-8.737548,40.7014961],[-8.7483698,40.668712],[-8.7582848,40.6455834],[-8.7490787,40.6442753],[-8.7519852,40.6222527],[-8.7643706,40.587112],[-8.7714271,40.5615264],[-8.776441,40.5487478],[-8.7840289,40.5203648],[-8.7669437,40.5100517],[-8.7359671,40.4862216],[-8.7271799,40.4774647]]]}}
]
}
