{
"type": "FeatureCollection",
"name": "02",
"crs": { "type": "name", "properties": { "name": "urn:ogc:def:crs:OGC:1.3:CRS84" } },
"features": [
{"type":"Feature","properties":{"iso3166":"PT-02"},"geometry":{"type":"Polygon","coordinates":[[[-7.5226651,37.5530652],[-7.5200058,37.5591421],[-7.5126564,37.5601811],[-7.5064736,37.5584315],[-7.5075192,37.5668045],[-7.5133778,37.5658684],[-7.5154018,37.5699443],[-7.5076654,37.5760015],[-7.5026212,37.5772772],[-7.5012289,37.5865251],[-7.497499,37.5906296],[-7.5037365,37.6038456],[-7.4982036,37.6069536],[-7.4901855,37.6033088],[-7.4862505,37.6123157],[-7.4797224,37.618427],[-7.482266,37.6240455],[-7.4712858,37.6241917],[-7.4709686,37.6349174],[-7.4636214,37.6419289],[-7.4638069,37.6497193],[-7.4566487,37.6459445],[-7.4531014,37.6484797],[-7.4546626,37.6539815],[-7.4513467,37.6585142],[-7.4530033,37.6633755],[-7.4448305,37.6639328],[-7.4488785,37.6747323],[-7.4522163,37.6780507],[-7.4476183,37.6816352],[-7.4437869,37.6892269],[-7.447601,37.6978767],[-7.4401852,37.7063301],[-7.4363567,37.7178088],[-7.4318249,37.7200426],[-7.4266235,37.7333457],[-7.4275778,37.7416],[-7.4189773,37.7434848],[-7.4181903,37.7468291],[-7.4225855,37.7545941],[-7.4213721,37.7589418],[-7.4137541,37.759523],[-7.4092278,37.7666481],[-7.3951793,37.7651483],[-7.3909295,37.771245],[-7.38409,37.7739775],[-7.3764766,37.7838136],[-7.368612,37.787372],[-7.3667049,37.7919421],[-7.3605035,37.7936777],[-7.3571181,37.7987976],[-7.3516202,37.8006347],[-7.3460359,37.8057639],[-7.3275871,37.8140335],[-7.3212559,37.8186861],[-7.3199815,37.8238466],[-7.3150797,37.8273863],[-7.3092811,37.836681],[-7.3023609,37.8400469],[-7.2975511,37.8566472],[-7.2895101,37.8612128],[-7.2835139,37.8688605],[-7.2796108,37.8769706],[-7.2828114,37.890172],[-7.2821562,37.8976486],[-7.2738275,37.8988138],[-7.2735961,37.9048815],[-7.269521,37.9062636],[-7.2679127,37.9125566],[-7.2613987,37.9181465],[-7.2613822,37.9216566],[-7.2547853,37.9236961],[-7.2576438,37.9321204],[-7.2524352,37.9421165],[-7.254526,37.9462485],[-7.2484555,37.9542539],[-7.2517732,37.9596834],[-7.2496742,37.9668937],[-7.2618186,37.9774654],[-7.2591481,37.981809],[-7.2500328,37.9856369],[-7.2455694,37.9917993],[-7.2306449,37.991508],[-7.2267081,37.9881181],[-7.2181392,37.9945826],[-7.2053537,37.9981091],[-7.2008273,38.0031942],[-7.1930377,38.0007178],[-7.186073,38.0020936],[-7.1839532,37.9965632],[-7.1774024,37.9983847],[-7.1734446,37.9928285],[-7.1662925,37.9953977],[-7.1587976,37.9938904],[-7.1431466,38.0018954],[-7.1373105,37.9989959],[-7.128733,38.001699],[-7.1234739,38.0078984],[-7.1290564,38.0107606],[-7.1278059,38.0219278],[-7.1249005,38.0251212],[-7.1271808,38.0306079],[-7.1162269,38.0317435],[-7.1082912,38.0409337],[-7.0984626,38.0437812],[-7.0904397,38.0383594],[-7.0621537,38.0268684],[-7.0635379,38.0198085],[-7.0595183,38.0173188],[-7.0519442,38.0188247],[-7.0447192,38.0139944],[-7.0311733,38.022316],[-7.0250069,38.0246651],[-7.0184574,38.0216505],[-7.0071859,38.020752],[-7.0020254,38.0274808],[-6.9989733,38.0347853],[-7.0025987,38.0425187],[-7.0002301,38.0489865],[-6.990538,38.0543739],[-6.9899656,38.0703058],[-6.9874021,38.0748493],[-6.9898334,38.0899646],[-6.9870487,38.1036364],[-6.982245,38.1028238],[-6.9706177,38.1104879],[-6.9723906,38.1148251],[-6.9645179,38.128308],[-6.9593974,38.1334679],[-6.9580254,38.1563292],[-6.9626425,38.1547912],[-6.9692311,38.1604828],[-6.9614045,38.1768461],[-6.9535906,38.1863263],[-6.942556,38.1932781],[-6.9338216,38.2018622],[-6.9378216,38.2068536],[-6.9383197,38.2122475],[-6.9422987,38.2180895],[-6.9567765,38.2168525],[-6.9719406,38.2021539],[-6.9781173,38.2067446],[-6.9804347,38.2112833],[-6.9955185,38.2037514],[-7.0049256,38.2046481],[-7.011821,38.2033142],[-7.0092937,38.1983646],[-7.0153682,38.1973935],[-7.016883,38.1923801],[-7.0225453,38.1853594],[-7.0285989,38.1825147],[-7.0435828,38.1872005],[-7.0469111,38.1816671],[-7.0525064,38.1795033],[-7.058338,38.1865847],[-7.0652444,38.1826252],[-7.0681145,38.177846],[-7.0751398,38.1765156],[-7.0840604,38.1694296],[-7.0895022,38.1787098],[-7.0972246,38.1789532],[-7.1030066,38.1870628],[-7.1096633,38.1878151],[-7.1244554,38.1847854],[-7.1261994,38.1750934],[-7.1315036,38.1710387],[-7.1523794,38.1734754],[-7.1550277,38.165972],[-7.1498055,38.1584647],[-7.1520256,38.1546502],[-7.1595498,38.1598913],[-7.1718924,38.1845742],[-7.1809713,38.1976043],[-7.1834276,38.205552],[-7.1984151,38.2223706],[-7.1991368,38.227101],[-7.19015,38.2464251],[-7.2178191,38.2541784],[-7.2343504,38.2571077],[-7.2441462,38.2631265],[-7.253971,38.277152],[-7.2601863,38.2819444],[-7.2611099,38.2965455],[-7.265401,38.3068762],[-7.2788376,38.3201219],[-7.2803565,38.3301134],[-7.2947093,38.3259618],[-7.3100604,38.3254516],[-7.3202823,38.3168811],[-7.3366339,38.3211839],[-7.3527524,38.3057462],[-7.3557822,38.2993171],[-7.3778782,38.2987935],[-7.3845901,38.3021903],[-7.4002334,38.283431],[-7.4135182,38.2640103],[-7.4324144,38.260415],[-7.4380842,38.2429832],[-7.4535513,38.234714],[-7.4610438,38.2199258],[-7.4701425,38.2139874],[-7.4892603,38.2109234],[-7.4977025,38.2045161],[-7.4916093,38.1901096],[-7.4978015,38.188454],[-7.5419248,38.1936307],[-7.5584573,38.1943611],[-7.5659878,38.1887634],[-7.5801816,38.1938],[-7.5881024,38.2032554],[-7.6098073,38.2026633],[-7.6175237,38.206638],[-7.6350093,38.209525],[-7.644671,38.2049529],[-7.6537766,38.2039499],[-7.6696182,38.2002232],[-7.694309,38.211493],[-7.7111855,38.2141004],[-7.7240357,38.2219166],[-7.7341114,38.2333823],[-7.748204,38.2390217],[-7.7589641,38.2465467],[-7.7643436,38.2478847],[-7.7805431,38.2486377],[-7.7905606,38.2548153],[-7.8036334,38.2462642],[-7.8177895,38.2446188],[-7.8212185,38.2519634],[-7.8394959,38.2517672],[-7.8454515,38.2574897],[-7.900255,38.2847244],[-7.907504,38.2796904],[-7.9113488,38.2844429],[-7.9079291,38.2869307],[-7.9310514,38.2963214],[-7.9386288,38.3030838],[-7.9437182,38.3052532],[-7.9565768,38.3070823],[-7.9737423,38.3162119],[-7.9805225,38.31709],[-7.9939795,38.3082632],[-7.9956809,38.302492],[-8.0096843,38.299525],[-8.0199067,38.3007068],[-8.0361152,38.3151533],[-8.0436443,38.3260796],[-8.0517492,38.3252865],[-8.0550769,38.3283296],[-8.071973,38.3183711],[-8.0774827,38.3223049],[-8.085425,38.3200842],[-8.0984199,38.3209237],[-8.111489,38.3197239],[-8.1195876,38.3148798],[-8.1309545,38.3129142],[-8.1421788,38.3150286],[-8.1492379,38.3271589],[-8.152472,38.329347],[-8.1618458,38.3271226],[-8.1613697,38.3178727],[-8.1430876,38.2978385],[-8.1355707,38.2781318],[-8.1366277,38.2744357],[-8.1296963,38.2663],[-8.1309944,38.2557924],[-8.1299389,38.2441728],[-8.1312857,38.2311645],[-8.1298613,38.2239871],[-8.1419781,38.2195772],[-8.1604528,38.2166367],[-8.1653836,38.217637],[-8.180922,38.2111783],[-8.18289,38.2078163],[-8.1917834,38.2038291],[-8.2031293,38.200703],[-8.2186072,38.2030568],[-8.2297134,38.1970013],[-8.2352769,38.1832932],[-8.2396944,38.1794776],[-8.2490274,38.1795756],[-8.2533072,38.1822426],[-8.2664465,38.1801124],[-8.2747996,38.186098],[-8.2843277,38.1865776],[-8.2852531,38.1804955],[-8.2898934,38.1703671],[-8.287138,38.1619541],[-8.2915174,38.1550013],[-8.2910511,38.1386821],[-8.3080387,38.1373314],[-8.3146249,38.140565],[-8.3138891,38.1436903],[-8.3245031,38.1489244],[-8.3336,38.155204],[-8.3366831,38.1504363],[-8.3369768,38.142741],[-8.3401323,38.1404511],[-8.3492665,38.1420253],[-8.3560052,38.1376015],[-8.3532855,38.1286976],[-8.3544933,38.1189947],[-8.3602631,38.112643],[-8.3633584,38.1039012],[-8.3700722,38.1032862],[-8.3728227,38.1075206],[-8.386574,38.1161589],[-8.394285,38.1074511],[-8.3939241,38.0994182],[-8.4026956,38.0763587],[-8.4095644,38.072996],[-8.4077421,38.0663943],[-8.3947996,38.0528546],[-8.3882366,38.0513077],[-8.382504,38.0447258],[-8.3762867,38.0443014],[-8.3713298,38.0406147],[-8.3744362,38.0317185],[-8.3631627,38.0277277],[-8.3638374,38.0219729],[-8.3531172,38.0274118],[-8.347504,38.0171684],[-8.3278188,38.0239462],[-8.3144288,38.0163658],[-8.3056666,37.9991466],[-8.2956479,37.9932582],[-8.2936102,37.9841544],[-8.2951785,37.9796499],[-8.2945105,37.9644427],[-8.295917,37.9509867],[-8.3071191,37.9299501],[-8.3000993,37.9241302],[-8.3093024,37.9116648],[-8.3082844,37.9069043],[-8.299378,37.8991783],[-8.3125772,37.8917257],[-8.3111257,37.8818432],[-8.3317148,37.8690759],[-8.3361924,37.8645885],[-8.3329533,37.8574094],[-8.3307688,37.8470258],[-8.3577657,37.8542345],[-8.3592593,37.8579193],[-8.3665476,37.8575744],[-8.3678252,37.8610467],[-8.3808042,37.8620966],[-8.3858224,37.8603305],[-8.4243343,37.8669975],[-8.4346928,37.8709093],[-8.439911,37.8670712],[-8.4404938,37.8599907],[-8.4620809,37.8655979],[-8.4703346,37.8578463],[-8.4793047,37.8549848],[-8.5326702,37.8549075],[-8.5512684,37.8473828],[-8.5532113,37.838625],[-8.552037,37.8287846],[-8.5481157,37.8183016],[-8.5644408,37.8191998],[-8.5690816,37.8170246],[-8.5837512,37.7993704],[-8.5820125,37.7896303],[-8.5841436,37.7842433],[-8.5899784,37.7785024],[-8.5877036,37.7569001],[-8.6084384,37.7594038],[-8.6172856,37.7494971],[-8.6233303,37.749962],[-8.6246901,37.7546698],[-8.6330203,37.7530859],[-8.6451568,37.7629389],[-8.6526857,37.7643766],[-8.6603056,37.7681726],[-8.6679344,37.7667138],[-8.6723379,37.7632473],[-8.6720329,37.7584687],[-8.6834625,37.7532283],[-8.6901472,37.7585881],[-8.6956843,37.7712215],[-8.6950529,37.7757786],[-8.7072621,37.778906],[-8.7091534,37.7872724],[-8.7188061,37.7943928],[-8.7264659,37.8086225],[-8.7316105,37.8074583],[-8.7366165,37.8149243],[-8.7493067,37.8122849],[-8.7606738,37.815639],[-8.7613638,37.812061],[-8.7705725,37.810813],[-8.7762017,37.804947],[-8.7826512,37.8071771],[-8.785479,37.8178989],[-8.7930799,37.8195742],[-8.7980501,37.8030377],[-8.8017466,37.7955165],[-8.802785,37.7779566],[-8.8072403,37.7731912],[-8.8044949,37.7687272],[-8.8075427,37.7639101],[-8.807803,37.752529],[-8.8121111,37.7469234],[-8.8097974,37.7415079],[-8.8043451,37.74015],[-8.7964721,37.7348166],[-8.7970115,37.7317232],[-8.7921436,37.7236068],[-8.7924076,37.7202127],[-8.7868821,37.7141264],[-8.7950876,37.7006202],[-8.7922153,37.6976479],[-8.7937271,37.6858587],[-8.7970148,37.6796413],[-8.7955086,37.6767339],[-8.7981291,37.6686664],[-8.8027972,37.661323],[-8.8005467,37.6579],[-8.8051003,37.6485877],[-8.8083331,37.6362433],[-8.8115075,37.6302582],[-8.8092903,37.6240386],[-8.8127524,37.6178427],[-8.8118867,37.609907],[-8.8165003,37.6052921],[-8.8192763,37.5984397],[-8.8129694,37.5886797],[-8.81151,37.5800632],[-8.8072698,37.5790168],[-8.7997294,37.5667299],[-8.7968702,37.566245],[-8.7953487,37.5547578],[-8.7919912,37.5515731],[-8.7856681,37.5327953],[-8.788386,37.5271944],[-8.786843,37.5219002],[-8.7943762,37.5097241],[-8.79109,37.5047047],[-8.7966807,37.4987731],[-8.7950136,37.4815826],[-8.7991507,37.4789466],[-8.8003753,37.473011],[-8.7969554,37.4649132],[-8.8017865,37.4461806],[-8.7928466,37.4364494],[-8.7810534,37.433864],[-8.7692931,37.4365519],[-8.7535098,37.4303353],[-8.7531795,37.431945],[-8.7507337,37.4323054],[-8.748827,37.4294446],[-8.7511452,37.4279113],[-8.751858,37.4231838],[-8.7488878,37.4228336],[-8.7463603,37.4252258],[-8.7441864,37.4235396],[-8.7490573,37.4205197],[-8.7486475,37.4158818],[-8.7390522,37.4144666],[-8.7333097,37.3951865],[-8.7160196,37.3995295],[-8.7138612,37.3967709],[-8.7059845,37.400185],[-8.6983329,37.3996776],[-8.6876908,37.3954615],[-8.6839583,37.4006931],[-8.664326,37.4007831],[-8.6539028,37.3882366],[-8.646194,37.3832549],[-8.644993,37.3770541],[-8.6365162,37.3778678],[-8.6339165,37.3865576],[-8.6285184,37.389315],[-8.6233947,37.3994419],[-8.6102402,37.4028862],[-8.6037785,37.4009082],[-8.5848555,37.403518],[-8.5691982,37.4108771],[-8.4564277,37.3749851],[-8.4409385,37.3863565],[-8.430174,37.3834006],[-8.4216281,37.395014],[-8.424817,37.408362],[-8.4071117,37.4236552],[-8.3951865,37.425713],[-8.3722096,37.4261965],[-8.3501009,37.4292443],[-8.3369997,37.4325963],[-8.3318876,37.4292774],[-8.3235129,37.4269495],[-8.2996271,37.4333549],[-8.2849277,37.4309295],[-8.2775693,37.424641],[-8.2745683,37.3883198],[-8.23057,37.3674573],[-8.1884849,37.3416096],[-8.1329649,37.3324468],[-8.0829187,37.3288269],[-8.0658468,37.3189368],[-8.0624939,37.32359],[-8.0377551,37.3424547],[-8.0155635,37.3604379],[-8.0012252,37.3582031],[-7.9983197,37.3643458],[-7.9933956,37.3621294],[-7.9897551,37.3655514],[-8.0009317,37.3696454],[-7.9998088,37.3850864],[-8.0048603,37.3863154],[-8.000254,37.3975158],[-7.9867866,37.3960672],[-7.9823982,37.3983307],[-7.9842404,37.4038586],[-7.9788552,37.4065263],[-7.9713558,37.4025441],[-7.9652542,37.4090145],[-7.9568929,37.4090237],[-7.955335,37.4041122],[-7.8979584,37.4182335],[-7.8553994,37.4397093],[-7.7917433,37.4712858],[-7.7330944,37.4910288],[-7.6785393,37.502561],[-7.6414769,37.5001569],[-7.6202152,37.4898788],[-7.5888185,37.516436],[-7.5520081,37.5227951],[-7.5124177,37.5260679],[-7.5122977,37.5377771],[-7.5197059,37.5468374],[-7.5226651,37.5530652]]]}}
]
}
