{
"type": "FeatureCollection",
"name": "03",
"crs": { "type": "name", "properties": { "name": "urn:ogc:def:crs:OGC:1.3:CRS84" } },
"features": [
{"type":"Feature","properties":{"iso3166":"PT-03"},"geometry":{"type":"Polygon","coordinates":[[[-8.5478594,41.3476245],[-8.537229,41.3429983],[-8.5289009,41.3466493],[-8.5183837,41.3456754],[-8.5014541,41.368335],[-8.4760471,41.3721734],[-8.4493398,41.3739573],[-8.440636,41.3634979],[-8.4315094,41.3629602],[-8.4231304,41.3658351],[-8.3994279,41.3842886],[-8.3885667,41.3812698],[-8.3955846,41.3688267],[-8.3936972,41.3619929],[-8.3787677,41.3682702],[-8.37465,41.3622938],[-8.3576336,41.365016],[-8.3453269,41.3714149],[-8.3260853,41.3768507],[-8.3280908,41.3657713],[-8.3036827,41.3430954],[-8.2783783,41.345828],[-8.2742805,41.364875],[-8.2658284,41.3773173],[-8.2601225,41.3783632],[-8.2439923,41.3929944],[-8.2203687,41.3977044],[-8.2230096,41.4099427],[-8.2153979,41.4118734],[-8.2005753,41.4088435],[-8.1855214,41.4099656],[-8.1805148,41.4025089],[-8.1658416,41.4002991],[-8.1599499,41.3921358],[-8.1588238,41.3811624],[-8.1403805,41.3783633],[-8.1461391,41.364176],[-8.1307578,41.3553163],[-8.1301489,41.3485806],[-8.119673,41.3431604],[-8.0957447,41.3382573],[-8.0865093,41.3293489],[-8.0788669,41.3320594],[-8.0771279,41.3380968],[-8.0653713,41.3432769],[-8.0576821,41.333116],[-8.0489891,41.331799],[-8.0463504,41.3266083],[-8.035737,41.3187983],[-8.0289685,41.3190773],[-8.0037939,41.3419583],[-7.9895704,41.3466048],[-7.9876182,41.3562373],[-7.974425214816973,41.37438697893846],[-7.9673222,41.3892976],[-7.972033,41.3927422],[-7.9629786,41.4038556],[-7.9666763,41.4120686],[-7.9416915,41.4299839],[-7.9373619,41.4459012],[-7.9438452,41.4525893],[-7.9387241,41.4606429],[-7.9381895,41.4773562],[-7.9273222,41.4876122],[-7.914799,41.4917855],[-7.9025803,41.4893257],[-7.8885845,41.508966],[-7.8613522,41.5117831],[-7.8640027,41.524429],[-7.852912,41.5271657],[-7.8378054,41.5393324],[-7.835884,41.5473142],[-7.8393069,41.5533189],[-7.8325624,41.556905],[-7.8219536,41.5559057],[-7.8137845,41.5653289],[-7.8106767,41.5733459],[-7.8295209,41.6022235],[-7.8395447,41.6109819],[-7.8509128,41.6150729],[-7.8573373,41.6014174],[-7.8793819,41.5882334],[-7.8908128,41.5932531],[-7.9056072,41.5869702],[-7.9321221,41.595272],[-7.9463604,41.5960959],[-7.9527371,41.5931306],[-7.966488,41.6039247],[-7.9869897,41.6007861],[-7.9966059,41.6030835],[-8.0030188,41.6208849],[-8.0012381,41.6408994],[-7.9945098,41.6509266],[-7.9989387,41.6533452],[-7.9947362,41.6636382],[-7.988768,41.6664867],[-7.9815366,41.6780634],[-7.9940824,41.6865249],[-8.0096211,41.6905732],[-8.017718,41.6890546],[-8.0238163,41.6979615],[-8.0389127,41.7005853],[-8.0480045,41.6927905],[-8.0652735,41.6918018],[-8.0737636,41.6954901],[-8.1124054,41.6877974],[-8.1185336,41.692266],[-8.1090173,41.7019389],[-8.094276,41.7074058],[-8.0878495,41.7131582],[-8.0817277,41.7251275],[-8.0819549,41.7329429],[-8.0764968,41.7498008],[-8.0611603,41.7624863],[-8.0636259,41.7737416],[-8.0605839,41.7773348],[-8.0608533,41.7872484],[-8.0572751,41.7981138],[-8.0487175,41.7997004],[-8.0451487,41.8104141],[-8.0531948,41.820229],[-8.0576572,41.8157174],[-8.0655028,41.8174395],[-8.0727385,41.8134574],[-8.0939171,41.8080354],[-8.1045474,41.8117878],[-8.1210146,41.8113756],[-8.1309028,41.8088605],[-8.1543332,41.8179825],[-8.166467621069726,41.817461998597381],[-8.1686548,41.8072296],[-8.1767091,41.808082],[-8.183494,41.8127814],[-8.1966555,41.8122086],[-8.2055813,41.8041556],[-8.2140297,41.8022591],[-8.2316878,41.7874194],[-8.2405839,41.7888686],[-8.2454323,41.7829061],[-8.260907,41.7783915],[-8.2709558,41.7714366],[-8.2915304,41.7819444],[-8.2974769,41.777888],[-8.2993133,41.7683736],[-8.3083226,41.7610716],[-8.3219803,41.764046],[-8.3367048,41.7646451],[-8.349679,41.7597938],[-8.3645384,41.7628549],[-8.3748339,41.770626],[-8.3825644,41.7613628],[-8.3945954,41.761113],[-8.3988009,41.757789],[-8.4141881,41.7589933],[-8.4306134,41.753609],[-8.4372151,41.7477942],[-8.4540761,41.7406672],[-8.4614797,41.732262],[-8.4857157,41.7271756],[-8.4872877,41.7398291],[-8.4935198,41.7415417],[-8.5183442,41.7262517],[-8.5137414,41.7212985],[-8.5217652,41.6795741],[-8.530228,41.6804232],[-8.5355939,41.6737089],[-8.5428613,41.6714326],[-8.54736,41.663275],[-8.5371536,41.6535018],[-8.5426735,41.6376933],[-8.5407472,41.6313088],[-8.5650015,41.6253053],[-8.5773102,41.6429579],[-8.5850971,41.6439043],[-8.6041346,41.6343145],[-8.6164416,41.6439524],[-8.6271451,41.6429825],[-8.6286448,41.650833],[-8.6432819,41.6543798],[-8.6477703,41.6451661],[-8.6463355,41.6327874],[-8.6504554,41.6315612],[-8.6640333,41.642315],[-8.6772917,41.6396443],[-8.696352,41.6407409],[-8.7049287,41.633075],[-8.7241953,41.6338215],[-8.7324482,41.6216876],[-8.7419563,41.6191119],[-8.7482325,41.6249359],[-8.7567242,41.6215289],[-8.7568137,41.614385],[-8.7749171,41.6138217],[-8.8085467,41.6062369],[-8.8058946,41.5864693],[-8.7990513,41.5716228],[-8.799356,41.5656766],[-8.7933844,41.5485019],[-8.7914675,41.5372292],[-8.7927337,41.5269241],[-8.7870011,41.5136854],[-8.7911922,41.5013303],[-8.7848881,41.4895568],[-8.7773973,41.481344],[-8.7764281,41.4719715],[-8.7525882,41.4661401],[-8.7462625,41.468587],[-8.7295159,41.453606],[-8.7122677,41.4545485],[-8.7007582,41.4421558],[-8.6831896,41.4491625],[-8.6680829,41.4446039],[-8.6501371,41.4196861],[-8.6225473,41.4098977],[-8.6134637,41.4081716],[-8.6052308,41.4126638],[-8.5923067,41.3949843],[-8.6227793,41.3840694],[-8.6154252,41.3645491],[-8.615199,41.3564704],[-8.602406,41.3455664],[-8.5799486,41.3470007],[-8.5603933,41.3443899],[-8.5478594,41.3476245]]]}}
]
}
