{
  "type": "FeatureCollection",
  "name": "04",
  "crs": {
    "type": "name",
    "properties": {
      "name": "urn:ogc:def:crs:OGC:1.3:CRS84"
    }
  },
  "features": [
    {
      "type": "Feature",
      "properties": {
        "iso3166": "PT-04"
      },
      "geometry": {
        "type": "Polygon",
        "coordinates": [
          [
            [
              -6.852869,
              41.0273788
            ],
            [
              -6.8337737,
              41.0284807
            ],
            [
              -6.808931,
              41.0364965
            ],
            [
              -6.8080941,
              41.0455343
            ],
            [
              -6.7898559,
              41.0575659
            ],
            [
              -6.7743368,
              41.0770642
            ],
            [
              -6.7692303,
              41.0885379
            ],
            [
              -6.7541938,
              41.1040617
            ],
            [
              -6.7707565,
              41.1240102
            ],
            [
              -6.7678712,
              41.1348371
            ],
            [
              -6.7542328,
              41.1396849
            ],
            [
              -6.7404694,
              41.1492487
            ],
            [
              -6.727193,
              41.1636812
            ],
            [
              -6.7115033,
              41.1708444
            ],
            [
              -6.7014696,
              41.1802814
            ],
            [
              -6.6888725,
              41.1998356
            ],
            [
              -6.6914839,
              41.207024
            ],
            [
              -6.6800725,
              41.2194165
            ],
            [
              -6.6714434,
              41.2231818
            ],
            [
              -6.6604756,
              41.2339114
            ],
            [
              -6.6529499,
              41.2353562
            ],
            [
              -6.6483775,
              41.2475503
            ],
            [
              -6.628704,
              41.2427645
            ],
            [
              -6.6203548,
              41.2475805
            ],
            [
              -6.5951953,
              41.2529037
            ],
            [
              -6.5866565,
              41.2524008
            ],
            [
              -6.5863081,
              41.2430764
            ],
            [
              -6.5805233,
              41.2390583
            ],
            [
              -6.5508031,
              41.2465396
            ],
            [
              -6.5471131,
              41.2579728
            ],
            [
              -6.5174081,
              41.2744766
            ],
            [
              -6.512832,
              41.2652644
            ],
            [
              -6.4987173,
              41.265208
            ],
            [
              -6.4787916,
              41.2750314
            ],
            [
              -6.4913399,
              41.2848986
            ],
            [
              -6.4895659,
              41.2893097
            ],
            [
              -6.468848,
              41.3012762
            ],
            [
              -6.4493039,
              41.2988506
            ],
            [
              -6.43763,
              41.305321
            ],
            [
              -6.4383899,
              41.3150011
            ],
            [
              -6.4331522,
              41.3207561
            ],
            [
              -6.4181474,
              41.3261566
            ],
            [
              -6.426042,
              41.3348803
            ],
            [
              -6.4152687,
              41.3479586
            ],
            [
              -6.392073,
              41.3498928
            ],
            [
              -6.3797301,
              41.3563154
            ],
            [
              -6.3934822,
              41.3698629
            ],
            [
              -6.39051,
              41.3840565
            ],
            [
              -6.3650046,
              41.3868261
            ],
            [
              -6.3524811,
              41.3783411
            ],
            [
              -6.3413594,
              41.3799677
            ],
            [
              -6.3154086,
              41.3900686
            ],
            [
              -6.3200789,
              41.4009478
            ],
            [
              -6.3333074,
              41.4065718
            ],
            [
              -6.3268652,
              41.4164072
            ],
            [
              -6.3099728,
              41.4194326
            ],
            [
              -6.2948877,
              41.4352057
            ],
            [
              -6.305282,
              41.4497098
            ],
            [
              -6.2869575,
              41.4654073
            ],
            [
              -6.2840409,
              41.4790174
            ],
            [
              -6.2700137,
              41.4865117
            ],
            [
              -6.2642727,
              41.4988135
            ],
            [
              -6.2511322,
              41.5017227
            ],
            [
              -6.2579954,
              41.5119284
            ],
            [
              -6.2369429,
              41.521357
            ],
            [
              -6.2172845,
              41.5430918
            ],
            [
              -6.2117425,
              41.5591497
            ],
            [
              -6.1891593,
              41.5748318
            ],
            [
              -6.2014635,
              41.5945637
            ],
            [
              -6.2099832,
              41.5994455
            ],
            [
              -6.2358062,
              41.607057
            ],
            [
              -6.2544582,
              41.6329995
            ],
            [
              -6.2890824,
              41.6558274
            ],
            [
              -6.302297,
              41.6618119
            ],
            [
              -6.3546666,
              41.6764053
            ],
            [
              -6.3745286,
              41.6737496
            ],
            [
              -6.4060404,
              41.6809042
            ],
            [
              -6.4256281,
              41.6794504
            ],
            [
              -6.445047,
              41.6848242
            ],
            [
              -6.4523629,
              41.6809098
            ],
            [
              -6.4573625,
              41.6665978
            ],
            [
              -6.4693858,
              41.6662466
            ],
            [
              -6.4887275,
              41.6575186
            ],
            [
              -6.4996205,
              41.6571248
            ],
            [
              -6.5125549,
              41.6612237
            ],
            [
              -6.5276508,
              41.6752769
            ],
            [
              -6.5482737,
              41.6855954
            ],
            [
              -6.5536574,
              41.7017418
            ],
            [
              -6.5424855,
              41.701154
            ],
            [
              -6.5538844,
              41.7174984
            ],
            [
              -6.5577471,
              41.7345136
            ],
            [
              -6.5644736,
              41.7516829
            ],
            [
              -6.554752,
              41.758216
            ],
            [
              -6.5557764,
              41.7643031
            ],
            [
              -6.543946,
              41.7837247
            ],
            [
              -6.5424669,
              41.8043704
            ],
            [
              -6.5323216,
              41.8199017
            ],
            [
              -6.5223931,
              41.8540633
            ],
            [
              -6.52567,
              41.8591695
            ],
            [
              -6.5158555,
              41.8700392
            ],
            [
              -6.5176401,
              41.8750882
            ],
            [
              -6.5378187,
              41.8767261
            ],
            [
              -6.5711794,
              41.8834955
            ],
            [
              -6.5613369,
              41.8959427
            ],
            [
              -6.5577047,
              41.9103538
            ],
            [
              -6.5459647,
              41.9307922
            ],
            [
              -6.5493949,
              41.9445432
            ],
            [
              -6.5749216,
              41.9608466
            ],
            [
              -6.5891772,
              41.9629264
            ],
            [
              -6.599459,
              41.9483028
            ],
            [
              -6.6074401,
              41.9489716
            ],
            [
              -6.6173034,
              41.9410612
            ],
            [
              -6.6357579,
              41.9420513
            ],
            [
              -6.7000058,
              41.9333151
            ],
            [
              -6.7144586,
              41.9375781
            ],
            [
              -6.7265617,
              41.937096
            ],
            [
              -6.7505824,
              41.9436456
            ],
            [
              -6.7673635,
              41.9746986
            ],
            [
              -6.7686858,
              41.9840903
            ],
            [
              -6.7855467,
              41.9887388
            ],
            [
              -6.7978985,
              41.9885965
            ],
            [
              -6.8113479,
              41.9925213
            ],
            [
              -6.8100164,
              41.9695416
            ],
            [
              -6.8216067,
              41.9460054
            ],
            [
              -6.8488597,
              41.9423929
            ],
            [
              -6.8695323,
              41.9484575
            ],
            [
              -6.8850801,
              41.940309
            ],
            [
              -6.9114599,
              41.9441134
            ],
            [
              -6.9443053,
              41.9446581
            ],
            [
              -6.9578062,
              41.9689384
            ],
            [
              -6.9793649,
              41.9737827
            ],
            [
              -6.9987852,
              41.9628458
            ],
            [
              -7.0062384,
              41.9505655
            ],
            [
              -7.0364139,
              41.9510821
            ],
            [
              -7.0424175,
              41.9550426
            ],
            [
              -7.0537425,
              41.9490797
            ],
            [
              -7.0769558,
              41.9519373
            ],
            [
              -7.0875102,
              41.9734771
            ],
            [
              -7.1189959,
              41.9865873
            ],
            [
              -7.1414588,
              41.9907578
            ],
            [
              -7.1643803,
              41.9794461
            ],
            [
              -7.1797734,
              41.979253
            ],
            [
              -7.1866595,
              41.9694338
            ],
            [
              -7.1821552,
              41.9518395
            ],
            [
              -7.1874613,
              41.9474679
            ],
            [
              -7.1838509,
              41.9330145
            ],
            [
              -7.1736492,
              41.9189197
            ],
            [
              -7.1822812,
              41.9121674
            ],
            [
              -7.1851886,
              41.8964459
            ],
            [
              -7.2029053,
              41.8730013
            ],
            [
              -7.1949379,
              41.8663416
            ],
            [
              -7.2016875,
              41.8579663
            ],
            [
              -7.2017709,
              41.8496811
            ],
            [
              -7.2135978,
              41.8271649
            ],
            [
              -7.2084295,
              41.8260567
            ],
            [
              -7.2087686,
              41.8092205
            ],
            [
              -7.1984126,
              41.8024546
            ],
            [
              -7.1956072,
              41.7888655
            ],
            [
              -7.1712179,
              41.7699039
            ],
            [
              -7.1759274,
              41.7373093
            ],
            [
              -7.1884387,
              41.7352856
            ],
            [
              -7.1962218,
              41.719838
            ],
            [
              -7.2088957,
              41.7117779
            ],
            [
              -7.2138115,
              41.6811613
            ],
            [
              -7.2205564,
              41.6741495
            ],
            [
              -7.2292662,
              41.6577891
            ],
            [
              -7.2429121,
              41.6421547
            ],
            [
              -7.2481532,
              41.6296509
            ],
            [
              -7.2453488,
              41.6171911
            ],
            [
              -7.2522287,
              41.6125228
            ],
            [
              -7.2584461,
              41.5903229
            ],
            [
              -7.2532925,
              41.5807788
            ],
            [
              -7.2587875,
              41.5734093
            ],
            [
              -7.2584015,
              41.5631997
            ],
            [
              -7.2499124,
              41.5546035
            ],
            [
              -7.2483209,
              41.5455515
            ],
            [
              -7.2392995,
              41.541129
            ],
            [
              -7.2291123,
              41.5227975
            ],
            [
              -7.2616439,
              41.5165805
            ],
            [
              -7.2839546,
              41.5156278
            ],
            [
              -7.2973592,
              41.4991627
            ],
            [
              -7.3076583,
              41.4612844
            ],
            [
              -7.3302709,
              41.4592373
            ],
            [
              -7.3330692,
              41.4510488
            ],
            [
              -7.3445617,
              41.4526575
            ],
            [
              -7.3653229,
              41.4404229
            ],
            [
              -7.3596152,
              41.4242724
            ],
            [
              -7.3657513,
              41.4166114
            ],
            [
              -7.366138,
              41.3967241
            ],
            [
              -7.361374,
              41.3819655
            ],
            [
              -7.3535832,
              41.3755597
            ],
            [
              -7.3621778,
              41.3669678
            ],
            [
              -7.3480982,
              41.3516345
            ],
            [
              -7.3141673,
              41.3414496
            ],
            [
              -7.3470285,
              41.3308094
            ],
            [
              -7.3568739,
              41.3310079
            ],
            [
              -7.3756864,
              41.313642
            ],
            [
              -7.3621542,
              41.3043108
            ],
            [
              -7.3731539,
              41.2930438
            ],
            [
              -7.3914079,
              41.2858228
            ],
            [
              -7.3870855,
              41.2739412
            ],
            [
              -7.3949723,
              41.262389
            ],
            [
              -7.3888851,
              41.2485904
            ],
            [
              -7.3897595,
              41.2425411
            ],
            [
              -7.4150512,
              41.2477
            ],
            [
              -7.4226125,
              41.2403589
            ],
            [
              -7.4214706,
              41.2202709
            ],
            [
              -7.4318921,
              41.2108015
            ],
            [
              -7.3885908,
              41.1928805
            ],
            [
              -7.382477,
              41.1779723
            ],
            [
              -7.3726165,
              41.1686252
            ],
            [
              -7.3749921,
              41.1592026
            ],
            [
              -7.3612188,
              41.1565935
            ],
            [
              -7.357507,
              41.1479576
            ],
            [
              -7.3408601,
              41.1438785
            ],
            [
              -7.311226,
              41.146929
            ],
            [
              -7.3062043,
              41.140744
            ],
            [
              -7.2828841,
              41.1354939
            ],
            [
              -7.2687326,
              41.1423208
            ],
            [
              -7.2463013,
              41.1443385
            ],
            [
              -7.2260084,
              41.1368531
            ],
            [
              -7.2111916,
              41.1363078
            ],
            [
              -7.1925278,
              41.1266199
            ],
            [
              -7.1637517,
              41.126135
            ],
            [
              -7.1585041,
              41.14345
            ],
            [
              -7.1479946,
              41.1562705
            ],
            [
              -7.1324171,
              41.1603275
            ],
            [
              -7.1248904,
              41.1770886
            ],
            [
              -7.1127857,
              41.1759798
            ],
            [
              -7.1146661,
              41.1508244
            ],
            [
              -7.1273299,
              41.1448757
            ],
            [
              -7.1226734,
              41.1343146
            ],
            [
              -7.1007542,
              41.1357691
            ],
            [
              -7.0878024,
              41.1318722
            ],
            [
              -7.0855087,
              41.120423
            ],
            [
              -7.1011658,
              41.105979
            ],
            [
              -7.1054766,
              41.0914706
            ],
            [
              -7.1012685,
              41.07992
            ],
            [
              -7.0790647,
              41.0732565
            ],
            [
              -7.0513739,
              41.0576585
            ],
            [
              -7.0512836,
              41.0501686
            ],
            [
              -7.0435313,
              41.0442772
            ],
            [
              -7.0275083,
              41.0383071
            ],
            [
              -7.0104854,
              41.0407659
            ],
            [
              -6.9955191,
              41.0348055
            ],
            [
              -6.9932377,
              41.0255597
            ],
            [
              -6.9835859,
              41.0262497
            ],
            [
              -6.9737524,
              41.0349727
            ],
            [
              -6.961053,
              41.0318616
            ],
            [
              -6.9313566,
              41.0294111
            ],
            [
              -6.9150043,
              41.0383969
            ],
            [
              -6.8779604,
              41.0278599
            ],
            [
              -6.852869,
              41.0273788
            ]
          ]
        ]
      }
    }
  ]
}