{
"type": "FeatureCollection",
"name": "05",
"crs": { "type": "name", "properties": { "name": "urn:ogc:def:crs:OGC:1.3:CRS84" } },
"features": [
{"type":"Feature","properties":{"iso3166":"PT-05"},"geometry":{"type":"Polygon","coordinates":[[[-7.5167574,39.6657567],[-7.4918427,39.6657847],[-7.4752068,39.6627011],[-7.4542031,39.6621812],[-7.4396987,39.6587789],[-7.4313607,39.6536687],[-7.4164295,39.6487901],[-7.4012609,39.6462461],[-7.3918183,39.6497435],[-7.3751628,39.6507768],[-7.3311606,39.6409943],[-7.3183815,39.6485382],[-7.2926424,39.6555606],[-7.2839404,39.6613182],[-7.2515217,39.6668106],[-7.2462576,39.6666263],[-7.2189443,39.6602798],[-7.2015023,39.6621653],[-7.1939167,39.6601819],[-7.163328,39.6558499],[-7.1513497,39.6530719],[-7.1427903,39.6537984],[-7.1280411,39.6627264],[-7.1041292,39.6641864],[-7.0888086,39.6632743],[-7.0731583,39.6581908],[-7.0549694,39.6595487],[-7.0368873,39.6659445],[-7.0155162,39.6704277],[-7.0133237,39.6793271],[-7.0076907,39.6840006],[-7.0053912,39.7017327],[-6.9997335,39.7136528],[-6.987707,39.7284628],[-6.9932215,39.730769],[-6.9937591,39.7415009],[-6.9871909,39.7537187],[-6.9871823,39.7631902],[-6.9769225,39.7719854],[-6.9868424,39.7975909],[-6.9872041,39.8100272],[-6.9807773,39.8200527],[-6.9750738,39.8194559],[-6.970539,39.8251811],[-6.9582133,39.8237843],[-6.9480251,39.8278678],[-6.943982,39.8356245],[-6.9352877,39.838254],[-6.9360823,39.8425753],[-6.9314608,39.8521768],[-6.924734,39.8574571],[-6.9143273,39.8587669],[-6.9035912,39.8707055],[-6.9019721,39.8866451],[-6.906039,39.8903308],[-6.8992372,39.9016291],[-6.8995335,39.9099928],[-6.9065842,39.9238181],[-6.9013676,39.9305527],[-6.8921359,39.9330527],[-6.8855075,39.9401328],[-6.8847113,39.9548582],[-6.8878229,39.9644679],[-6.8799946,39.9732264],[-6.8866801,39.9793506],[-6.8757827,39.9922744],[-6.8727201,39.9990463],[-6.8736232,40.007774],[-6.8663048,40.0095145],[-6.8666588,40.0152392],[-6.8755716,40.0170141],[-6.8743271,40.023917],[-6.8825361,40.0334078],[-6.8809297,40.0416751],[-6.8970502,40.0534173],[-6.89335,40.0609655],[-6.9022688,40.0610961],[-6.9078802,40.0661552],[-6.9179408,40.0680632],[-6.9187957,40.0827445],[-6.9207858,40.0870738],[-6.9312239,40.0953976],[-6.9335362,40.1033261],[-6.9425561,40.1035654],[-6.9542245,40.1156067],[-6.9692468,40.1149402],[-6.9866155,40.1190924],[-6.9992353,40.1189719],[-7.0069878,40.1248522],[-7.0189491,40.1425947],[-7.0143816,40.1579554],[-7.0216581,40.1669949],[-7.0164865,40.176464],[-7.0298862,40.1839695],[-7.0283364,40.1909059],[-7.0202787,40.195943],[-7.0184798,40.2069801],[-7.008893,40.2273193],[-6.9985178,40.2352185],[-6.987583,40.2367716],[-6.9790502,40.240656],[-6.9730878,40.2366933],[-6.9624504,40.2387256],[-6.9543879,40.2491611],[-6.9514177,40.2575728],[-6.9620224,40.2680705],[-6.9832152,40.2725887],[-6.9865622,40.2774913],[-7.0004779,40.2806785],[-7.0138708,40.2901383],[-7.0228861,40.2900674],[-7.0215146,40.2835553],[-7.0323112,40.2782509],[-7.051573,40.2801195],[-7.0591297,40.276435],[-7.0837701,40.2785767],[-7.0944714,40.2849915],[-7.0868113,40.2900976],[-7.0988873,40.307229],[-7.0980457,40.3146374],[-7.1022978,40.3205608],[-7.1118671,40.3246425],[-7.1195187,40.3223306],[-7.1313278,40.3091239],[-7.1355437,40.2950033],[-7.1359621,40.2828896],[-7.1514628,40.2761358],[-7.160344,40.26924],[-7.1687183,40.2678204],[-7.1736453,40.2755337],[-7.1829869,40.2772854],[-7.2055869,40.2857734],[-7.2157085,40.2848945],[-7.224791,40.2784705],[-7.2357473,40.2620487],[-7.2438255,40.2590685],[-7.2576284,40.267489],[-7.2735795,40.265746],[-7.2852459,40.2722713],[-7.2967029,40.2714834],[-7.3090993,40.2790846],[-7.3190659,40.2807169],[-7.332556,40.2939322],[-7.3253898,40.2951639],[-7.3140233,40.30367],[-7.3092615,40.3026684],[-7.2866583,40.3249552],[-7.2859703,40.3303261],[-7.2757878,40.3393865],[-7.273394,40.3489125],[-7.2770467,40.3719292],[-7.2702314,40.3876132],[-7.2703929,40.4080575],[-7.2858937,40.4118015],[-7.2927687,40.4161318],[-7.3067524,40.4034774],[-7.3171401,40.4104334],[-7.3275685,40.4107607],[-7.3425263,40.4000505],[-7.3454762,40.3863858],[-7.3592014,40.3923373],[-7.3654979,40.3913834],[-7.381088,40.3824278],[-7.4061941,40.3810107],[-7.4288968,40.3916209],[-7.4374767,40.3867328],[-7.4473157,40.3868345],[-7.4616364,40.4018351],[-7.4871086,40.394793],[-7.4961821,40.3852392],[-7.5054151,40.3799826],[-7.5164953,40.3664826],[-7.5189825,40.3496554],[-7.517863,40.34357],[-7.531894,40.3291469],[-7.5371975,40.3178395],[-7.5548783,40.320256],[-7.5709282,40.3198773],[-7.5813206,40.3112701],[-7.5867208,40.3199921],[-7.6030389,40.3243523],[-7.6129176,40.3219003],[-7.6190609,40.3095055],[-7.6187452,40.2997458],[-7.6302861,40.2940341],[-7.6312798,40.2902451],[-7.6438276,40.2831758],[-7.6558881,40.2736653],[-7.6642962,40.2706914],[-7.6858822,40.2701531],[-7.7099666,40.2607606],[-7.714211,40.2545953],[-7.7260975,40.247186],[-7.7337504,40.2368888],[-7.75989,40.234778],[-7.7702162,40.2372008],[-7.7823921,40.2299187],[-7.7843435,40.2081877],[-7.7957195,40.2015964],[-7.8075754,40.1816559],[-7.8007941,40.1758628],[-7.8009584,40.166566],[-7.7941654,40.1594454],[-7.7761212,40.157574],[-7.7738719,40.1450297],[-7.7360542,40.123961],[-7.7334139,40.1038511],[-7.7500004,40.100879],[-7.7416002,40.0956363],[-7.7484401,40.0882001],[-7.7574201,40.0838251],[-7.7630094,40.0771555],[-7.7715533,40.0743344],[-7.7763863,40.0685945],[-7.7855549,40.0724009],[-7.7923332,40.0857293],[-7.8010364,40.0832547],[-7.7966158,40.0764976],[-7.8061448,40.0711282],[-7.8002336,40.0612245],[-7.8091418,40.0523374],[-7.8086933,40.0478749],[-7.8013382,40.0449814],[-7.8125043,40.0382365],[-7.8247197,40.0504761],[-7.8375183,40.0510455],[-7.8493717,40.0546243],[-7.8545753,40.0587295],[-7.8641949,40.0580981],[-7.8702761,40.0503134],[-7.8856635,40.0451591],[-7.8917425,40.0414394],[-7.9044386,40.0416955],[-7.9159132,40.0327729],[-7.908253,40.019975],[-7.9061365,40.0087945],[-7.9158153,40.0054793],[-7.9202062,39.9984839],[-7.934706,40.0020079],[-7.9413111,39.9998753],[-7.9529297,40.0023987],[-7.9548165,39.9920988],[-7.963468,39.9855148],[-7.977337,39.9890959],[-7.9890189,39.989043],[-7.9923466,39.9865503],[-7.9908763,39.9781328],[-7.9975503,39.9780951],[-8.0094147,39.9887043],[-8.0141174,39.9846817],[-8.0074828,39.9794055],[-8.016284,39.9712582],[-8.0281706,39.9784724],[-8.036469,39.9768891],[-8.0299212,39.9652971],[-8.0486941,39.9632253],[-8.0557761,39.9696343],[-8.0617925,39.9559232],[-8.0778316,39.9569538],[-8.0786443,39.9611696],[-8.0865225,39.9650621],[-8.0874641,39.9530914],[-8.08253,39.9471215],[-8.0898887,39.9415248],[-8.0989555,39.9412066],[-8.1129153,39.9484485],[-8.1207603,39.9411752],[-8.1230086,39.932872],[-8.1196489,39.9301897],[-8.1287423,39.9256967],[-8.1376293,39.9099195],[-8.1419807,39.8985968],[-8.1397905,39.8948599],[-8.1491692,39.8853453],[-8.1640384,39.8826243],[-8.1715693,39.8753551],[-8.1856889,39.8814988],[-8.1862644,39.8720167],[-8.1998031,39.8648854],[-8.1993136,39.8567971],[-8.211854,39.850399],[-8.2258632,39.855816],[-8.2340825,39.8465992],[-8.2496463,39.84595],[-8.2550924,39.8424699],[-8.2737253,39.8431479],[-8.2774069,39.8367852],[-8.2703557,39.8246581],[-8.2720178,39.8194705],[-8.2820268,39.8190815],[-8.2846197,39.8128921],[-8.2929448,39.8086741],[-8.2917471,39.8031025],[-8.2840882,39.7993588],[-8.2812954,39.7885883],[-8.2824247,39.7779099],[-8.2636751,39.7686766],[-8.2547096,39.7753322],[-8.245327,39.7792946],[-8.2325903,39.7634207],[-8.2291109,39.7546443],[-8.228488,39.7420817],[-8.2337318,39.7402967],[-8.2375216,39.7313581],[-8.2316642,39.7252092],[-8.2349234,39.7223043],[-8.2340914,39.7131806],[-8.2360746,39.7041895],[-8.2254151,39.7051667],[-8.2301236,39.6968678],[-8.2323521,39.6824482],[-8.2289531,39.6740164],[-8.2289928,39.6648135],[-8.2325629,39.6595794],[-8.2319303,39.6464526],[-8.2210196,39.6410009],[-8.2185909,39.6365909],[-8.2075102,39.6369972],[-8.1899009,39.6332347],[-8.1750683,39.6247295],[-8.1531796,39.6237053],[-8.1452699,39.6139822],[-8.1343379,39.6112654],[-8.126648,39.6146781],[-8.1194352,39.6118507],[-8.1096051,39.6134903],[-8.0913307,39.6127353],[-8.0844531,39.6139868],[-8.0695126,39.6208253],[-8.0539829,39.6169844],[-8.0645314,39.6342613],[-8.0774377,39.6586039],[-8.0714269,39.6687437],[-8.0608449,39.6683514],[-8.0580799,39.6747557],[-8.058879,39.6879226],[-8.0621725,39.6934158],[-8.0584128,39.6988889],[-8.0504829,39.7178145],[-8.0555205,39.7326833],[-8.0543498,39.7355631],[-8.0339206,39.7465057],[-8.0234547,39.7402128],[-8.0190476,39.7425321],[-8.0046952,39.7433358],[-7.9999586,39.7335106],[-7.9909145,39.7285861],[-7.9734189,39.7374688],[-7.9701162,39.7460093],[-7.9606898,39.742702],[-7.958276,39.7389287],[-7.9542908,39.7207427],[-7.9528972,39.691687],[-7.9505479,39.6866225],[-7.9595349,39.6667707],[-7.9565318,39.6612867],[-7.9276106,39.66767],[-7.9142538,39.6676692],[-7.9092435,39.6630463],[-7.8971167,39.6581048],[-7.8897715,39.6494359],[-7.8923871,39.6436011],[-7.8812162,39.6445317],[-7.8730219,39.6370425],[-7.8647563,39.6383374],[-7.8611199,39.6239167],[-7.8480532,39.6232613],[-7.8495341,39.6130003],[-7.8464756,39.6072268],[-7.8384202,39.6073506],[-7.8406453,39.5998806],[-7.835789,39.5944235],[-7.8295294,39.5941313],[-7.8166599,39.5850157],[-7.8186058,39.5787535],[-7.8115758,39.5673648],[-7.8224133,39.5580972],[-7.8243835,39.5462576],[-7.8224846,39.5398194],[-7.8131904,39.5429907],[-7.7998672,39.5439625],[-7.7893797,39.5506983],[-7.7822222,39.5594628],[-7.769944,39.5641573],[-7.7613721,39.5750066],[-7.7549225,39.5883249],[-7.7339074,39.5935157],[-7.7223055,39.5932676],[-7.7127167,39.6085374],[-7.7148028,39.6266888],[-7.7053507,39.6352593],[-7.6731085,39.6489094],[-7.6678552,39.6465747],[-7.6605556,39.6342226],[-7.6485143,39.624784],[-7.6374425,39.6227236],[-7.6235107,39.627198],[-7.6072837,39.6371429],[-7.5965698,39.6396606],[-7.5961014,39.6476861],[-7.590127,39.6538677],[-7.5791194,39.6588173],[-7.5667513,39.6602571],[-7.5516151,39.6576156],[-7.5337607,39.6671656],[-7.5167574,39.6657567]]]}}
]
}
