{
"type": "FeatureCollection",
"name": "06",
"crs": { "type": "name", "properties": { "name": "urn:ogc:def:crs:OGC:1.3:CRS84" } },
"features": [
{"type":"Feature","properties":{"iso3166":"PT-06"},"geometry":{"type":"Polygon","coordinates":[[[-8.7840289,40.5203648],[-8.7894361,40.5013269],[-8.7990593,40.4746768],[-8.8207801,40.4055391],[-8.8280783,40.3796412],[-8.836099,40.3582686],[-8.8431197,40.3349921],[-8.8577365,40.2978545],[-8.8666464,40.2786987],[-8.8767605,40.2522504],[-8.8822394,40.2425355],[-8.9092375,40.1865371],[-8.9048581,40.1778716],[-8.8750616,40.1617539],[-8.8715943,40.1469083],[-8.8630437,40.1400761],[-8.8646807,40.1227859],[-8.8703217,40.1056875],[-8.8807655,40.0801372],[-8.8879796,40.0653422],[-8.894933,40.0455029],[-8.8705701,40.0348018],[-8.8666473,40.0268371],[-8.8686496,40.0233772],[-8.8492956,40.0233128],[-8.8387664,40.0282554],[-8.8152617,40.0165378],[-8.8004634,40.0125587],[-8.7976375,40.0214611],[-8.7826169,40.0375439],[-8.7625357,40.0411585],[-8.7338423,40.0318825],[-8.7167535,40.0307894],[-8.703157,40.0275189],[-8.6962805,40.0297572],[-8.6846721,40.0271716],[-8.674214,40.0294829],[-8.6663521,40.016381],[-8.6599178,40.0165636],[-8.6521663,40.0114993],[-8.6401203,40.0096762],[-8.644684,40.0023577],[-8.6428576,39.990418],[-8.6162344,39.9915898],[-8.6118628,40.0014219],[-8.6021682,40.0115861],[-8.5982537,40.022464],[-8.5895375,40.0281001],[-8.5626157,40.0281749],[-8.5523685,40.0239608],[-8.5488741,39.9844252],[-8.5464955,39.9781116],[-8.5519406,39.9725962],[-8.5516946,39.9615799],[-8.5483452,39.9561211],[-8.5388121,39.9488438],[-8.5275897,39.9581835],[-8.5232187,39.9666496],[-8.5206553,39.9802947],[-8.5228388,39.9836117],[-8.4906215,39.9861071],[-8.4865433,39.9925267],[-8.4741264,39.9974911],[-8.4592221,40.0070589],[-8.4555244,40.0155961],[-8.44786,40.0138603],[-8.4332614,40.0029608],[-8.4247831,40.006786],[-8.4368742,40.0158014],[-8.4298669,40.0252938],[-8.4260144,40.0265571],[-8.4022191,40.0009324],[-8.398909,39.9882194],[-8.4025919,39.9790833],[-8.3948236,39.9748628],[-8.3798953,39.9554084],[-8.3810836,39.9514182],[-8.3903959,39.9512254],[-8.3929705,39.9377009],[-8.4067985,39.93464],[-8.4072716,39.929669],[-8.3857504,39.9239427],[-8.3733934,39.9326739],[-8.359291,39.9356101],[-8.3420799,39.9525136],[-8.3346486,39.9568722],[-8.3343147,39.9609786],[-8.3263684,39.9639248],[-8.3278801,39.9699506],[-8.3187154,39.9746781],[-8.3191244,39.9848671],[-8.3119504,39.9887567],[-8.3070496,39.9742985],[-8.2853304,39.9654792],[-8.2722987,39.9761632],[-8.2747521,39.9796991],[-8.2708343,39.9894314],[-8.2775038,39.9898556],[-8.2897054,39.9985516],[-8.2979771,40.0093527],[-8.2969,40.0156483],[-8.2886691,40.0213213],[-8.2810845,40.0308114],[-8.2819906,40.0364454],[-8.2758064,40.0454027],[-8.2687536,40.0511373],[-8.249267,40.0546911],[-8.2422337,40.0672988],[-8.2334052,40.0670622],[-8.209749,40.0520808],[-8.2040073,40.064179],[-8.1939724,40.0703366],[-8.1884417,40.0793723],[-8.1790987,40.0897361],[-8.1629522,40.0831549],[-8.1516961,40.0738057],[-8.1437438,40.0727824],[-8.1431255,40.0629895],[-8.147718,40.057578],[-8.1531181,40.0397786],[-8.152132,40.0332518],[-8.1568215,40.0273525],[-8.1541684,40.0214786],[-8.1439079,40.0132693],[-8.1391175,40.0007277],[-8.1253129,39.9891874],[-8.1196057,39.9866541],[-8.1151064,39.9765877],[-8.109966,39.9715226],[-8.108319,39.9631602],[-8.1128961,39.9540308],[-8.1204253,39.952358],[-8.123517,39.9446493],[-8.1327299,39.9376391],[-8.1230086,39.932872],[-8.1207603,39.9411752],[-8.1129153,39.9484485],[-8.0989555,39.9412066],[-8.0898887,39.9415248],[-8.08253,39.9471215],[-8.0874641,39.9530914],[-8.0865225,39.9650621],[-8.0786443,39.9611696],[-8.0778316,39.9569538],[-8.0617925,39.9559232],[-8.0557761,39.9696343],[-8.0486941,39.9632253],[-8.0299212,39.9652971],[-8.036469,39.9768891],[-8.0281706,39.9784724],[-8.016284,39.9712582],[-8.0074828,39.9794055],[-8.0141174,39.9846817],[-8.0094147,39.9887043],[-7.9975503,39.9780951],[-7.9908763,39.9781328],[-7.9923466,39.9865503],[-7.9890189,39.989043],[-7.977337,39.9890959],[-7.963468,39.9855148],[-7.9548165,39.9920988],[-7.9529297,40.0023987],[-7.9413111,39.9998753],[-7.934706,40.0020079],[-7.9202062,39.9984839],[-7.9158153,40.0054793],[-7.9061365,40.0087945],[-7.908253,40.019975],[-7.9159132,40.0327729],[-7.9044386,40.0416955],[-7.8917425,40.0414394],[-7.8856635,40.0451591],[-7.8702761,40.0503134],[-7.8641949,40.0580981],[-7.8545753,40.0587295],[-7.8493717,40.0546243],[-7.8375183,40.0510455],[-7.8247197,40.0504761],[-7.8125043,40.0382365],[-7.8013382,40.0449814],[-7.8086933,40.0478749],[-7.8091418,40.0523374],[-7.8002336,40.0612245],[-7.8061448,40.0711282],[-7.7966158,40.0764976],[-7.8010364,40.0832547],[-7.7923332,40.0857293],[-7.7855549,40.0724009],[-7.7763863,40.0685945],[-7.7715533,40.0743344],[-7.7630094,40.0771555],[-7.7574201,40.0838251],[-7.7484401,40.0882001],[-7.7416002,40.0956363],[-7.7500004,40.100879],[-7.7334139,40.1038511],[-7.7360542,40.123961],[-7.7738719,40.1450297],[-7.7761212,40.157574],[-7.7941654,40.1594454],[-7.8009584,40.166566],[-7.8007941,40.1758628],[-7.8075754,40.1816559],[-7.7957195,40.2015964],[-7.7843435,40.2081877],[-7.7823921,40.2299187],[-7.7887086,40.2407365],[-7.8036618,40.2562463],[-7.818041,40.2559951],[-7.8258604,40.2651205],[-7.8168724,40.2716919],[-7.8181701,40.2821556],[-7.8133713,40.2842141],[-7.8070762,40.2949855],[-7.806439,40.3039779],[-7.8013178,40.3094142],[-7.7931899,40.309043],[-7.7895971,40.3139207],[-7.7787151,40.3184785],[-7.765189,40.3164923],[-7.7601694,40.3358537],[-7.7776402,40.3358335],[-7.7873728,40.3460358],[-7.8050628,40.3492964],[-7.8045672,40.3578736],[-7.7972712,40.36165],[-7.7996171,40.3691863],[-7.7958602,40.3736421],[-7.7987652,40.3887421],[-7.7971686,40.4050465],[-7.8090624,40.4057677],[-7.8268823,40.40322],[-7.8451288,40.4140858],[-7.8454619,40.4240444],[-7.8425625,40.4332773],[-7.825993,40.4405096],[-7.8108471,40.4394403],[-7.7969466,40.4574231],[-7.8134298,40.4694019],[-7.8179597,40.475714],[-7.8272977,40.4818155],[-7.8289356,40.4943492],[-7.8393863,40.4935125],[-7.8468292,40.4955541],[-7.8838654,40.4732632],[-7.9051403,40.4526565],[-7.9175002,40.4466075],[-7.9306259,40.4291272],[-7.947142,40.4226918],[-7.954591,40.4238721],[-7.9742563,40.4049827],[-8.003743,40.3915747],[-8.0254902,40.3871105],[-8.0395468,40.3865749],[-8.0570411,40.3719621],[-8.0658654,40.3742449],[-8.0747329,40.3633623],[-8.0879765,40.3611283],[-8.100043,40.353148],[-8.1130119,40.3414187],[-8.1218293,40.3387528],[-8.1293417,40.3430466],[-8.1403498,40.3383384],[-8.1519846,40.3375006],[-8.1721061,40.3441194],[-8.178485,40.3357338],[-8.1861831,40.334274],[-8.1891211,40.3420361],[-8.1986866,40.3389492],[-8.2086353,40.3414055],[-8.2524758,40.323624],[-8.2632715,40.3337338],[-8.2764865,40.3356911],[-8.2931476,40.3542966],[-8.3119491,40.3617982],[-8.3343539,40.3589509],[-8.3423164,40.3694728],[-8.3591746,40.3689739],[-8.3546822,40.3618609],[-8.3578612,40.3474054],[-8.375326,40.3413034],[-8.4039565,40.3498244],[-8.4013401,40.3418847],[-8.4091106,40.3309131],[-8.4095882,40.3238617],[-8.4293525,40.3237468],[-8.4485833,40.3176153],[-8.4493752,40.3090408],[-8.4463501,40.2985298],[-8.4475974,40.2892953],[-8.4543631,40.2791736],[-8.4675438,40.2828406],[-8.4684821,40.2888302],[-8.4775835,40.2884059],[-8.4881623,40.292183],[-8.5094453,40.2893283],[-8.5258614,40.2940153],[-8.5255074,40.2995117],[-8.5298536,40.3156502],[-8.5159595,40.3125235],[-8.4949198,40.3154237],[-8.4849946,40.3153431],[-8.4859094,40.3320295],[-8.4918647,40.3455969],[-8.4832583,40.3627694],[-8.4873097,40.3686566],[-8.4822257,40.3753484],[-8.4829793,40.3887759],[-8.4986339,40.4000534],[-8.5047559,40.4000601],[-8.508134,40.4074755],[-8.5047292,40.4191452],[-8.5176846,40.4204862],[-8.5418239,40.4064979],[-8.5724424,40.4002899],[-8.5793687,40.412381],[-8.5782139,40.4427672],[-8.5710738,40.4505879],[-8.5768476,40.4686452],[-8.5853399,40.4795784],[-8.6071994,40.4809468],[-8.6151332,40.4854482],[-8.620635,40.4821169],[-8.6259087,40.4717844],[-8.6315666,40.4658204],[-8.6332501,40.4459742],[-8.6311639,40.4343957],[-8.6345766,40.4268402],[-8.6479255,40.4240527],[-8.6627426,40.4285003],[-8.6777697,40.4349125],[-8.7017898,40.4591816],[-8.7139544,40.4672969],[-8.7206605,40.4744846],[-8.7297107,40.4786021],[-8.7359671,40.4862216],[-8.7669437,40.5100517],[-8.7840289,40.5203648]]]}}
]
}
