{
"type": "FeatureCollection",
"name": "07",
"crs": { "type": "name", "properties": { "name": "urn:ogc:def:crs:OGC:1.3:CRS84" } },
"features": [
{"type":"Feature","properties":{"iso3166":"PT-07"},"geometry":{"type":"Polygon","coordinates":[[[-7.1176858,38.2112778],[-7.1343878,38.2270987],[-7.1428455,38.2405781],[-7.144789,38.2508905],[-7.1429438,38.2617147],[-7.1559143,38.2790545],[-7.1611004,38.2791137],[-7.175478,38.2884572],[-7.1910699,38.3078375],[-7.2022532,38.329032],[-7.2145024,38.3409228],[-7.2196418,38.3424961],[-7.233198,38.3577469],[-7.2481748,38.3695123],[-7.2687816,38.3916254],[-7.2745164,38.4000231],[-7.2843333,38.4231782],[-7.2912059,38.4239844],[-7.3178977,38.4400875],[-7.3143078,38.4589708],[-7.3018917,38.4653204],[-7.2958904,38.4760349],[-7.3009242,38.4829961],[-7.3121623,38.474497],[-7.3202949,38.4756724],[-7.3208128,38.4853774],[-7.3157409,38.4953404],[-7.3145518,38.5138758],[-7.3032426,38.5200886],[-7.3008702,38.5268648],[-7.3033608,38.5431018],[-7.286021,38.5633445],[-7.283959,38.5759478],[-7.2764103,38.5751292],[-7.2639052,38.587869],[-7.2604149,38.6088304],[-7.2456054,38.6270797],[-7.2666221,38.6279711],[-7.272498,38.638406],[-7.2698673,38.6482186],[-7.2703395,38.6650582],[-7.2662253,38.6815433],[-7.2688495,38.6879043],[-7.2670979,38.6997457],[-7.2580101,38.7135051],[-7.2600338,38.7229425],[-7.2521716,38.7301979],[-7.2387386,38.7367528],[-7.2289759,38.7366237],[-7.203746,38.7514781],[-7.2146875,38.7586818],[-7.2170585,38.7641707],[-7.2275994,38.766826],[-7.2323986,38.7851644],[-7.2183859,38.8025374],[-7.2111413,38.8077999],[-7.2144144,38.8166781],[-7.2140192,38.8314114],[-7.2262077,38.8287445],[-7.2390299,38.8439051],[-7.2453117,38.8478513],[-7.2595712,38.844934],[-7.2632357,38.8383621],[-7.2790735,38.8279399],[-7.2947059,38.8405569],[-7.3101191,38.8290592],[-7.3256429,38.8251927],[-7.3190054,38.8094966],[-7.3467845,38.7981234],[-7.3533273,38.8055175],[-7.3687164,38.8004431],[-7.3816802,38.8068216],[-7.3903263,38.801413],[-7.3958234,38.8116962],[-7.3979393,38.8243022],[-7.4042064,38.8352964],[-7.4192338,38.848217],[-7.409381,38.8580898],[-7.4223041,38.8659237],[-7.4266539,38.8753875],[-7.4277583,38.8880968],[-7.4229259,38.9034877],[-7.4462701,38.9178957],[-7.4661142,38.9260374],[-7.4549055,38.9336722],[-7.4660762,38.9409207],[-7.4616551,38.9463895],[-7.4637686,38.9550829],[-7.4528656,38.9644446],[-7.464795,38.9690477],[-7.4741909,38.9769479],[-7.4828105,38.9767225],[-7.48324,38.9853565],[-7.4919694,38.9891176],[-7.5018848,38.985074],[-7.5125935,38.9861239],[-7.5274567,38.9997667],[-7.533348,39.0084383],[-7.5446303,39.0027147],[-7.5423148,38.9938575],[-7.5533672,38.9918777],[-7.5420954,38.9790626],[-7.5423361,38.9679958],[-7.5669412,38.9579577],[-7.5645974,38.9524336],[-7.6042026,38.9538235],[-7.6202793,38.942818],[-7.6254381,38.9334384],[-7.6341333,38.9294098],[-7.6408896,38.918118],[-7.6541507,38.9163683],[-7.6834388,38.929373],[-7.6948185,38.9192688],[-7.6980891,38.9124003],[-7.713549,38.9203654],[-7.7328764,38.9392002],[-7.7412551,38.9265043],[-7.7420068,38.9184748],[-7.7520268,38.9082448],[-7.7722713,38.9011428],[-7.7855465,38.9071223],[-7.7899471,38.8957933],[-7.798521,38.8987691],[-7.8239663,38.8993531],[-7.8475553,38.9034161],[-7.8526761,38.9010587],[-7.867609,38.9096125],[-7.8759528,38.9083585],[-7.8770009,38.9263753],[-7.8857871,38.9247212],[-7.8949741,38.9314343],[-7.8987215,38.9436026],[-7.9072402,38.9572491],[-7.9232076,38.9718194],[-7.941103,38.9698172],[-7.9463747,38.9720469],[-7.9578621,38.9652424],[-7.9679995,38.9516104],[-7.9957484,38.942239],[-8.0077482,38.9453934],[-8.0219408,38.940795],[-8.0235391,38.9490003],[-8.0138678,38.9583745],[-8.0203767,38.964012],[-8.0137269,38.9813822],[-8.025572,38.988446],[-8.0356991,38.9909232],[-8.0476094,39.0082878],[-8.0553449,39.0070864],[-8.070991,39.0157746],[-8.0784903,39.0137619],[-8.0899827,38.9902422],[-8.087324,38.9760587],[-8.1032507,38.9693833],[-8.1083572,38.9750858],[-8.1136444,38.9919688],[-8.1193086,38.9949928],[-8.1202897,39.0039898],[-8.1118054,39.0143514],[-8.098598,39.0126903],[-8.1038069,39.0227345],[-8.1309658,39.0229947],[-8.1289654,39.0122202],[-8.1403864,39.0124787],[-8.145505,39.023292],[-8.152003,39.0269315],[-8.1634432,39.015091],[-8.1754292,39.0196692],[-8.1920757,39.0078994],[-8.2025805,38.9965587],[-8.2101454,38.9844727],[-8.2181745,38.9805651],[-8.2279148,38.9873869],[-8.2425301,38.9734474],[-8.2343921,38.9692858],[-8.2429267,38.9381496],[-8.2499501,38.9286218],[-8.2622963,38.9204082],[-8.2721882,38.9073918],[-8.2540427,38.899035],[-8.2320666,38.8932892],[-8.2009065,38.8792585],[-8.1953596,38.8729227],[-8.1815898,38.8794165],[-8.1709773,38.8708003],[-8.1587343,38.8663956],[-8.1736435,38.854954],[-8.1861237,38.8507402],[-8.1879107,38.8381302],[-8.1814176,38.8323807],[-8.167989,38.8299542],[-8.1624856,38.8181667],[-8.1545545,38.8092414],[-8.1413927,38.8181397],[-8.1243103,38.8049682],[-8.1401233,38.7880981],[-8.1420361,38.7725849],[-8.1646673,38.7766266],[-8.1756085,38.7826692],[-8.1782153,38.7913739],[-8.1735674,38.8010045],[-8.1818538,38.8031294],[-8.1917763,38.7949239],[-8.204914,38.7992744],[-8.1972722,38.8079555],[-8.2217978,38.8286138],[-8.2295105,38.8229221],[-8.249599,38.8177935],[-8.2589169,38.8270272],[-8.2693507,38.8315497],[-8.269741,38.8422403],[-8.2896279,38.8523566],[-8.3016844,38.8690899],[-8.309951,38.8500351],[-8.3212692,38.8592558],[-8.3424247,38.8388241],[-8.3800432,38.8534559],[-8.3893289,38.8472429],[-8.3818186,38.8408931],[-8.3928556,38.8356757],[-8.4090543,38.8229905],[-8.4179604,38.8267152],[-8.419163,38.8376561],[-8.4386883,38.827512],[-8.443888,38.8133849],[-8.4551839,38.8030532],[-8.462348,38.8017155],[-8.471059,38.7940001],[-8.4837511,38.8040595],[-8.5003709,38.8074793],[-8.5483153,38.7629117],[-8.5245559,38.7617809],[-8.5145137,38.7648909],[-8.4909721,38.7613107],[-8.4917343,38.7546045],[-8.5055929,38.7458636],[-8.511379,38.7325663],[-8.5008929,38.7222133],[-8.5010184,38.7154949],[-8.5199302,38.7090133],[-8.5312145,38.691861],[-8.5583092,38.6777506],[-8.5662137,38.67818],[-8.5790013,38.6715985],[-8.5773991,38.6676229],[-8.5906562,38.6540505],[-8.6015424,38.6459049],[-8.6125448,38.6446486],[-8.6203301,38.6345276],[-8.6321667,38.6280905],[-8.6367088,38.6203728],[-8.6564997,38.6078542],[-8.6580211,38.6017929],[-8.6515718,38.593507],[-8.6482195,38.5773203],[-8.6409156,38.5674735],[-8.6391139,38.5494912],[-8.6156845,38.5530991],[-8.5899126,38.5421163],[-8.5752184,38.5479212],[-8.5725397,38.5316194],[-8.5323778,38.5281491],[-8.5287202,38.5111552],[-8.5202767,38.5124059],[-8.5068553,38.5193201],[-8.5069516,38.5264652],[-8.5201955,38.5429148],[-8.4975573,38.5488198],[-8.4912127,38.528919],[-8.4800924,38.5332008],[-8.475922,38.5167669],[-8.4463581,38.5260514],[-8.4421745,38.5221969],[-8.4231303,38.5209834],[-8.4103961,38.525121],[-8.3997082,38.5375485],[-8.3791439,38.5452034],[-8.3691204,38.5457436],[-8.3581497,38.5244195],[-8.3482709,38.5187009],[-8.3359848,38.5069556],[-8.3287771,38.4881685],[-8.3231589,38.4836707],[-8.3103125,38.4585042],[-8.3240504,38.4523138],[-8.325486,38.4433371],[-8.3084558,38.4370989],[-8.2932776,38.4380453],[-8.2862265,38.4296987],[-8.3013509,38.4230027],[-8.2875948,38.4173428],[-8.2837185,38.4120708],[-8.3013303,38.3996892],[-8.3225708,38.3721828],[-8.3005718,38.3755225],[-8.2772863,38.3715438],[-8.2692472,38.3536216],[-8.2583809,38.3532576],[-8.2374736,38.3462847],[-8.2056446,38.344733],[-8.1977336,38.3425849],[-8.1702232,38.3194104],[-8.1613697,38.3178727],[-8.1618458,38.3271226],[-8.152472,38.329347],[-8.1492379,38.3271589],[-8.1421788,38.3150286],[-8.1309545,38.3129142],[-8.1195876,38.3148798],[-8.111489,38.3197239],[-8.0984199,38.3209237],[-8.085425,38.3200842],[-8.0774827,38.3223049],[-8.071973,38.3183711],[-8.0550769,38.3283296],[-8.0517492,38.3252865],[-8.0436443,38.3260796],[-8.0361152,38.3151533],[-8.0199067,38.3007068],[-8.0096843,38.299525],[-7.9956809,38.302492],[-7.9939795,38.3082632],[-7.9805225,38.31709],[-7.9737423,38.3162119],[-7.9565768,38.3070823],[-7.9437182,38.3052532],[-7.9386288,38.3030838],[-7.9310514,38.2963214],[-7.9079291,38.2869307],[-7.9113488,38.2844429],[-7.907504,38.2796904],[-7.900255,38.2847244],[-7.8454515,38.2574897],[-7.8394959,38.2517672],[-7.8212185,38.2519634],[-7.8177895,38.2446188],[-7.8036334,38.2462642],[-7.7905606,38.2548153],[-7.7805431,38.2486377],[-7.7589641,38.2465467],[-7.748204,38.2390217],[-7.7341114,38.2333823],[-7.7240357,38.2219166],[-7.7111855,38.2141004],[-7.694309,38.211493],[-7.6696182,38.2002232],[-7.644671,38.2049529],[-7.6350093,38.209525],[-7.6175237,38.206638],[-7.6098073,38.2026633],[-7.5881024,38.2032554],[-7.5801816,38.1938],[-7.5659878,38.1887634],[-7.5584573,38.1943611],[-7.5419248,38.1936307],[-7.4978015,38.188454],[-7.4916093,38.1901096],[-7.4977025,38.2045161],[-7.4892603,38.2109234],[-7.4701425,38.2139874],[-7.4610438,38.2199258],[-7.4535513,38.234714],[-7.4380842,38.2429832],[-7.4324144,38.260415],[-7.4135182,38.2640103],[-7.4002334,38.283431],[-7.3845901,38.3021903],[-7.3778782,38.2987935],[-7.3557822,38.2993171],[-7.3527524,38.3057462],[-7.3366339,38.3211839],[-7.3202823,38.3168811],[-7.3100604,38.3254516],[-7.2947093,38.3259618],[-7.2803565,38.3301134],[-7.2788376,38.3201219],[-7.265401,38.3068762],[-7.2611099,38.2965455],[-7.2601863,38.2819444],[-7.253971,38.277152],[-7.2441462,38.2631265],[-7.2343504,38.2571077],[-7.2178191,38.2541784],[-7.19015,38.2464251],[-7.1991368,38.227101],[-7.1984151,38.2223706],[-7.1834276,38.205552],[-7.1809713,38.1976043],[-7.1718924,38.1845742],[-7.1595498,38.1598913],[-7.1520256,38.1546502],[-7.1498055,38.1584647],[-7.1550277,38.165972],[-7.1523794,38.1734754],[-7.1315036,38.1710387],[-7.1261994,38.1750934],[-7.1244554,38.1847854],[-7.1096633,38.1878151],[-7.1109453,38.1999027],[-7.1176858,38.2112778]]]}}
]
}
