{
"type": "FeatureCollection",
"name": "08",
"crs": { "type": "name", "properties": { "name": "urn:ogc:def:crs:OGC:1.3:CRS84" } },
"features": [
{"type":"Feature","properties":{"iso3166":"PT-08"},"geometry":{"type":"Polygon","coordinates":[[[-8.798090545328646,37.442157657652537],[-8.8003043,37.4403095],[-8.8009788,37.4387588],[-8.804207,37.4367757],[-8.8058275,37.4326926],[-8.8083088,37.4291643],[-8.8072397,37.4266156],[-8.8085931,37.4197983],[-8.8072843,37.4188647],[-8.8091483,37.4162329],[-8.8083941,37.4139591],[-8.8109301,37.4111618],[-8.8118433,37.4077482],[-8.8139974,37.406678],[-8.815723,37.4025766],[-8.8167294,37.3978362],[-8.8180851,37.3966805],[-8.8203984,37.3921041],[-8.8221021,37.3908184],[-8.8231606,37.3859464],[-8.8273265,37.380454],[-8.8295954,37.3787345],[-8.8295477,37.377257],[-8.8341024,37.3743795],[-8.8331648,37.3721969],[-8.8342679,37.3700403],[-8.8365965,37.3683016],[-8.8368559,37.3659551],[-8.8389487,37.3635645],[-8.84139,37.3588128],[-8.8455435,37.3550183],[-8.8446558,37.3520119],[-8.8463769,37.3495211],[-8.8492265,37.3499011],[-8.8513092,37.3468797],[-8.8509445,37.3447309],[-8.859708,37.3363999],[-8.8637383,37.3299376],[-8.8718188,37.3220033],[-8.8770911,37.3192714],[-8.8763787,37.3157354],[-8.8741489,37.3127158],[-8.871879,37.3111718],[-8.8730396,37.308982],[-8.8756409,37.3094735],[-8.8756343,37.307125],[-8.8741982,37.3048346],[-8.8732984,37.2997111],[-8.8767742,37.295877],[-8.8758621,37.2948141],[-8.8704077,37.295727],[-8.8669654,37.2950565],[-8.8655381,37.2935592],[-8.8644907,37.2890089],[-8.8667249,37.2847947],[-8.8658576,37.2829295],[-8.8661812,37.2779858],[-8.8628358,37.2759843],[-8.8609389,37.272991],[-8.8603992,37.2683926],[-8.8631958,37.2630801],[-8.8700284,37.2464021],[-8.8747203,37.2395966],[-8.8755396,37.2374365],[-8.8792158,37.2332971],[-8.880441,37.228826],[-8.8835958,37.2250236],[-8.8851032,37.2209395],[-8.890695,37.2142414],[-8.8927127,37.2105759],[-8.8960223,37.2060873],[-8.9032163,37.1987445],[-8.9048159,37.1980428],[-8.9096249,37.1989016],[-8.9129736,37.1985823],[-8.9146168,37.1968905],[-8.9176153,37.1970675],[-8.9181922,37.1955059],[-8.9152851,37.1940871],[-8.9128054,37.1913559],[-8.9091957,37.1889524],[-8.9098546,37.1871905],[-8.912803,37.1855834],[-8.9133868,37.1829323],[-8.9090214,37.180606],[-8.910784,37.1761418],[-8.9080721,37.1747938],[-8.9069386,37.1719949],[-8.9033042,37.1705462],[-8.9028946,37.1670338],[-8.9037412,37.1645787],[-8.9066461,37.1603583],[-8.9093456,37.15966],[-8.9107502,37.1565493],[-8.9091885,37.1554696],[-8.9106198,37.1532916],[-8.9130304,37.1533085],[-8.9147272,37.1485244],[-8.9172406,37.1450091],[-8.9196912,37.1436647],[-8.9179429,37.141948],[-8.9207657,37.1359713],[-8.9250703,37.1333787],[-8.9251406,37.1307512],[-8.9263721,37.1273542],[-8.9295404,37.1225999],[-8.9312228,37.1211177],[-8.9326304,37.1173933],[-8.9346191,37.115017],[-8.9347947,37.1128532],[-8.9366922,37.1113943],[-8.9393316,37.107054],[-8.9452282,37.1020218],[-8.948629,37.0977763],[-8.9514805,37.0984189],[-8.9531453,37.0971503],[-8.9530713,37.0950347],[-8.9548147,37.0941593],[-8.9576191,37.0947313],[-8.9579117,37.090242],[-8.9607959,37.0871699],[-8.9610674,37.0828138],[-8.9626028,37.0813586],[-8.9610249,37.0787728],[-8.9608364,37.0738886],[-8.9628264,37.0730555],[-8.9623756,37.0702341],[-8.96495,37.06789],[-8.9669142,37.0674179],[-8.9683807,37.0648967],[-8.9737946,37.0611711],[-8.9740521,37.059102],[-8.9769121,37.0578223],[-8.9795032,37.0542581],[-8.9805467,37.0501651],[-8.983719,37.0488662],[-8.9794277,37.0465186],[-8.9792135,37.0442142],[-8.9833588,37.0382823],[-8.9882914,37.0345234],[-8.9870835,37.0320006],[-8.9874769,37.0301742],[-8.9898015,37.0300316],[-8.9948383,37.0240867],[-8.9938298,37.0215178],[-8.9917767,37.020412],[-8.9894023,37.0242306],[-8.9882977,37.0238727],[-8.9869375,37.019227],[-8.9851054,37.0193065],[-8.9839411,37.0220052],[-8.9849107,37.0244823],[-8.9811754,37.0273257],[-8.9800597,37.0262255],[-8.9759855,37.0269096],[-8.975333,37.0254825],[-8.9723,37.0245801],[-8.966558,37.0265775],[-8.9632619,37.0248494],[-8.9639306,37.0225349],[-8.960544,37.0222665],[-8.9573382,37.0163919],[-8.9553115,37.0144502],[-8.9532741,37.0143712],[-8.9525155,37.01005],[-8.949522,37.0087283],[-8.9477284,37.0038593],[-8.9516682,36.998102],[-8.9503192,36.9973708],[-8.9498231,36.9937434],[-8.9465366,36.9940325],[-8.9473111,36.9993249],[-8.9453833,37.0019773],[-8.9425858,37.0043579],[-8.9372861,37.005729],[-8.9346654,37.0053004],[-8.9335035,37.0035509],[-8.9303615,37.0028903],[-8.9265307,37.0064561],[-8.9245008,37.0120149],[-8.9300039,37.0105851],[-8.9296462,37.0136523],[-8.9275207,37.0159553],[-8.9272675,37.0183998],[-8.924384,37.020599],[-8.9187293,37.0224591],[-8.9128233,37.0219513],[-8.9100831,37.0242759],[-8.9087605,37.0222449],[-8.9059461,37.0238733],[-8.9036949,37.0291683],[-8.9008107,37.0321008],[-8.8981397,37.0336062],[-8.8950211,37.0386255],[-8.8952488,37.0418742],[-8.8935025,37.0424227],[-8.891299,37.041244],[-8.8875298,37.0414346],[-8.8843274,37.0431413],[-8.8818082,37.0427419],[-8.8795786,37.0440296],[-8.8788696,37.0462881],[-8.8751387,37.0440853],[-8.8715741,37.046491],[-8.8662725,37.0435535],[-8.8652454,37.0419639],[-8.8612942,37.0439747],[-8.8559625,37.050559],[-8.8551196,37.054573],[-8.8474113,37.0574233],[-8.845736,37.0586565],[-8.840292,37.0604283],[-8.8338471,37.0614429],[-8.8266936,37.0641215],[-8.8192533,37.0651766],[-8.811862,37.0651132],[-8.8088811,37.0661518],[-8.7966976,37.0655976],[-8.7928202,37.0647688],[-8.7908557,37.0624063],[-8.7860901,37.0638238],[-8.783771,37.0682685],[-8.7782803,37.0688571],[-8.776404,37.070789],[-8.7700361,37.0717431],[-8.7647723,37.0715751],[-8.7629991,37.0729479],[-8.7609372,37.0725266],[-8.7573572,37.0737663],[-8.7550236,37.0732562],[-8.7478974,37.0768556],[-8.7463962,37.0763934],[-8.7423138,37.0787309],[-8.7378529,37.0822549],[-8.7319302,37.0846334],[-8.7300135,37.084149],[-8.728152,37.0861093],[-8.7255817,37.0865607],[-8.7208138,37.0862597],[-8.7115344,37.0840698],[-8.7055535,37.0845593],[-8.7002574,37.0841993],[-8.6915095,37.085377],[-8.6859774,37.0853602],[-8.6814726,37.0838755],[-8.6785893,37.0839196],[-8.6743349,37.081341],[-8.672983,37.0821269],[-8.6702443,37.0795356],[-8.6675852,37.0799984],[-8.6681906,37.0824732],[-8.6661845,37.0842451],[-8.6666173,37.0861],[-8.6685816,37.0878748],[-8.6694978,37.0908664],[-8.6671515,37.0955645],[-8.6682117,37.0975928],[-8.6673689,37.1000759],[-8.6689454,37.1012952],[-8.6671605,37.1042434],[-8.6635938,37.107733],[-8.65906,37.1109707],[-8.6490427,37.1159984],[-8.6401127,37.1187368],[-8.6312629,37.1202364],[-8.6257094,37.1206762],[-8.6146099,37.1227792],[-8.6023582,37.1230941],[-8.5919485,37.1219834],[-8.5696911,37.1160034],[-8.5665742,37.1165393],[-8.5640121,37.119477],[-8.5593246,37.1197069],[-8.5569796,37.1188686],[-8.5525546,37.1187915],[-8.5502154,37.1180973],[-8.5436442,37.117329],[-8.5411663,37.1180829],[-8.5354018,37.1176985],[-8.5294999,37.115682],[-8.529667,37.1087197],[-8.526707,37.1082912],[-8.5198508,37.109975],[-8.5189343,37.1072945],[-8.5062299,37.1020045],[-8.5041422,37.1005696],[-8.4936237,37.101202],[-8.4917965,37.0997413],[-8.4889614,37.0999336],[-8.4851829,37.0988726],[-8.4792106,37.0983703],[-8.4757986,37.096008],[-8.4721564,37.0960899],[-8.4708579,37.0942923],[-8.4658,37.0924302],[-8.4602748,37.0932775],[-8.4597114,37.0917337],[-8.4544894,37.0908453],[-8.4513951,37.0895185],[-8.4511457,37.0879889],[-8.4468167,37.0869042],[-8.4385762,37.0865067],[-8.4366965,37.0853286],[-8.428156,37.0856885],[-8.4263604,37.0869783],[-8.4220485,37.0874877],[-8.4188128,37.0862581],[-8.4154762,37.0878823],[-8.414086,37.0894262],[-8.4088997,37.0891388],[-8.4063303,37.0899319],[-8.4030719,37.0894126],[-8.401502,37.090816],[-8.3965296,37.0904302],[-8.394513,37.0926867],[-8.3904999,37.0939942],[-8.3882083,37.0961951],[-8.3794533,37.0987589],[-8.3707391,37.1016891],[-8.3655388,37.1014945],[-8.3559944,37.0997645],[-8.3505115,37.0981611],[-8.3428085,37.0950292],[-8.3320194,37.0899919],[-8.3085727,37.0750484],[-8.3050381,37.075009],[-8.3007934,37.0725802],[-8.2993935,37.0732301],[-8.2937986,37.0736549],[-8.293148,37.0728144],[-8.2835365,37.0733086],[-8.2782358,37.0750971],[-8.2747156,37.0776359],[-8.2704277,37.0777728],[-8.2681091,37.0790691],[-8.2644662,37.0792277],[-8.2614724,37.0803196],[-8.2584619,37.0801435],[-8.2581277,37.083508],[-8.2553814,37.0857835],[-8.2497206,37.0867223],[-8.2425966,37.0853832],[-8.235994,37.0833883],[-8.2317146,37.0826255],[-8.2271299,37.0858146],[-8.2184118,37.0842766],[-8.2155129,37.0872646],[-8.2129258,37.0879672],[-8.2097489,37.0876691],[-8.2053879,37.089014],[-8.201585,37.0890855],[-8.1961524,37.0881951],[-8.1917801,37.0895279],[-8.1874019,37.0895497],[-8.1851433,37.0904881],[-8.1791825,37.0897196],[-8.1711299,37.0868067],[-8.1544784,37.0820279],[-8.1514531,37.0809516],[-8.1257488,37.0735357],[-8.1251242,37.0726013],[-8.1214343,37.0727499],[-8.1122289,37.0699325],[-8.1112114,37.0678674],[-8.1053646,37.0675456],[-8.0932492,37.0627987],[-8.0901802,37.0620949],[-8.075179,37.0540588],[-8.0457466,37.0368416],[-8.0348859,37.0302044],[-8.007285,37.0146825],[-7.9950458,37.0074504],[-7.9829232,36.999494],[-7.974265,36.9935856],[-7.9677438,36.9883472],[-7.959933,36.983823],[-7.9573016,36.9830311],[-7.9516372,36.9795378],[-7.9446598,36.9757597],[-7.9354348,36.972664],[-7.9302829,36.9704306],[-7.9214975,36.967624],[-7.8968635,36.9609574],[-7.8890986,36.9599682],[-7.8863181,36.9612628],[-7.8772991,36.9635601],[-7.8720463,36.9643225],[-7.8689873,36.9631817],[-7.8661527,36.9688619],[-7.8667127,36.9712158],[-7.8652723,36.9734052],[-7.8544057,36.9791591],[-7.8463945,36.9828207],[-7.8254567,36.991305],[-7.8148297,36.9966127],[-7.8080331,36.9991909],[-7.8000974,37.0038349],[-7.7946771,37.0089049],[-7.7925956,37.0118093],[-7.7920888,37.0141571],[-7.7900457,37.0164662],[-7.7853546,37.0187127],[-7.7790341,37.0232137],[-7.7757897,37.0249379],[-7.7697994,37.0290032],[-7.7649897,37.0313349],[-7.7611226,37.0338098],[-7.7481068,37.0408327],[-7.7419078,37.044435],[-7.731289,37.0499104],[-7.7287559,37.0532245],[-7.7215078,37.0548967],[-7.7145421,37.0585192],[-7.7030752,37.0656117],[-7.6972539,37.0688223],[-7.6920899,37.0710517],[-7.6828866,37.0757589],[-7.6607838,37.086136],[-7.6511651,37.0913189],[-7.627249,37.1062071],[-7.6164577,37.111776],[-7.6157347,37.1131498],[-7.6178265,37.1157961],[-7.6156941,37.1184092],[-7.6020558,37.1272342],[-7.5872111,37.1351752],[-7.5790894,37.1388144],[-7.5439971,37.1528395],[-7.5403066,37.1531625],[-7.5384545,37.1556152],[-7.5329539,37.1573494],[-7.5146833,37.1643147],[-7.5031508,37.1679514],[-7.4878998,37.1717768],[-7.4697978,37.1753516],[-7.4581387,37.1766213],[-7.4514355,37.1768323],[-7.4426322,37.1764825],[-7.4292334,37.174839],[-7.421777,37.1728833],[-7.4162801,37.172174],[-7.4093075,37.1704713],[-7.4027839,37.1682358],[-7.399846,37.1632218],[-7.3948663,37.1661936],[-7.4058035,37.1800134],[-7.40728,37.1827074],[-7.4090855,37.1929777],[-7.4111418,37.2031548],[-7.4136404,37.21056],[-7.4125712,37.2214909],[-7.4139259,37.2265884],[-7.4205505,37.2392131],[-7.4292734,37.2441213],[-7.4322089,37.2464827],[-7.4335324,37.2497363],[-7.4335661,37.2542245],[-7.4319486,37.2594063],[-7.4261158,37.2668239],[-7.4229616,37.2700183],[-7.4217985,37.2726824],[-7.4220445,37.2748516],[-7.4258242,37.2798868],[-7.4313448,37.2853389],[-7.4346137,37.2907196],[-7.4358348,37.2975401],[-7.4379233,37.3022749],[-7.4410997,37.3073065],[-7.4421779,37.3112999],[-7.4418437,37.3160402],[-7.4393545,37.3231873],[-7.4390293,37.3269211],[-7.4400285,37.3315914],[-7.4427455,37.3366786],[-7.4448073,37.3418393],[-7.4446593,37.347432],[-7.4427672,37.3501695],[-7.4386836,37.3539392],[-7.4371511,37.3571045],[-7.436336,37.3613579],[-7.4366127,37.368134],[-7.4377129,37.3750696],[-7.4396899,37.3842364],[-7.43943,37.3861124],[-7.4404766,37.3910154],[-7.4423634,37.3942201],[-7.446566,37.3989092],[-7.4511209,37.402284],[-7.4599184,37.4060702],[-7.4617987,37.4074356],[-7.4628669,37.410074],[-7.462365,37.411968],[-7.4594122,37.4141057],[-7.4506274,37.4147083],[-7.4479417,37.4155036],[-7.4461387,37.4174119],[-7.4455949,37.419921],[-7.4469451,37.4214323],[-7.4540284,37.4253108],[-7.4574901,37.4292869],[-7.4592223,37.4352907],[-7.4589413,37.441718],[-7.4562104,37.4501887],[-7.4583267,37.4549087],[-7.4632033,37.4589917],[-7.4661764,37.4623316],[-7.468247,37.466695],[-7.4695925,37.4717074],[-7.4694184,37.4773638],[-7.4679736,37.480758],[-7.4646519,37.483034],[-7.4633151,37.48542],[-7.4647475,37.4890284],[-7.4666661,37.4910173],[-7.4718795,37.4938356],[-7.4785718,37.4950793],[-7.4827019,37.496922],[-7.48413,37.498275],[-7.4895929,37.5061655],[-7.4911308,37.5114113],[-7.4902689,37.5183789],[-7.4913198,37.5213307],[-7.4943151,37.5233181],[-7.4974427,37.5232389],[-7.5018591,37.5221159],[-7.5089852,37.5231505],[-7.5124177,37.5260679],[-7.5520081,37.5227951],[-7.5888185,37.516436],[-7.6202152,37.4898788],[-7.6414769,37.5001569],[-7.6785393,37.502561],[-7.7330944,37.4910288],[-7.7917433,37.4712858],[-7.8553994,37.4397093],[-7.8979584,37.4182335],[-7.955335,37.4041122],[-7.9568929,37.4090237],[-7.9652542,37.4090145],[-7.9713558,37.4025441],[-7.9788552,37.4065263],[-7.9842404,37.4038586],[-7.9823982,37.3983307],[-7.9867866,37.3960672],[-8.000254,37.3975158],[-8.0048603,37.3863154],[-7.9998088,37.3850864],[-8.0009317,37.3696454],[-7.9897551,37.3655514],[-7.9933956,37.3621294],[-7.9983197,37.3643458],[-8.0012252,37.3582031],[-8.0155635,37.3604379],[-8.0377551,37.3424547],[-8.0624939,37.32359],[-8.0658468,37.3189368],[-8.0829187,37.3288269],[-8.1329649,37.3324468],[-8.1884849,37.3416096],[-8.23057,37.3674573],[-8.2745683,37.3883198],[-8.2775693,37.424641],[-8.2849277,37.4309295],[-8.2996271,37.4333549],[-8.3235129,37.4269495],[-8.3318876,37.4292774],[-8.3369997,37.4325963],[-8.3501009,37.4292443],[-8.3722096,37.4261965],[-8.3951865,37.425713],[-8.4071117,37.4236552],[-8.424817,37.408362],[-8.4216281,37.395014],[-8.430174,37.3834006],[-8.4409385,37.3863565],[-8.4564277,37.3749851],[-8.5691982,37.4108771],[-8.5848555,37.403518],[-8.6037785,37.4009082],[-8.6102402,37.4028862],[-8.6233947,37.3994419],[-8.6285184,37.389315],[-8.6339165,37.3865576],[-8.6365162,37.3778678],[-8.644993,37.3770541],[-8.646194,37.3832549],[-8.6539028,37.3882366],[-8.664326,37.4007831],[-8.6839583,37.4006931],[-8.6876908,37.3954615],[-8.6983329,37.3996776],[-8.7059845,37.400185],[-8.7138612,37.3967709],[-8.7160196,37.3995295],[-8.7333097,37.3951865],[-8.7390522,37.4144666],[-8.7486475,37.4158818],[-8.7490573,37.4205197],[-8.7441864,37.4235396],[-8.7463603,37.4252258],[-8.7488878,37.4228336],[-8.751858,37.4231838],[-8.7511452,37.4279113],[-8.748827,37.4294446],[-8.7507337,37.4323054],[-8.7531795,37.431945],[-8.7535098,37.4303353],[-8.7692931,37.4365519],[-8.7810534,37.433864],[-8.7928466,37.4364494],[-8.798090545328646,37.442157657652537]]]}}
]
}
