{
"type": "FeatureCollection",
"name": "09",
"crs": { "type": "name", "properties": { "name": "urn:ogc:def:crs:OGC:1.3:CRS84" } },
"features": [
{"type":"Feature","properties":{"iso3166":"PT-09"},"geometry":{"type":"MultiPolygon","coordinates":[[[[-6.9237852,40.257442],[-6.9073217,40.253899],[-6.8899021,40.2604903],[-6.8827687,40.2586301],[-6.8679897,40.2643422],[-6.8622195,40.2791709],[-6.8639191,40.2961873],[-6.8402758,40.3134502],[-6.8265557,40.3188647],[-6.8179921,40.3250453],[-6.8039966,40.3244368],[-6.7941214,40.3286419],[-6.7903323,40.3342262],[-6.7934233,40.3564832],[-6.781215,40.3638032],[-6.7842143,40.3698848],[-6.7934234,40.3721439],[-6.8104556,40.3849547],[-6.8127947,40.3911698],[-6.8219282,40.3956423],[-6.8344639,40.4077062],[-6.8387213,40.4147313],[-6.8496927,40.4515196],[-6.83523,40.4754058],[-6.8226645,40.4831615],[-6.8171198,40.4970047],[-6.8108264,40.5051669],[-6.7952681,40.5113686],[-6.7974482,40.5224291],[-6.8041804,40.5311855],[-6.8054777,40.5393965],[-6.8008621,40.5503533],[-6.808273,40.5543615],[-6.8231913,40.5581901],[-6.8349288,40.5643345],[-6.8453574,40.565954],[-6.8367939,40.5846175],[-6.8387213,40.5927308],[-6.820859,40.6104702],[-6.8060228,40.6332932],[-6.7989015,40.655314],[-6.7940144,40.6612974],[-6.8057659,40.6687259],[-6.8017495,40.6777699],[-6.8070956,40.6980315],[-6.8132413,40.7083865],[-6.8107705,40.7168792],[-6.8305281,40.7429544],[-6.8311713,40.7528039],[-6.8259276,40.7677932],[-6.8277718,40.7760801],[-6.8254743,40.7853308],[-6.8170064,40.7968755],[-6.8173401,40.8074772],[-6.823765,40.8183381],[-6.8238839,40.8325082],[-6.8143578,40.8420101],[-6.8032806,40.8462217],[-6.8019213,40.8607148],[-6.8099551,40.882911],[-6.819615,40.881048],[-6.838053,40.8901292],[-6.8491062,40.9027885],[-6.847833,40.9250634],[-6.8599586,40.9507755],[-6.8665696,40.9573265],[-6.8753925,40.9607994],[-6.8857661,40.9717334],[-6.8902936,40.9808777],[-6.9037844,40.9900855],[-6.9099338,40.9995655],[-6.9215794,41.0024809],[-6.9246534,41.0109687],[-6.9316331,41.0168104],[-6.9313566,41.0294111],[-6.961053,41.0318616],[-6.9737524,41.0349727],[-6.9835859,41.0262497],[-6.9932377,41.0255597],[-6.9955191,41.0348055],[-7.0104854,41.0407659],[-7.0275083,41.0383071],[-7.0435313,41.0442772],[-7.0512836,41.0501686],[-7.0513739,41.0576585],[-7.0790647,41.0732565],[-7.1012685,41.07992],[-7.1054766,41.0914706],[-7.1011658,41.105979],[-7.0855087,41.120423],[-7.0878024,41.1318722],[-7.1007542,41.1357691],[-7.1226734,41.1343146],[-7.1273299,41.1448757],[-7.1146661,41.1508244],[-7.1127857,41.1759798],[-7.1248904,41.1770886],[-7.1324171,41.1603275],[-7.1479946,41.1562705],[-7.1585041,41.14345],[-7.1637517,41.126135],[-7.1925278,41.1266199],[-7.2111916,41.1363078],[-7.2260084,41.1368531],[-7.2463013,41.1443385],[-7.2687326,41.1423208],[-7.2828841,41.1354939],[-7.3062043,41.140744],[-7.3182256,41.1210251],[-7.3229329,41.1190909],[-7.3314047,41.0877841],[-7.3300286,41.0782598],[-7.3360638,41.0735997],[-7.342781,41.0575095],[-7.3439879,41.0374055],[-7.3382767,41.0340998],[-7.3349049,41.0223234],[-7.3375273,41.0142698],[-7.348028,41.0110975],[-7.3628491,41.0142406],[-7.3790472,41.01336],[-7.3790748,41.0043341],[-7.3707666,40.9919489],[-7.3488483,40.9810721],[-7.3401701,40.9809462],[-7.3252722,40.9719607],[-7.3310369,40.9584787],[-7.3361962,40.9340576],[-7.3568467,40.9287569],[-7.3741688,40.912509],[-7.3742092,40.8942791],[-7.3762952,40.8870073],[-7.3843631,40.8805179],[-7.3774005,40.8746473],[-7.3815947,40.8711545],[-7.3893105,40.8787797],[-7.4015422,40.8794044],[-7.413876,40.8563777],[-7.4258819,40.8420386],[-7.4359478,40.8243462],[-7.4513874,40.8135047],[-7.4644371,40.8215211],[-7.4637829,40.8260263],[-7.47912,40.83196],[-7.4824542,40.8394955],[-7.5002004,40.8571267],[-7.5108207,40.8593687],[-7.514061,40.869337],[-7.5292983,40.8730458],[-7.558532,40.8731591],[-7.5768421,40.8627785],[-7.5879356,40.8499422],[-7.5914147,40.8296924],[-7.5978342,40.8253761],[-7.6074326,40.8057752],[-7.620968,40.7954631],[-7.6254064,40.7840084],[-7.6072521,40.7728985],[-7.5974207,40.7715374],[-7.584082,40.7655032],[-7.5707047,40.7475226],[-7.579708,40.7386138],[-7.5968162,40.7286702],[-7.5927272,40.7157354],[-7.5862135,40.7094828],[-7.5626806,40.6943822],[-7.5426159,40.6958622],[-7.5351418,40.6903023],[-7.5513681,40.6770985],[-7.5528442,40.6677358],[-7.5420774,40.6593684],[-7.5658208,40.6453299],[-7.5617512,40.6358742],[-7.5731718,40.6192389],[-7.5825448,40.5953441],[-7.5890806,40.585522],[-7.5865662,40.5724029],[-7.6059268,40.5652733],[-7.6353392,40.5680368],[-7.6403027,40.5637745],[-7.6547174,40.5593363],[-7.6654808,40.5596878],[-7.6674368,40.553559],[-7.6826953,40.5520318],[-7.6901206,40.545958],[-7.6990961,40.5479608],[-7.7131866,40.5435027],[-7.7251558,40.5329552],[-7.7451009,40.5259243],[-7.7586449,40.5268942],[-7.765872,40.5180681],[-7.7718842,40.5181528],[-7.7836221,40.5073748],[-7.8228052,40.5078643],[-7.822763,40.4995879],[-7.8289356,40.4943492],[-7.8272977,40.4818155],[-7.8179597,40.475714],[-7.8134298,40.4694019],[-7.7969466,40.4574231],[-7.8108471,40.4394403],[-7.825993,40.4405096],[-7.8425625,40.4332773],[-7.8454619,40.4240444],[-7.8451288,40.4140858],[-7.8268823,40.40322],[-7.8090624,40.4057677],[-7.7971686,40.4050465],[-7.7987652,40.3887421],[-7.7958602,40.3736421],[-7.7996171,40.3691863],[-7.7972712,40.36165],[-7.8045672,40.3578736],[-7.8050628,40.3492964],[-7.7873728,40.3460358],[-7.7776402,40.3358335],[-7.7601694,40.3358537],[-7.765189,40.3164923],[-7.7787151,40.3184785],[-7.7895971,40.3139207],[-7.7931899,40.309043],[-7.8013178,40.3094142],[-7.806439,40.3039779],[-7.8070762,40.2949855],[-7.8133713,40.2842141],[-7.8181701,40.2821556],[-7.8168724,40.2716919],[-7.8258604,40.2651205],[-7.818041,40.2559951],[-7.8036618,40.2562463],[-7.7887086,40.2407365],[-7.7823921,40.2299187],[-7.7702162,40.2372008],[-7.75989,40.234778],[-7.7337504,40.2368888],[-7.7260975,40.247186],[-7.714211,40.2545953],[-7.7099666,40.2607606],[-7.6858822,40.2701531],[-7.6642962,40.2706914],[-7.6558881,40.2736653],[-7.6438276,40.2831758],[-7.6312798,40.2902451],[-7.6302861,40.2940341],[-7.6187452,40.2997458],[-7.6190609,40.3095055],[-7.6129176,40.3219003],[-7.6030389,40.3243523],[-7.5867208,40.3199921],[-7.5813206,40.3112701],[-7.5709282,40.3198773],[-7.5548783,40.320256],[-7.5371975,40.3178395],[-7.531894,40.3291469],[-7.517863,40.34357],[-7.5189825,40.3496554],[-7.5164953,40.3664826],[-7.5054151,40.3799826],[-7.4961821,40.3852392],[-7.4871086,40.394793],[-7.4616364,40.4018351],[-7.4473157,40.3868345],[-7.4374767,40.3867328],[-7.4288968,40.3916209],[-7.4061941,40.3810107],[-7.381088,40.3824278],[-7.3654979,40.3913834],[-7.3592014,40.3923373],[-7.3454762,40.3863858],[-7.3425263,40.4000505],[-7.3275685,40.4107607],[-7.3171401,40.4104334],[-7.3067524,40.4034774],[-7.2927687,40.4161318],[-7.2858937,40.4118015],[-7.2703929,40.4080575],[-7.2702314,40.3876132],[-7.2770467,40.3719292],[-7.273394,40.3489125],[-7.2757878,40.3393865],[-7.2859703,40.3303261],[-7.2866583,40.3249552],[-7.3092615,40.3026684],[-7.3140233,40.30367],[-7.3253898,40.2951639],[-7.332556,40.2939322],[-7.3190659,40.2807169],[-7.3090993,40.2790846],[-7.2967029,40.2714834],[-7.2852459,40.2722713],[-7.2735795,40.265746],[-7.2576284,40.267489],[-7.2438255,40.2590685],[-7.2357473,40.2620487],[-7.224791,40.2784705],[-7.2157085,40.2848945],[-7.2055869,40.2857734],[-7.1829869,40.2772854],[-7.1736453,40.2755337],[-7.1687183,40.2678204],[-7.160344,40.26924],[-7.1514628,40.2761358],[-7.1359621,40.2828896],[-7.1355437,40.2950033],[-7.1313278,40.3091239],[-7.1195187,40.3223306],[-7.1118671,40.3246425],[-7.1022978,40.3205608],[-7.0980457,40.3146374],[-7.0988873,40.307229],[-7.0868113,40.2900976],[-7.0944714,40.2849915],[-7.0837701,40.2785767],[-7.0591297,40.276435],[-7.051573,40.2801195],[-7.0323112,40.2782509],[-7.0215146,40.2835553],[-7.0228861,40.2900674],[-7.0138708,40.2901383],[-7.0004779,40.2806785],[-6.9865622,40.2774913],[-6.9832152,40.2725887],[-6.9620224,40.2680705],[-6.9514177,40.2575728],[-6.9237852,40.257442]]],[[[-7.4178845,40.9218054],[-7.430112,40.9034434],[-7.4303592,40.8944258],[-7.4254716,40.886673],[-7.404837,40.8800441],[-7.3881111,40.8851127],[-7.3788522,40.9011601],[-7.3816039,40.9074752],[-7.3933939,40.9096745],[-7.4095205,40.9218209],[-7.4178845,40.9218054]]]]}}
]
}
