{
"type": "FeatureCollection",
"name": "10",
"crs": { "type": "name", "properties": { "name": "urn:ogc:def:crs:OGC:1.3:CRS84" } },
"features": [
{"type":"Feature","properties":{"iso3166":"PT-10"},"geometry":{"type":"MultiPolygon","coordinates":[[[[-9.505450038126792,39.421849283029999],[-9.51628000652571,39.420158250755584],[-9.516115,39.4129396],[-9.518008192972346,39.408319876123855],[-9.512593208772886,39.405649288207961],[-9.500611116076211,39.412948652902642],[-9.49980462906778,39.417666128414105],[-9.505450038126792,39.421849283029999]]],[[[-8.894933,40.0455029],[-8.9017663,40.0301606],[-8.9057456,40.023323],[-8.9167634,39.9975824],[-8.9309906,39.9684256],[-8.9406859,39.9452913],[-8.95425,39.9199532],[-8.9550094,39.9149551],[-8.959285,39.9049657],[-8.9664683,39.8910633],[-8.9776738,39.8656153],[-8.9865394,39.850056],[-9.0037241,39.8143382],[-9.0141699,39.7958516],[-9.0150915,39.7926274],[-9.0290108,39.7701862],[-9.0331759,39.7588016],[-9.0325953,39.7559997],[-9.0511578,39.7186014],[-9.0493782,39.7136566],[-9.0517614,39.707293],[-9.0507751,39.7012643],[-9.0575221,39.6878281],[-9.0587046,39.6824312],[-9.0648435,39.6655109],[-9.0682403,39.6590823],[-9.077961,39.6361334],[-9.0836822,39.624492],[-9.0860184,39.614452],[-9.0856626,39.6046944],[-9.0770158,39.6034386],[-9.0742422,39.5959429],[-9.0776029,39.5866803],[-9.0847586,39.579421],[-9.1122353,39.54745],[-9.1221003,39.5390443],[-9.1251202,39.5376684],[-9.1278508,39.5295082],[-9.1321166,39.5254569],[-9.144074,39.5183921],[-9.1421829,39.5117066],[-9.1474514,39.5083083],[-9.1502814,39.5097608],[-9.1573059,39.5074657],[-9.1615072,39.5043034],[-9.1715455,39.5010708],[-9.1710097,39.4975627],[-9.1809855,39.4912],[-9.1845654,39.485316],[-9.1871601,39.4849514],[-9.1970737,39.4742045],[-9.202941,39.4738847],[-9.2037171,39.4680814],[-9.2117623,39.4541453],[-9.2203294,39.4462063],[-9.2257366,39.4376994],[-9.2370333,39.428202],[-9.2622785,39.4097429],[-9.2878112,39.3934456],[-9.313402,39.3795155],[-9.3233708,39.3755964],[-9.3313905,39.3738471],[-9.3375868,39.3740704],[-9.3414012,39.3663372],[-9.346948,39.3634648],[-9.3588767,39.3603715],[-9.3707123,39.3632264],[-9.3716968,39.3694669],[-9.3762043,39.3727924],[-9.3796569,39.3686976],[-9.3893429,39.3711168],[-9.3964987,39.3704198],[-9.4039813,39.3668276],[-9.4088665,39.359727],[-9.3945425,39.3531987],[-9.3788402,39.3527877],[-9.3741058,39.3497074],[-9.3674144,39.3503082],[-9.3610382,39.3403027],[-9.3593563,39.3333766],[-9.3594897,39.3233948],[-9.3540858,39.3172202],[-9.3485722,39.3138976],[-9.3460792,39.3084492],[-9.3425033,39.2938528],[-9.3070802,39.2898129],[-9.2987462,39.2837507],[-9.2882336,39.2937922],[-9.2881395,39.2976558],[-9.2787083,39.3005274],[-9.2764522,39.3080313],[-9.2713582,39.3087532],[-9.2629773,39.3151857],[-9.257649,39.3163481],[-9.2459406,39.3054066],[-9.2028154,39.3029614],[-9.1995003,39.2960266],[-9.2000582,39.293443],[-9.1960386,39.2806702],[-9.1887135,39.2690787],[-9.1971637,39.2584858],[-9.1962267,39.2516258],[-9.2023901,39.2476824],[-9.1985657,39.2379929],[-9.1988107,39.2347615],[-9.1937804,39.2301526],[-9.1864945,39.2269681],[-9.1880271,39.2205718],[-9.1830496,39.2126529],[-9.1779932,39.2115773],[-9.1717155,39.2196418],[-9.1642554,39.2226955],[-9.1595357,39.2215464],[-9.1518476,39.2334717],[-9.1435785,39.228641],[-9.1376809,39.2343698],[-9.1357504,39.2410746],[-9.1262766,39.245378],[-9.1232176,39.2506843],[-9.1207363,39.26104],[-9.1230705,39.268656],[-9.1184599,39.272605],[-9.1129447,39.2731931],[-9.1061825,39.2793983],[-9.1055855,39.2837894],[-9.1011798,39.2896958],[-9.0927332,39.2901496],[-9.0849518,39.2964563],[-9.0721839,39.2994007],[-9.0736902,39.3021744],[-9.0558472,39.3113138],[-9.03938,39.3102857],[-9.0309566,39.3033959],[-9.0264881,39.2931974],[-9.0154184,39.2940401],[-9.0094921,39.2915677],[-9.0039262,39.2914278],[-8.9928468,39.2989644],[-8.9864458,39.3187671],[-8.9970066,39.3285836],[-8.9990796,39.3332027],[-8.9981953,39.3432786],[-9.0015496,39.3547637],[-8.9917161,39.3731688],[-8.991617,39.3759934],[-8.9836739,39.3847664],[-8.97503,39.3877585],[-8.9714005,39.3932158],[-8.9566071,39.3929275],[-8.9457121,39.3910366],[-8.9400115,39.4056607],[-8.9345665,39.4130552],[-8.9324053,39.4232406],[-8.9230161,39.4332787],[-8.9173472,39.4446658],[-8.9034209,39.4660075],[-8.8925667,39.465251],[-8.8809189,39.4744282],[-8.8631518,39.4754548],[-8.8464188,39.4725251],[-8.8183592,39.4780117],[-8.8023413,39.4830095],[-8.7889442,39.4791179],[-8.771862,39.4789697],[-8.7657386,39.4763117],[-8.7550271,39.4763185],[-8.7477382,39.4801718],[-8.743945,39.4779501],[-8.7296576,39.4818229],[-8.7352198,39.497811],[-8.7428957,39.508976],[-8.7463841,39.5292191],[-8.737583,39.5369351],[-8.7281727,39.5297795],[-8.7144848,39.5207846],[-8.7054227,39.5295748],[-8.6951717,39.5323474],[-8.6900798,39.542143],[-8.6876438,39.5506908],[-8.6714724,39.5617584],[-8.6850462,39.5738307],[-8.6895061,39.5887843],[-8.6874833,39.6099125],[-8.6919052,39.6205087],[-8.6990488,39.6282362],[-8.7022109,39.6359609],[-8.698835,39.6413838],[-8.6897452,39.642671],[-8.6587215,39.6580691],[-8.6530557,39.6588944],[-8.6465629,39.6639802],[-8.6418587,39.6743045],[-8.6460269,39.6804523],[-8.6423712,39.6865718],[-8.6372147,39.688067],[-8.6347401,39.6932808],[-8.6400448,39.7011555],[-8.6485861,39.7017563],[-8.6794557,39.7119944],[-8.6804956,39.7176721],[-8.675613,39.7235966],[-8.6650433,39.724737],[-8.6728752,39.7310402],[-8.681525,39.7485219],[-8.6788438,39.760469],[-8.6804003,39.7677736],[-8.6763251,39.7738811],[-8.6408279,39.7852717],[-8.6348873,39.7898905],[-8.6221818,39.7896339],[-8.6149255,39.7876919],[-8.6042352,39.7799294],[-8.5931024,39.7768928],[-8.5582075,39.7915412],[-8.5456276,39.7981018],[-8.5242116,39.8276691],[-8.5174974,39.8280503],[-8.5064397,39.8150496],[-8.5013015,39.8177566],[-8.5009826,39.8239924],[-8.4763682,39.837655],[-8.474353,39.8338705],[-8.4746917,39.8230379],[-8.4705346,39.8174729],[-8.4669601,39.8066772],[-8.462541,39.8044651],[-8.4653951,39.7936832],[-8.4617468,39.7803355],[-8.4622468,39.7741529],[-8.4508094,39.7492184],[-8.4550831,39.7440734],[-8.4514615,39.7370263],[-8.4320427,39.7400604],[-8.4235514,39.7480308],[-8.4232641,39.7541162],[-8.4043735,39.7602412],[-8.3921111,39.7602036],[-8.3856799,39.7537575],[-8.3803525,39.7519109],[-8.3612888,39.7684615],[-8.3405344,39.7727101],[-8.3325888,39.7609415],[-8.3257656,39.7661718],[-8.3302096,39.7747627],[-8.325747,39.7812971],[-8.3268016,39.789874],[-8.3364673,39.7999157],[-8.3219429,39.8006347],[-8.3042688,39.7932174],[-8.2840882,39.7993588],[-8.2917471,39.8031025],[-8.2929448,39.8086741],[-8.2846197,39.8128921],[-8.2820268,39.8190815],[-8.2720178,39.8194705],[-8.2703557,39.8246581],[-8.2774069,39.8367852],[-8.2737253,39.8431479],[-8.2550924,39.8424699],[-8.2496463,39.84595],[-8.2340825,39.8465992],[-8.2258632,39.855816],[-8.211854,39.850399],[-8.1993136,39.8567971],[-8.1998031,39.8648854],[-8.1862644,39.8720167],[-8.1856889,39.8814988],[-8.1715693,39.8753551],[-8.1640384,39.8826243],[-8.1491692,39.8853453],[-8.1397905,39.8948599],[-8.1419807,39.8985968],[-8.1376293,39.9099195],[-8.1287423,39.9256967],[-8.1196489,39.9301897],[-8.1230086,39.932872],[-8.1327299,39.9376391],[-8.123517,39.9446493],[-8.1204253,39.952358],[-8.1128961,39.9540308],[-8.108319,39.9631602],[-8.109966,39.9715226],[-8.1151064,39.9765877],[-8.1196057,39.9866541],[-8.1253129,39.9891874],[-8.1391175,40.0007277],[-8.1439079,40.0132693],[-8.1541684,40.0214786],[-8.1568215,40.0273525],[-8.152132,40.0332518],[-8.1531181,40.0397786],[-8.147718,40.057578],[-8.1431255,40.0629895],[-8.1437438,40.0727824],[-8.1516961,40.0738057],[-8.1629522,40.0831549],[-8.1790987,40.0897361],[-8.1884417,40.0793723],[-8.1939724,40.0703366],[-8.2040073,40.064179],[-8.209749,40.0520808],[-8.2334052,40.0670622],[-8.2422337,40.0672988],[-8.249267,40.0546911],[-8.2687536,40.0511373],[-8.2758064,40.0454027],[-8.2819906,40.0364454],[-8.2810845,40.0308114],[-8.2886691,40.0213213],[-8.2969,40.0156483],[-8.2979771,40.0093527],[-8.2897054,39.9985516],[-8.2775038,39.9898556],[-8.2708343,39.9894314],[-8.2747521,39.9796991],[-8.2722987,39.9761632],[-8.2853304,39.9654792],[-8.3070496,39.9742985],[-8.3119504,39.9887567],[-8.3191244,39.9848671],[-8.3187154,39.9746781],[-8.3278801,39.9699506],[-8.3263684,39.9639248],[-8.3343147,39.9609786],[-8.3346486,39.9568722],[-8.3420799,39.9525136],[-8.359291,39.9356101],[-8.3733934,39.9326739],[-8.3857504,39.9239427],[-8.4072716,39.929669],[-8.4067985,39.93464],[-8.3929705,39.9377009],[-8.3903959,39.9512254],[-8.3810836,39.9514182],[-8.3798953,39.9554084],[-8.3948236,39.9748628],[-8.4025919,39.9790833],[-8.398909,39.9882194],[-8.4022191,40.0009324],[-8.4260144,40.0265571],[-8.4298669,40.0252938],[-8.4368742,40.0158014],[-8.4247831,40.006786],[-8.4332614,40.0029608],[-8.44786,40.0138603],[-8.4555244,40.0155961],[-8.4592221,40.0070589],[-8.4741264,39.9974911],[-8.4865433,39.9925267],[-8.4906215,39.9861071],[-8.5228388,39.9836117],[-8.5206553,39.9802947],[-8.5232187,39.9666496],[-8.5275897,39.9581835],[-8.5388121,39.9488438],[-8.5483452,39.9561211],[-8.5516946,39.9615799],[-8.5519406,39.9725962],[-8.5464955,39.9781116],[-8.5488741,39.9844252],[-8.5523685,40.0239608],[-8.5626157,40.0281749],[-8.5895375,40.0281001],[-8.5982537,40.022464],[-8.6021682,40.0115861],[-8.6118628,40.0014219],[-8.6162344,39.9915898],[-8.6428576,39.990418],[-8.644684,40.0023577],[-8.6401203,40.0096762],[-8.6521663,40.0114993],[-8.6599178,40.0165636],[-8.6663521,40.016381],[-8.674214,40.0294829],[-8.6846721,40.0271716],[-8.6962805,40.0297572],[-8.703157,40.0275189],[-8.7167535,40.0307894],[-8.7338423,40.0318825],[-8.7625357,40.0411585],[-8.7826169,40.0375439],[-8.7976375,40.0214611],[-8.8004634,40.0125587],[-8.8152617,40.0165378],[-8.8387664,40.0282554],[-8.8492956,40.0233128],[-8.8686496,40.0233772],[-8.8666473,40.0268371],[-8.8705701,40.0348018],[-8.894933,40.0455029]]]]}}
]
}
