{
"type": "FeatureCollection",
"name": "11",
"crs": { "type": "name", "properties": { "name": "urn:ogc:def:crs:OGC:1.3:CRS84" } },
"features": [
{"type":"Feature","properties":{"iso3166":"PT-11"},"geometry":{"type":"Polygon","coordinates":[[[-9.0721839,39.2994007],[-9.0849518,39.2964563],[-9.0927332,39.2901496],[-9.1011798,39.2896958],[-9.1055855,39.2837894],[-9.1061825,39.2793983],[-9.1129447,39.2731931],[-9.1184599,39.272605],[-9.1230705,39.268656],[-9.1207363,39.26104],[-9.1232176,39.2506843],[-9.1262766,39.245378],[-9.1357504,39.2410746],[-9.1376809,39.2343698],[-9.1435785,39.228641],[-9.1518476,39.2334717],[-9.1595357,39.2215464],[-9.1642554,39.2226955],[-9.1717155,39.2196418],[-9.1779932,39.2115773],[-9.1830496,39.2126529],[-9.1880271,39.2205718],[-9.1864945,39.2269681],[-9.1937804,39.2301526],[-9.1988107,39.2347615],[-9.1985657,39.2379929],[-9.2023901,39.2476824],[-9.1962267,39.2516258],[-9.1971637,39.2584858],[-9.1887135,39.2690787],[-9.1960386,39.2806702],[-9.2000582,39.293443],[-9.1995003,39.2960266],[-9.2028154,39.3029614],[-9.2459406,39.3054066],[-9.257649,39.3163481],[-9.2629773,39.3151857],[-9.2713582,39.3087532],[-9.2764522,39.3080313],[-9.2787083,39.3005274],[-9.2881395,39.2976558],[-9.2882336,39.2937922],[-9.2987462,39.2837507],[-9.3070802,39.2898129],[-9.3425033,39.2938528],[-9.3427768,39.2895446],[-9.3413219,39.2864973],[-9.3375078,39.2850191],[-9.3365002,39.2796977],[-9.3373333,39.2779202],[-9.335811,39.2761443],[-9.3359301,39.2680801],[-9.3379911,39.2571785],[-9.3401257,39.2526258],[-9.3396042,39.2512622],[-9.3413541,39.2445608],[-9.3430322,39.2411118],[-9.3405672,39.2371832],[-9.340279,39.2332053],[-9.3409104,39.2295058],[-9.3403784,39.2255032],[-9.3418343,39.2205972],[-9.3438309,39.2168386],[-9.3455856,39.2104884],[-9.3452441,39.2081321],[-9.3461981,39.2043751],[-9.3491941,39.1982012],[-9.3520918,39.1905711],[-9.3579645,39.1805495],[-9.3563437,39.1797325],[-9.3581478,39.1767966],[-9.3582116,39.1740446],[-9.3654697,39.162157],[-9.3671967,39.1605124],[-9.3680148,39.1573369],[-9.3749526,39.1456573],[-9.3820628,39.1367137],[-9.3856658,39.1328643],[-9.3882512,39.1277651],[-9.3942538,39.1205346],[-9.3927143,39.1179783],[-9.3945969,39.1120069],[-9.4046018,39.0999972],[-9.4059952,39.097128],[-9.4100397,39.0939725],[-9.4147814,39.088387],[-9.4146103,39.0864097],[-9.4187693,39.0789864],[-9.42198,39.0746391],[-9.4211275,39.0711374],[-9.4189327,39.0689787],[-9.4162252,39.0635809],[-9.4152822,39.0569317],[-9.4178762,39.0506936],[-9.4160926,39.0435815],[-9.4180831,39.0377791],[-9.4196032,39.0356211],[-9.4187526,39.03236],[-9.4208413,39.0306158],[-9.4240629,39.0237787],[-9.4235997,39.0207812],[-9.4249836,39.0191423],[-9.4222884,39.015286],[-9.421874,39.0119573],[-9.4249286,39.0105065],[-9.4266278,39.007961],[-9.4251279,39.0051064],[-9.427506,39.0043315],[-9.4276798,39.0019478],[-9.424466,38.9995435],[-9.4256578,38.9960133],[-9.4226317,38.9903885],[-9.4194022,38.9872645],[-9.4196854,38.9844653],[-9.4214301,38.9835511],[-9.4227835,38.980001],[-9.4206614,38.977138],[-9.4206252,38.9722646],[-9.4216608,38.9702233],[-9.4203022,38.9685808],[-9.4207319,38.9652412],[-9.4189446,38.962875],[-9.4204264,38.9612027],[-9.4159512,38.9589845],[-9.4170821,38.953318],[-9.415477,38.9492653],[-9.4168607,38.9410346],[-9.4182874,38.9411037],[-9.4207013,38.934359],[-9.4196414,38.9325633],[-9.423066,38.9268942],[-9.4242329,38.922511],[-9.4261665,38.9184966],[-9.4312429,38.9121205],[-9.4334017,38.9062192],[-9.4331053,38.9048922],[-9.4355022,38.9004897],[-9.4351543,38.8985553],[-9.4381118,38.8959586],[-9.4386549,38.8918866],[-9.4402627,38.8896861],[-9.4393822,38.8872991],[-9.4409981,38.8837304],[-9.4441372,38.8799716],[-9.4441983,38.8745825],[-9.4481358,38.8715451],[-9.4488315,38.8690268],[-9.4513646,38.8670826],[-9.4492294,38.863936],[-9.4506066,38.8601571],[-9.4533091,38.8564163],[-9.4556693,38.8511239],[-9.4606114,38.8444698],[-9.4625926,38.8404707],[-9.4666207,38.8364755],[-9.4712054,38.8252341],[-9.4731482,38.8245084],[-9.4731184,38.8220037],[-9.4763638,38.8163252],[-9.4803869,38.8103638],[-9.4840947,38.8076061],[-9.4845564,38.8023993],[-9.4888608,38.8010181],[-9.4920285,38.7928933],[-9.492308,38.7902895],[-9.4965009,38.7876995],[-9.4956916,38.7858687],[-9.5005266,38.7807094],[-9.4996191,38.7782078],[-9.4958074,38.776283],[-9.4942753,38.7718099],[-9.4950188,38.7684074],[-9.4917623,38.7638673],[-9.4875839,38.7613717],[-9.4859028,38.7617821],[-9.4839579,38.7582717],[-9.4764084,38.754783],[-9.4719768,38.7501675],[-9.4721964,38.742876],[-9.4735943,38.7396788],[-9.4721464,38.736779],[-9.479991,38.7188977],[-9.4833996,38.7162931],[-9.4858776,38.7119871],[-9.4862241,38.7081435],[-9.4806984,38.7049163],[-9.4774685,38.7018382],[-9.4753723,38.7022144],[-9.4684488,38.6995002],[-9.4594841,38.694867],[-9.4459551,38.6947237],[-9.4397,38.6957647],[-9.4352173,38.6928115],[-9.4270942,38.6896239],[-9.4206165,38.6903366],[-9.4179209,38.6899529],[-9.4136859,38.6932016],[-9.4198317,38.6962141],[-9.4170306,38.7000793],[-9.4100721,38.7018385],[-9.4054843,38.7036391],[-9.3983548,38.7020355],[-9.3921775,38.7020264],[-9.387758,38.6989811],[-9.3853474,38.6985543],[-9.3745696,38.693885],[-9.3691018,38.693271],[-9.3588007,38.6865944],[-9.3508281,38.6843884],[-9.3472473,38.6809384],[-9.3432275,38.6816558],[-9.3357124,38.6796948],[-9.3285145,38.6763643],[-9.3258488,38.6735207],[-9.3214387,38.6762134],[-9.3185548,38.6749109],[-9.3143371,38.6811101],[-9.3142373,38.6831972],[-9.3103909,38.6850691],[-9.3054489,38.6853114],[-9.2978071,38.6898867],[-9.2932268,38.6908705],[-9.2914333,38.694208],[-9.2860146,38.6967992],[-9.2823361,38.6972698],[-9.2804702,38.6987071],[-9.2759213,38.6977771],[-9.2709167,38.6978186],[-9.2683344,38.699052],[-9.2577967,38.6999515],[-9.2511647,38.6985116],[-9.249462,38.699219],[-9.241767,38.698832],[-9.2377335,38.6976544],[-9.2347516,38.6947109],[-9.2321868,38.6960914],[-9.224745,38.6925355],[-9.2191442,38.6932406],[-9.2173762,38.6918316],[-9.2138626,38.6919404],[-9.1759297,38.6987916],[-9.1754642,38.6978989],[-9.1632581,38.7001286],[-9.1590694,38.7033711],[-9.1549413,38.7046741],[-9.1487668,38.7057768],[-9.1463178,38.7047339],[-9.1414608,38.7053302],[-9.1252306,38.709869],[-9.1172982,38.7170861],[-9.1099105,38.7243167],[-9.1053476,38.7270318],[-9.1049733,38.7297478],[-9.0976884,38.7422864],[-9.0946145,38.7533015],[-9.0916666,38.7552649],[-9.0906312,38.7610975],[-9.0921153,38.7660283],[-9.0908779,38.781451],[-9.0882022,38.7819704],[-9.0877032,38.7887778],[-9.0863328,38.7962254],[-9.0733679,38.811659],[-9.0683719,38.8163338],[-9.0638424,38.8190182],[-9.058105,38.8236985],[-9.0474843,38.8314485],[-9.0386365,38.8434993],[-9.0356211,38.8490085],[-9.0295603,38.857757],[-9.0276805,38.8555015],[-9.0284554,38.8484016],[-9.0232482,38.8366185],[-9.0199995,38.8250349],[-9.016457,38.8278993],[-9.0089705,38.8110251],[-9.0049407,38.8143658],[-9.0010423,38.8082467],[-8.9990832,38.7992757],[-8.9959267,38.7932508],[-8.9890909,38.7998004],[-8.9684661,38.827765],[-8.9670139,38.8321664],[-8.9633807,38.8371488],[-8.9474727,38.8465631],[-8.9403087,38.8553419],[-8.9277722,38.8730587],[-8.9192493,38.8792564],[-8.9118807,38.8876769],[-8.911263,38.903355],[-8.905334,38.9127572],[-8.8941985,38.9208846],[-8.8906765,38.9278716],[-8.8943028,38.933219],[-8.8871893,38.947491],[-8.8509253,38.9595871],[-8.8556949,38.9648256],[-8.8779526,38.9737525],[-8.8625843,38.9811041],[-8.8646997,38.9895036],[-8.8471496,39.0108924],[-8.8478621,39.0185664],[-8.8616204,39.0264495],[-8.8604497,39.0288838],[-8.842677,39.0298777],[-8.8255935,39.0278007],[-8.8147586,39.0324548],[-8.8084922,39.0450765],[-8.8009739,39.0538989],[-8.781861,39.0583871],[-8.793753,39.0795816],[-8.8051837,39.0905067],[-8.7978152,39.0957603],[-8.8041371,39.0992472],[-8.8075597,39.1044841],[-8.8257598,39.1155917],[-8.8296835,39.1119003],[-8.8600143,39.1280358],[-8.8674744,39.1282816],[-8.8731163,39.1322811],[-8.8816051,39.1489282],[-8.8930338,39.1585323],[-8.9043115,39.1624667],[-8.9131247,39.172065],[-8.9012131,39.1714703],[-8.8938394,39.1762207],[-8.8912741,39.1835331],[-8.8718364,39.1875269],[-8.855206,39.178681],[-8.8469584,39.182992],[-8.8415035,39.1805739],[-8.8223787,39.189649],[-8.8198781,39.1943852],[-8.8195254,39.1969418],[-8.8206009,39.2043327],[-8.8353385,39.2252994],[-8.8432954,39.2241325],[-8.8515429,39.2280278],[-8.8609796,39.2297855],[-8.8728155,39.2429084],[-8.8752761,39.2503741],[-8.8937047,39.2486096],[-8.8950646,39.2452364],[-8.9115858,39.2349128],[-8.9202115,39.2407387],[-8.9252754,39.2375172],[-8.9374044,39.239883],[-8.9627078,39.2554675],[-8.9813141,39.2493813],[-8.9838868,39.2535242],[-8.9752245,39.2871364],[-8.9901109,39.2905299],[-8.9928468,39.2989644],[-9.0039262,39.2914278],[-9.0094921,39.2915677],[-9.0154184,39.2940401],[-9.0264881,39.2931974],[-9.0309566,39.3033959],[-9.03938,39.3102857],[-9.0558472,39.3113138],[-9.0736902,39.3021744],[-9.0721839,39.2994007]]]}}
]
}
