{
"type": "FeatureCollection",
"name": "12",
"crs": { "type": "name", "properties": { "name": "urn:ogc:def:crs:OGC:1.3:CRS84" } },
"features": [
{"type":"Feature","properties":{"iso3166":"PT-12"},"geometry":{"type":"Polygon","coordinates":[[[-7.1592952,38.7845145],[-7.1561286,38.7917277],[-7.1477863,38.800253],[-7.125404,38.8153274],[-7.1046882,38.8169901],[-7.0963726,38.8159665],[-7.0881145,38.8226572],[-7.0866269,38.828059],[-7.0681852,38.8544492],[-7.0611756,38.8580676],[-7.0530544,38.8582108],[-7.0392438,38.8646812],[-7.0398386,38.868149],[-7.0330217,38.878825],[-7.0405165,38.8841156],[-7.0393373,38.8924442],[-7.0448286,38.9017451],[-7.052181,38.9069534],[-7.0326498,38.9183497],[-7.0262565,38.9245133],[-7.0217304,38.9379865],[-7.0134831,38.9487567],[-6.9866029,38.976342],[-6.9818028,38.9850114],[-6.9643145,39.0111937],[-6.9511303,39.0235981],[-6.9678061,39.039491],[-6.9594164,39.0544706],[-6.968932,39.0668236],[-6.9704243,39.0726414],[-6.9809035,39.0878208],[-6.9960281,39.0992934],[-7.0089465,39.1041594],[-7.0281908,39.1156533],[-7.039632,39.1181146],[-7.0536916,39.117713],[-7.0781601,39.1093305],[-7.1009852,39.104477],[-7.105334,39.0992002],[-7.1440249,39.1086327],[-7.1494276,39.1216462],[-7.143618,39.127679],[-7.1420524,39.1391902],[-7.1363984,39.1465449],[-7.1403678,39.1504415],[-7.1322229,39.1645358],[-7.135078,39.1714694],[-7.1471864,39.1719778],[-7.1668591,39.1812239],[-7.1764077,39.1805609],[-7.1877645,39.1833303],[-7.1937192,39.1872939],[-7.1998226,39.1859305],[-7.2216071,39.1932999],[-7.2280497,39.2007234],[-7.2414598,39.2082552],[-7.2399913,39.2178832],[-7.245136,39.2259197],[-7.2417307,39.2343738],[-7.242031,39.242209],[-7.2480184,39.2533756],[-7.2314717,39.2782585],[-7.2701527,39.3042045],[-7.2685644,39.3087341],[-7.2922779,39.3287853],[-7.3019738,39.3317143],[-7.310341,39.340961],[-7.3060209,39.3510949],[-7.3103598,39.3616982],[-7.3105391,39.3690326],[-7.3228661,39.3817893],[-7.321412,39.3866056],[-7.3100243,39.3986657],[-7.3014375,39.4225316],[-7.3086132,39.4303175],[-7.3049355,39.4376561],[-7.3055528,39.446128],[-7.294261,39.4568276],[-7.3003751,39.4632974],[-7.319509,39.4701982],[-7.3251131,39.4753927],[-7.3380882,39.4789689],[-7.343811,39.4781357],[-7.3497544,39.4880599],[-7.3556431,39.4841135],[-7.3771409,39.4892465],[-7.3787802,39.4945352],[-7.3903641,39.5032263],[-7.3877214,39.5103746],[-7.3887871,39.5246433],[-7.3920555,39.5305986],[-7.4000485,39.5337827],[-7.4105182,39.5323454],[-7.4266543,39.5326894],[-7.4417032,39.5431707],[-7.4479518,39.5518118],[-7.4516113,39.5616787],[-7.4598279,39.5668062],[-7.4612119,39.5727886],[-7.4669038,39.5769549],[-7.4790419,39.5788402],[-7.4882827,39.5868543],[-7.495147,39.5861851],[-7.499824,39.5911578],[-7.5001068,39.5994922],[-7.5077353,39.6068373],[-7.5100581,39.618789],[-7.5206469,39.6262188],[-7.5273877,39.6348715],[-7.5247637,39.643235],[-7.5281243,39.6569996],[-7.540264740396044,39.663686857653843],[-7.5516151,39.6576156],[-7.5667513,39.6602571],[-7.5791194,39.6588173],[-7.590127,39.6538677],[-7.5961014,39.6476861],[-7.5965698,39.6396606],[-7.6072837,39.6371429],[-7.6235107,39.627198],[-7.6374425,39.6227236],[-7.6485143,39.624784],[-7.6605556,39.6342226],[-7.6678552,39.6465747],[-7.6731085,39.6489094],[-7.7053507,39.6352593],[-7.7148028,39.6266888],[-7.7127167,39.6085374],[-7.7223055,39.5932676],[-7.7339074,39.5935157],[-7.7549225,39.5883249],[-7.7613721,39.5750066],[-7.769944,39.5641573],[-7.7822222,39.5594628],[-7.7893797,39.5506983],[-7.7998672,39.5439625],[-7.8131904,39.5429907],[-7.8224846,39.5398194],[-7.8363665,39.5214929],[-7.839118,39.5146856],[-7.8477499,39.5107046],[-7.8565464,39.5139567],[-7.8677069,39.5214196],[-7.8731403,39.5279259],[-7.8789454,39.5289966],[-7.9066826,39.5413354],[-7.9101817,39.5481938],[-7.9320073,39.5522411],[-7.9376513,39.5563433],[-7.9492812,39.5581476],[-7.9534088,39.5644924],[-7.9594366,39.5612479],[-7.9757115,39.5263377],[-7.9856465,39.512533],[-7.9948734,39.5099772],[-8.0001168,39.5049936],[-8.0014685,39.4841882],[-8.008884,39.4731727],[-8.0062995,39.4618117],[-7.996807,39.4529647],[-7.9954351,39.4482607],[-7.9852067,39.4450917],[-7.9705919,39.4365606],[-7.9693661,39.4321624],[-7.9586757,39.4288986],[-7.9394578,39.4099538],[-7.949019,39.4001855],[-7.958511,39.3975719],[-7.9683416,39.3832493],[-7.9911025,39.3826262],[-8.0011704,39.3678872],[-8.0148007,39.3669047],[-8.0281559,39.3631224],[-8.0296446,39.3572864],[-8.0264524,39.34158],[-8.0412043,39.3305384],[-8.0420108,39.3242573],[-8.047947,39.3196007],[-8.0498462,39.3119748],[-8.0571287,39.3101198],[-8.0617719,39.302547],[-8.0670033,39.3016341],[-8.0756428,39.2916412],[-8.0779066,39.2786818],[-8.0885208,39.2751715],[-8.1162816,39.2795506],[-8.1165636,39.2851317],[-8.1344685,39.2874001],[-8.1531907,39.2727498],[-8.1558863,39.2655709],[-8.1514225,39.2495358],[-8.1734096,39.2315561],[-8.1815933,39.22931],[-8.1849135,39.2186114],[-8.1941502,39.2143308],[-8.2206931,39.1955444],[-8.2240965,39.1943881],[-8.2339137,39.1815725],[-8.2443071,39.1827941],[-8.2620569,39.1773941],[-8.2686495,39.1708563],[-8.2883234,39.1667406],[-8.2988212,39.1628753],[-8.3026673,39.1494888],[-8.3168177,39.1376555],[-8.3199614,39.1291205],[-8.3297688,39.1202688],[-8.3335047,39.1140182],[-8.3435606,39.109617],[-8.3434246,39.1002912],[-8.3343453,39.094919],[-8.3100338,39.0892427],[-8.3077048,39.0839465],[-8.2908331,39.0804322],[-8.2891003,39.0685517],[-8.2906879,39.0587453],[-8.2814636,39.0504392],[-8.2679533,39.0525684],[-8.2682351,39.0473146],[-8.2631427,39.0364353],[-8.2632464,39.018509],[-8.2603358,39.0122965],[-8.2501736,39.0062556],[-8.244433,38.9993473],[-8.2300416,39.0045574],[-8.2210381,38.9955979],[-8.2194685,38.9905119],[-8.2279148,38.9873869],[-8.2181745,38.9805651],[-8.2101454,38.9844727],[-8.2025805,38.9965587],[-8.1920757,39.0078994],[-8.1754292,39.0196692],[-8.1634432,39.015091],[-8.152003,39.0269315],[-8.145505,39.023292],[-8.1403864,39.0124787],[-8.1289654,39.0122202],[-8.1309658,39.0229947],[-8.1038069,39.0227345],[-8.098598,39.0126903],[-8.1118054,39.0143514],[-8.1202897,39.0039898],[-8.1193086,38.9949928],[-8.1136444,38.9919688],[-8.1083572,38.9750858],[-8.1032507,38.9693833],[-8.087324,38.9760587],[-8.0899827,38.9902422],[-8.0784903,39.0137619],[-8.070991,39.0157746],[-8.0553449,39.0070864],[-8.0476094,39.0082878],[-8.0356991,38.9909232],[-8.025572,38.988446],[-8.0137269,38.9813822],[-8.0203767,38.964012],[-8.0138678,38.9583745],[-8.0235391,38.9490003],[-8.0219408,38.940795],[-8.0077482,38.9453934],[-7.9957484,38.942239],[-7.9679995,38.9516104],[-7.9578621,38.9652424],[-7.9463747,38.9720469],[-7.941103,38.9698172],[-7.9232076,38.9718194],[-7.9072402,38.9572491],[-7.8987215,38.9436026],[-7.8949741,38.9314343],[-7.8857871,38.9247212],[-7.8770009,38.9263753],[-7.8759528,38.9083585],[-7.867609,38.9096125],[-7.8526761,38.9010587],[-7.8475553,38.9034161],[-7.8239663,38.8993531],[-7.798521,38.8987691],[-7.7899471,38.8957933],[-7.7855465,38.9071223],[-7.7722713,38.9011428],[-7.7520268,38.9082448],[-7.7420068,38.9184748],[-7.7412551,38.9265043],[-7.7328764,38.9392002],[-7.713549,38.9203654],[-7.6980891,38.9124003],[-7.6948185,38.9192688],[-7.6834388,38.929373],[-7.6541507,38.9163683],[-7.6408896,38.918118],[-7.6341333,38.9294098],[-7.6254381,38.9334384],[-7.6202793,38.942818],[-7.6042026,38.9538235],[-7.5645974,38.9524336],[-7.5669412,38.9579577],[-7.5423361,38.9679958],[-7.5420954,38.9790626],[-7.5533672,38.9918777],[-7.5423148,38.9938575],[-7.5446303,39.0027147],[-7.533348,39.0084383],[-7.5274567,38.9997667],[-7.5125935,38.9861239],[-7.5018848,38.985074],[-7.4919694,38.9891176],[-7.48324,38.9853565],[-7.4828105,38.9767225],[-7.4741909,38.9769479],[-7.464795,38.9690477],[-7.4528656,38.9644446],[-7.4637686,38.9550829],[-7.4616551,38.9463895],[-7.4660762,38.9409207],[-7.4549055,38.9336722],[-7.4661142,38.9260374],[-7.4462701,38.9178957],[-7.4229259,38.9034877],[-7.4277583,38.8880968],[-7.4266539,38.8753875],[-7.4223041,38.8659237],[-7.409381,38.8580898],[-7.4192338,38.848217],[-7.4042064,38.8352964],[-7.3979393,38.8243022],[-7.3958234,38.8116962],[-7.3903263,38.801413],[-7.3816802,38.8068216],[-7.3687164,38.8004431],[-7.3533273,38.8055175],[-7.3467845,38.7981234],[-7.3190054,38.8094966],[-7.3256429,38.8251927],[-7.3101191,38.8290592],[-7.2947059,38.8405569],[-7.2790735,38.8279399],[-7.2632357,38.8383621],[-7.2595712,38.844934],[-7.2453117,38.8478513],[-7.2390299,38.8439051],[-7.2262077,38.8287445],[-7.2140192,38.8314114],[-7.2144144,38.8166781],[-7.2111413,38.8077999],[-7.2183859,38.8025374],[-7.2323986,38.7851644],[-7.2275994,38.766826],[-7.2170585,38.7641707],[-7.2146875,38.7586818],[-7.203746,38.7514781],[-7.1957628,38.7611517],[-7.1968403,38.7649796],[-7.178999,38.7742214],[-7.1701763,38.7765542],[-7.1592952,38.7845145]]]}}
]
}
