{
"type": "FeatureCollection",
"name": "13",
"crs": { "type": "name", "properties": { "name": "urn:ogc:def:crs:OGC:1.3:CRS84" } },
"features": [
{"type":"Feature","properties":{"iso3166":"PT-13"},"geometry":{"type":"Polygon","coordinates":[[[-8.5478594,41.3476245],[-8.5603933,41.3443899],[-8.5799486,41.3470007],[-8.602406,41.3455664],[-8.615199,41.3564704],[-8.6154252,41.3645491],[-8.6227793,41.3840694],[-8.5923067,41.3949843],[-8.6052308,41.4126638],[-8.6134637,41.4081716],[-8.6225473,41.4098977],[-8.6501371,41.4196861],[-8.6680829,41.4446039],[-8.6831896,41.4491625],[-8.7007582,41.4421558],[-8.7122677,41.4545485],[-8.7295159,41.453606],[-8.7462625,41.468587],[-8.7525882,41.4661401],[-8.7764281,41.4719715],[-8.7786871,41.4565514],[-8.7800193,41.4424084],[-8.784671,41.4329381],[-8.7843257,41.4266508],[-8.7889073,41.4166841],[-8.7866096,41.4118273],[-8.7810012,41.4059608],[-8.7789713,41.401451],[-8.7808162,41.3956516],[-8.7750836,41.3914121],[-8.7750931,41.3860963],[-8.7671418,41.3771048],[-8.7628267,41.3748766],[-8.7610526,41.3618786],[-8.7549518,41.3547317],[-8.7550574,41.3425526],[-8.7443624,41.3390497],[-8.7398693,41.3327456],[-8.7393882,41.3232609],[-8.7414013,41.3109035],[-8.7371663,41.2958447],[-8.7336497,41.2909086],[-8.7320397,41.2818889],[-8.7276098,41.2684848],[-8.7288254,41.2651696],[-8.7241075,41.2562153],[-8.7267035,41.2446648],[-8.7224719,41.2283185],[-8.7180872,41.2257163],[-8.7159457,41.2199333],[-8.7163684,41.2031653],[-8.709128,41.1948308],[-8.7049483,41.1853823],[-8.6987727,41.1788975],[-8.6898869,41.1732885],[-8.6910583,41.1687579],[-8.6745427,41.146996],[-8.6692277,41.1420248],[-8.6682696,41.1375632],[-8.6709282,41.1315034],[-8.6679303,41.1271991],[-8.6686038,41.1215461],[-8.6634546,41.1169042],[-8.6642309,41.1114748],[-8.6627194,41.1007232],[-8.6598543,41.0981656],[-8.6575434,41.0907062],[-8.6591203,41.0687765],[-8.6562001,41.0529229],[-8.6466802,41.0320776],[-8.644797,41.0227226],[-8.6449731,41.0159689],[-8.6356594,41.0152156],[-8.6310192,41.0183856],[-8.6182694,41.020185],[-8.6060588,41.0256944],[-8.5949453,41.0145609],[-8.5571929,41.0155639],[-8.5549694,41.0264957],[-8.5455976,41.0337027],[-8.5279223,41.036274],[-8.5143701,41.0146735],[-8.5056373,41.0093042],[-8.495139,41.0107937],[-8.4891663,41.0134012],[-8.4919327,41.02215],[-8.4774835,41.0247988],[-8.4757019,41.0340442],[-8.4925805,41.0395989],[-8.4862695,41.0525965],[-8.4738468,41.051132],[-8.4599552,41.0451511],[-8.452706,41.0458319],[-8.4487407,41.0534612],[-8.4331019,41.0389126],[-8.4283754,41.0365939],[-8.4330025,41.0291985],[-8.4266746,41.0207249],[-8.4152159,41.0150691],[-8.3967659,41.0124479],[-8.3888524,41.0045301],[-8.3841858,41.0036531],[-8.3843965,41.0243478],[-8.3959797,41.0271466],[-8.4009228,41.033244],[-8.3985666,41.048643],[-8.394398,41.0507536],[-8.3814092,41.0493187],[-8.3685003,41.0501476],[-8.358386,41.0421562],[-8.352164,41.0401033],[-8.3427962,41.042888],[-8.3335972,41.0533116],[-8.3257857,41.0583727],[-8.3147087,41.0583952],[-8.3007049,41.0697199],[-8.2940817,41.0801257],[-8.2872253,41.0789366],[-8.2799323,41.0673981],[-8.2686166,41.0641836],[-8.2584782,41.0703216],[-8.2467102,41.0692215],[-8.2328002,41.0790221],[-8.2188181,41.0815738],[-8.2086411,41.0930382],[-8.1853992,41.0925884],[-8.1728535,41.0881632],[-8.1608917,41.0894368],[-8.146888,41.0841591],[-8.1331506,41.0843886],[-8.1179226,41.0887101],[-8.1129812,41.0949524],[-8.0984314,41.1005603],[-8.0827286,41.0917439],[-8.0682278,41.0928131],[-8.0491324,41.0905379],[-8.0253991,41.0969956],[-8.0133655,41.1044879],[-8.0001321,41.1053629],[-7.9695318,41.1157703],[-7.9628241,41.1135454],[-7.9516499,41.1227008],[-7.9294182,41.1182234],[-7.9118639,41.1198896],[-7.9136038,41.1349599],[-7.9011868,41.14727],[-7.9036967,41.1547593],[-7.8895686,41.1629102],[-7.898941,41.1728618],[-7.8879704,41.1890863],[-7.8940898,41.2092383],[-7.8882836,41.2177999],[-7.8755793,41.2420481],[-7.886974,41.2484677],[-7.8942199,41.2487381],[-7.8963944,41.2675391],[-7.9151004,41.274287],[-7.9141346,41.2805249],[-7.9213669,41.2903216],[-7.9137693,41.3055195],[-7.9292651,41.3180272],[-7.9398218,41.3221713],[-7.9557756,41.3231613],[-7.9653424,41.3321647],[-7.9583514,41.3433683],[-7.951068,41.3453675],[-7.9481411,41.3536896],[-7.9594458,41.3584427],[-7.9725771,41.3603227],[-7.969864,41.3723031],[-7.974425214816973,41.37438697893846],[-7.9876182,41.3562373],[-7.9895704,41.3466048],[-8.0037939,41.3419583],[-8.0289685,41.3190773],[-8.035737,41.3187983],[-8.0463504,41.3266083],[-8.0489891,41.331799],[-8.0576821,41.333116],[-8.0653713,41.3432769],[-8.0771279,41.3380968],[-8.0788669,41.3320594],[-8.0865093,41.3293489],[-8.0957447,41.3382573],[-8.119673,41.3431604],[-8.1301489,41.3485806],[-8.1307578,41.3553163],[-8.1461391,41.364176],[-8.1403805,41.3783633],[-8.1588238,41.3811624],[-8.1599499,41.3921358],[-8.1658416,41.4002991],[-8.1805148,41.4025089],[-8.1855214,41.4099656],[-8.2005753,41.4088435],[-8.2153979,41.4118734],[-8.2230096,41.4099427],[-8.2203687,41.3977044],[-8.2439923,41.3929944],[-8.2601225,41.3783632],[-8.2658284,41.3773173],[-8.2742805,41.364875],[-8.2783783,41.345828],[-8.3036827,41.3430954],[-8.3280908,41.3657713],[-8.3260853,41.3768507],[-8.3453269,41.3714149],[-8.3576336,41.365016],[-8.37465,41.3622938],[-8.3787677,41.3682702],[-8.3936972,41.3619929],[-8.3955846,41.3688267],[-8.3885667,41.3812698],[-8.3994279,41.3842886],[-8.4231304,41.3658351],[-8.4315094,41.3629602],[-8.440636,41.3634979],[-8.4493398,41.3739573],[-8.4760471,41.3721734],[-8.5014541,41.368335],[-8.5183837,41.3456754],[-8.5289009,41.3466493],[-8.537229,41.3429983],[-8.5478594,41.3476245]]]}}
]
}
