{
"type": "FeatureCollection",
"name": "14",
"crs": { "type": "name", "properties": { "name": "urn:ogc:def:crs:OGC:1.3:CRS84" } },
"features": [
{"type":"Feature","properties":{"iso3166":"PT-14"},"geometry":{"type":"Polygon","coordinates":[[[-8.9684661,38.827765],[-8.9536486,38.8154012],[-8.9418294,38.8004196],[-8.9354916,38.7850618],[-8.9307236,38.7672842],[-8.9242321,38.7578602],[-8.9240567,38.7508953],[-8.9082977,38.7419392],[-8.9039515,38.7469113],[-8.8924142,38.741349],[-8.8558957,38.7541374],[-8.8508499,38.7584946],[-8.8389348,38.7617882],[-8.8335404,38.7611112],[-8.8143582,38.7458263],[-8.8102958,38.740119],[-8.801854,38.7416305],[-8.7915816,38.7341218],[-8.7791323,38.7339234],[-8.7536053,38.7428242],[-8.749628,38.7492351],[-8.7438817,38.7774512],[-8.7338844,38.7933906],[-8.7093536,38.8258853],[-8.7040019,38.839961],[-8.6969247,38.8403907],[-8.6853492,38.8262855],[-8.670697,38.8224675],[-8.6577045,38.8129284],[-8.6475376,38.8094996],[-8.6393102,38.8092891],[-8.638676,38.8132522],[-8.6306623,38.8220527],[-8.6293065,38.8306662],[-8.6152088,38.8350818],[-8.612166,38.8388869],[-8.5983098,38.8403563],[-8.5992576,38.8313941],[-8.6060361,38.826409],[-8.6038462,38.8227536],[-8.6067122,38.8082972],[-8.6039723,38.8012671],[-8.6053544,38.7918298],[-8.6125004,38.7859634],[-8.6072199,38.7773635],[-8.6007999,38.7764917],[-8.5965098,38.7716113],[-8.5845008,38.766696],[-8.5779283,38.7718941],[-8.5574438,38.7692888],[-8.5483153,38.7629117],[-8.5003709,38.8074793],[-8.4837511,38.8040595],[-8.471059,38.7940001],[-8.462348,38.8017155],[-8.4551839,38.8030532],[-8.443888,38.8133849],[-8.4386883,38.827512],[-8.419163,38.8376561],[-8.4179604,38.8267152],[-8.4090543,38.8229905],[-8.3928556,38.8356757],[-8.3818186,38.8408931],[-8.3893289,38.8472429],[-8.3800432,38.8534559],[-8.3424247,38.8388241],[-8.3335996,38.8470037],[-8.3212692,38.8592558],[-8.309951,38.8500351],[-8.3016844,38.8690899],[-8.2896279,38.8523566],[-8.269741,38.8422403],[-8.2693507,38.8315497],[-8.2589169,38.8270272],[-8.249599,38.8177935],[-8.2295105,38.8229221],[-8.2217978,38.8286138],[-8.1972722,38.8079555],[-8.204914,38.7992744],[-8.1917763,38.7949239],[-8.1818538,38.8031294],[-8.1735674,38.8010045],[-8.1782153,38.7913739],[-8.1756085,38.7826692],[-8.1646673,38.7766266],[-8.1420361,38.7725849],[-8.1401233,38.7880981],[-8.1243103,38.8049682],[-8.1413927,38.8181397],[-8.1545545,38.8092414],[-8.1624856,38.8181667],[-8.167989,38.8299542],[-8.1814176,38.8323807],[-8.1879107,38.8381302],[-8.1861237,38.8507402],[-8.1736435,38.854954],[-8.1587343,38.8663956],[-8.1709773,38.8708003],[-8.1815898,38.8794165],[-8.1953596,38.8729227],[-8.2009065,38.8792585],[-8.2320666,38.8932892],[-8.2540427,38.899035],[-8.2721882,38.9073918],[-8.2622963,38.9204082],[-8.2499501,38.9286218],[-8.2429267,38.9381496],[-8.2397002,38.9524871],[-8.2362683,38.9568966],[-8.2343921,38.9692858],[-8.2425301,38.9734474],[-8.2276182,38.9876157],[-8.2194685,38.9905119],[-8.2210381,38.9955979],[-8.2300416,39.0045574],[-8.244433,38.9993473],[-8.2501736,39.0062556],[-8.2603358,39.0122965],[-8.2632464,39.018509],[-8.2631427,39.0364353],[-8.2682351,39.0473146],[-8.2679533,39.0525684],[-8.2814636,39.0504392],[-8.2906879,39.0587453],[-8.2891003,39.0685517],[-8.2908331,39.0804322],[-8.3077048,39.0839465],[-8.3100338,39.0892427],[-8.3343453,39.094919],[-8.3434246,39.1002912],[-8.3435606,39.109617],[-8.3335047,39.1140182],[-8.3297688,39.1202688],[-8.3199614,39.1291205],[-8.3168177,39.1376555],[-8.3026673,39.1494888],[-8.2988212,39.1628753],[-8.2883234,39.1667406],[-8.2686495,39.1708563],[-8.2620569,39.1773941],[-8.2443071,39.1827941],[-8.2339137,39.1815725],[-8.2240965,39.1943881],[-8.2206931,39.1955444],[-8.1941502,39.2143308],[-8.1849135,39.2186114],[-8.1815933,39.22931],[-8.1734096,39.2315561],[-8.1514225,39.2495358],[-8.1558863,39.2655709],[-8.1531907,39.2727498],[-8.1344685,39.2874001],[-8.1165636,39.2851317],[-8.1162816,39.2795506],[-8.0885208,39.2751715],[-8.0779066,39.2786818],[-8.0756428,39.2916412],[-8.0670033,39.3016341],[-8.0617719,39.302547],[-8.0571287,39.3101198],[-8.0498462,39.3119748],[-8.047947,39.3196007],[-8.0420108,39.3242573],[-8.0412043,39.3305384],[-8.0264524,39.34158],[-8.0296446,39.3572864],[-8.0281559,39.3631224],[-8.0148007,39.3669047],[-8.0011704,39.3678872],[-7.9911025,39.3826262],[-7.9683416,39.3832493],[-7.958511,39.3975719],[-7.949019,39.4001855],[-7.9394578,39.4099538],[-7.9586757,39.4288986],[-7.9693661,39.4321624],[-7.9705919,39.4365606],[-7.9852067,39.4450917],[-7.9954351,39.4482607],[-7.996807,39.4529647],[-8.0062995,39.4618117],[-8.008884,39.4731727],[-8.0014685,39.4841882],[-8.0001168,39.5049936],[-7.9948734,39.5099772],[-7.9856465,39.512533],[-7.9757115,39.5263377],[-7.9594366,39.5612479],[-7.9534088,39.5644924],[-7.9492812,39.5581476],[-7.9376513,39.5563433],[-7.9320073,39.5522411],[-7.9101817,39.5481938],[-7.9066826,39.5413354],[-7.8789454,39.5289966],[-7.8731403,39.5279259],[-7.8677069,39.5214196],[-7.8565464,39.5139567],[-7.8477499,39.5107046],[-7.839118,39.5146856],[-7.8363665,39.5214929],[-7.8224846,39.5398194],[-7.8243835,39.5462576],[-7.8224133,39.5580972],[-7.8115758,39.5673648],[-7.8186058,39.5787535],[-7.8166599,39.5850157],[-7.8295294,39.5941313],[-7.835789,39.5944235],[-7.8406453,39.5998806],[-7.8384202,39.6073506],[-7.8464756,39.6072268],[-7.8495341,39.6130003],[-7.8480532,39.6232613],[-7.8611199,39.6239167],[-7.8647563,39.6383374],[-7.8730219,39.6370425],[-7.8754863,39.6424206],[-7.8812162,39.6445317],[-7.8923871,39.6436011],[-7.8897715,39.6494359],[-7.8971167,39.6581048],[-7.9092435,39.6630463],[-7.9142538,39.6676692],[-7.9276106,39.66767],[-7.9565318,39.6612867],[-7.9595349,39.6667707],[-7.9505479,39.6866225],[-7.9528972,39.691687],[-7.9542908,39.7207427],[-7.958276,39.7389287],[-7.9606898,39.742702],[-7.9701162,39.7460093],[-7.9734189,39.7374688],[-7.9909145,39.7285861],[-7.9999586,39.7335106],[-8.0046952,39.7433358],[-8.0190476,39.7425321],[-8.0234547,39.7402128],[-8.0339206,39.7465057],[-8.0543498,39.7355631],[-8.0555205,39.7326833],[-8.0504829,39.7178145],[-8.0584128,39.6988889],[-8.0621725,39.6934158],[-8.058879,39.6879226],[-8.0580799,39.6747557],[-8.0608449,39.6683514],[-8.0714269,39.6687437],[-8.0774377,39.6586039],[-8.0645314,39.6342613],[-8.0539829,39.6169844],[-8.0695126,39.6208253],[-8.0844531,39.6139868],[-8.0913307,39.6127353],[-8.1096051,39.6134903],[-8.1194352,39.6118507],[-8.126648,39.6146781],[-8.1343379,39.6112654],[-8.1452699,39.6139822],[-8.1531796,39.6237053],[-8.1750683,39.6247295],[-8.1899009,39.6332347],[-8.2075102,39.6369972],[-8.2185909,39.6365909],[-8.2210196,39.6410009],[-8.2319303,39.6464526],[-8.2325629,39.6595794],[-8.2289928,39.6648135],[-8.2289531,39.6740164],[-8.2323521,39.6824482],[-8.2301236,39.6968678],[-8.2254151,39.7051667],[-8.2360746,39.7041895],[-8.2340914,39.7131806],[-8.2349234,39.7223043],[-8.2316642,39.7252092],[-8.2375216,39.7313581],[-8.2337318,39.7402967],[-8.228488,39.7420817],[-8.2291109,39.7546443],[-8.2325903,39.7634207],[-8.245327,39.7792946],[-8.2547096,39.7753322],[-8.2636751,39.7686766],[-8.2824247,39.7779099],[-8.2812954,39.7885883],[-8.2840882,39.7993588],[-8.3042688,39.7932174],[-8.3219429,39.8006347],[-8.3364673,39.7999157],[-8.3268016,39.789874],[-8.325747,39.7812971],[-8.3302096,39.7747627],[-8.3257656,39.7661718],[-8.3325888,39.7609415],[-8.3405344,39.7727101],[-8.3612888,39.7684615],[-8.3803525,39.7519109],[-8.3856799,39.7537575],[-8.3921111,39.7602036],[-8.4043735,39.7602412],[-8.4232641,39.7541162],[-8.4235514,39.7480308],[-8.4320427,39.7400604],[-8.4514615,39.7370263],[-8.4550831,39.7440734],[-8.4508094,39.7492184],[-8.4622468,39.7741529],[-8.4617468,39.7803355],[-8.4653951,39.7936832],[-8.462541,39.8044651],[-8.4669601,39.8066772],[-8.4705346,39.8174729],[-8.4746917,39.8230379],[-8.474353,39.8338705],[-8.4763682,39.837655],[-8.5009826,39.8239924],[-8.5013015,39.8177566],[-8.5064397,39.8150496],[-8.5174974,39.8280503],[-8.5242116,39.8276691],[-8.5456276,39.7981018],[-8.5582075,39.7915412],[-8.5931024,39.7768928],[-8.6042352,39.7799294],[-8.6149255,39.7876919],[-8.6221818,39.7896339],[-8.6348873,39.7898905],[-8.6408279,39.7852717],[-8.6763251,39.7738811],[-8.6804003,39.7677736],[-8.6788438,39.760469],[-8.681525,39.7485219],[-8.6728752,39.7310402],[-8.6650433,39.724737],[-8.675613,39.7235966],[-8.6804956,39.7176721],[-8.6794557,39.7119944],[-8.6485861,39.7017563],[-8.6400448,39.7011555],[-8.6347401,39.6932808],[-8.6372147,39.688067],[-8.6423712,39.6865718],[-8.6460269,39.6804523],[-8.6418587,39.6743045],[-8.6465629,39.6639802],[-8.6530557,39.6588944],[-8.6587215,39.6580691],[-8.6897452,39.642671],[-8.698835,39.6413838],[-8.7022109,39.6359609],[-8.6990488,39.6282362],[-8.6919052,39.6205087],[-8.6874833,39.6099125],[-8.6895061,39.5887843],[-8.6850462,39.5738307],[-8.6714724,39.5617584],[-8.6876438,39.5506908],[-8.6900798,39.542143],[-8.6951717,39.5323474],[-8.7054227,39.5295748],[-8.7144848,39.5207846],[-8.737583,39.5369351],[-8.7463841,39.5292191],[-8.7428957,39.508976],[-8.7352198,39.497811],[-8.7296576,39.4818229],[-8.743945,39.4779501],[-8.7477382,39.4801718],[-8.7550271,39.4763185],[-8.7657386,39.4763117],[-8.771862,39.4789697],[-8.7889442,39.4791179],[-8.8023413,39.4830095],[-8.8183592,39.4780117],[-8.8464188,39.4725251],[-8.8631518,39.4754548],[-8.8809189,39.4744282],[-8.8925667,39.465251],[-8.9034209,39.4660075],[-8.9173472,39.4446658],[-8.9230161,39.4332787],[-8.9324053,39.4232406],[-8.9345665,39.4130552],[-8.9400115,39.4056607],[-8.9457121,39.3910366],[-8.9566071,39.3929275],[-8.9714005,39.3932158],[-8.97503,39.3877585],[-8.9836739,39.3847664],[-8.991617,39.3759934],[-8.9917161,39.3731688],[-9.0015496,39.3547637],[-8.9981953,39.3432786],[-8.9990796,39.3332027],[-8.9970066,39.3285836],[-8.9864458,39.3187671],[-8.9928468,39.2989644],[-8.9901109,39.2905299],[-8.9752245,39.2871364],[-8.9838868,39.2535242],[-8.9813141,39.2493813],[-8.9627078,39.2554675],[-8.9374044,39.239883],[-8.9252754,39.2375172],[-8.9202115,39.2407387],[-8.9115858,39.2349128],[-8.8950646,39.2452364],[-8.8937047,39.2486096],[-8.8752761,39.2503741],[-8.8728155,39.2429084],[-8.8609796,39.2297855],[-8.8515429,39.2280278],[-8.8432954,39.2241325],[-8.8353385,39.2252994],[-8.8206009,39.2043327],[-8.8195254,39.1969418],[-8.8223787,39.189649],[-8.8415035,39.1805739],[-8.8469584,39.182992],[-8.855206,39.178681],[-8.8718364,39.1875269],[-8.8912741,39.1835331],[-8.8938394,39.1762207],[-8.9012131,39.1714703],[-8.9131247,39.172065],[-8.9043115,39.1624667],[-8.8930338,39.1585323],[-8.8816051,39.1489282],[-8.8731163,39.1322811],[-8.8674744,39.1282816],[-8.8600143,39.1280358],[-8.8296835,39.1119003],[-8.8257598,39.1155917],[-8.8075597,39.1044841],[-8.8041371,39.0992472],[-8.7978152,39.0957603],[-8.8051837,39.0905067],[-8.793753,39.0795816],[-8.781861,39.0583871],[-8.8009739,39.0538989],[-8.8084922,39.0450765],[-8.8147586,39.0324548],[-8.8255935,39.0278007],[-8.842677,39.0298777],[-8.8604497,39.0288838],[-8.8616204,39.0264495],[-8.8478621,39.0185664],[-8.8471496,39.0108924],[-8.8646997,38.9895036],[-8.8625843,38.9811041],[-8.8779526,38.9737525],[-8.8556949,38.9648256],[-8.8509253,38.9595871],[-8.8871893,38.947491],[-8.8943028,38.933219],[-8.8906765,38.9278716],[-8.8941985,38.9208846],[-8.905334,38.9127572],[-8.911263,38.903355],[-8.9118807,38.8876769],[-8.9192493,38.8792564],[-8.9277722,38.8730587],[-8.9403087,38.8553419],[-8.9474727,38.8465631],[-8.9633807,38.8371488],[-8.9670139,38.8321664],[-8.9684661,38.827765]]]}}
]
}
