{
"type": "FeatureCollection",
"name": "15",
"crs": { "type": "name", "properties": { "name": "urn:ogc:def:crs:OGC:1.3:CRS84" } },
"features": [
{"type":"Feature","properties":{"iso3166":"PT-15"},"geometry":{"type":"Polygon","coordinates":[[[-8.9684661,38.827765],[-8.985182535286647,38.804015428973408],[-8.9819159,38.7936453],[-8.9692297,38.7962771],[-8.9671896,38.799982],[-8.9600297,38.7970296],[-8.9645362,38.7898519],[-8.9577986,38.7890781],[-8.9536545,38.7845312],[-8.9610137,38.7835957],[-8.9718447,38.7846672],[-8.9808418,38.7827823],[-8.9884452,38.7851386],[-8.9979235,38.7812261],[-9.0027363,38.7774964],[-9.010392,38.7649041],[-9.0024749,38.7600968],[-8.9955632,38.7613324],[-8.989154,38.7598748],[-8.9786499,38.7607562],[-8.9723925,38.7569355],[-8.9866665,38.7509802],[-8.9984294,38.7517525],[-9.0096647,38.7565671],[-9.0182426,38.7563093],[-9.0310599,38.7408082],[-9.0289223,38.7391495],[-9.026937,38.7302728],[-9.0240772,38.7257348],[-9.0365303,38.7216245],[-9.0436854,38.7170955],[-9.0463131,38.7130911],[-9.0498408,38.6916064],[-9.0448103,38.6838749],[-9.0616679,38.6820304],[-9.0601176,38.6752409],[-9.0737883,38.6703179],[-9.0748436,38.6659508],[-9.0893345,38.6621305],[-9.0938243,38.6590922],[-9.0997361,38.6482832],[-9.1040893,38.6504786],[-9.1146746,38.6515663],[-9.1262753,38.654389],[-9.1384257,38.6595674],[-9.1411169,38.6654806],[-9.1471354,38.6664135],[-9.1510245,38.6720445],[-9.1427142,38.6792728],[-9.1475905,38.6882076],[-9.164348,38.6826676],[-9.1800651,38.679074],[-9.2214805,38.6758685],[-9.2348393,38.6735109],[-9.2405656,38.6748276],[-9.244723,38.6682107],[-9.2590435,38.6630847],[-9.2482798,38.6534147],[-9.2423477,38.6450851],[-9.2230809,38.6225747],[-9.212696,38.6070343],[-9.2076886,38.5964656],[-9.2029436,38.5833253],[-9.1907184,38.5604193],[-9.1885324,38.55369],[-9.1828488,38.5274214],[-9.1825375,38.521523],[-9.184181,38.4895491],[-9.1886623,38.4743377],[-9.193951,38.4620827],[-9.1989595,38.4566905],[-9.2021618,38.4499999],[-9.2058624,38.4488326],[-9.2102158,38.4408],[-9.2098132,38.4371766],[-9.2175753,38.4279937],[-9.220299,38.4173428],[-9.2201162,38.4126214],[-9.2123638,38.4125145],[-9.1997006,38.4092563],[-9.1892122,38.4134006],[-9.187986,38.4178312],[-9.1811019,38.4207302],[-9.1688554,38.4296804],[-9.1607476,38.4308712],[-9.1455832,38.4308824],[-9.1378061,38.4288838],[-9.130752,38.43271],[-9.1135505,38.4345549],[-9.1074523,38.442507],[-9.1013297,38.4424776],[-9.0899004,38.4397883],[-9.0823856,38.4364023],[-9.0659039,38.4354711],[-9.0616432,38.4405742],[-9.0533929,38.4402152],[-9.0418855,38.4470828],[-9.0350238,38.4482091],[-9.028764,38.4466046],[-9.0176526,38.4540828],[-9.0067752,38.4558952],[-8.990598,38.4651012],[-8.9811316,38.4790609],[-8.9697707,38.4803741],[-8.9677039,38.4838924],[-8.9537101,38.4849401],[-8.9428766,38.4841162],[-8.934082,38.4883387],[-8.9258759,38.5068059],[-8.9182397,38.5108431],[-8.9128675,38.5024976],[-8.9105991,38.487341],[-8.9028024,38.4816231],[-8.8999416,38.4773646],[-8.8884007,38.4703522],[-8.8782605,38.4616484],[-8.8676407,38.4556445],[-8.8532609,38.4434241],[-8.8459677,38.4388315],[-8.8345195,38.4292975],[-8.8256847,38.4194113],[-8.8123972,38.3979468],[-8.8047261,38.3827681],[-8.7916953,38.3506227],[-8.7875548,38.3376294],[-8.7838075,38.3217661],[-8.7804154,38.301732],[-8.7764916,38.2628672],[-8.7756684,38.2429972],[-8.7758591,38.2211467],[-8.7803688,38.1832392],[-8.7833247,38.1695277],[-8.7934392,38.1318501],[-8.8018961,38.106474],[-8.817558,38.0665096],[-8.8256574,38.0483764],[-8.840368,38.0194855],[-8.8560734,37.991624],[-8.863182,37.9808621],[-8.8737184,37.9680899],[-8.8787429,37.9682197],[-8.8878534,37.9583845],[-8.8838792,37.9500476],[-8.8728454,37.9514546],[-8.8640752,37.9497295],[-8.8563592,37.9442363],[-8.8567101,37.938774],[-8.843046,37.9341352],[-8.839761,37.9375727],[-8.832617,37.9368764],[-8.8217237,37.9335805],[-8.8103051,37.9283227],[-8.8065983,37.9229888],[-8.8028568,37.9115876],[-8.8003324,37.9081389],[-8.796099,37.8855863],[-8.7965312,37.8810804],[-8.7928658,37.8659889],[-8.7960765,37.8602907],[-8.7945045,37.857101],[-8.7980772,37.8523727],[-8.793289,37.8402387],[-8.789948,37.8376397],[-8.79263,37.8335453],[-8.7930799,37.8195742],[-8.785479,37.8178989],[-8.7826512,37.8071771],[-8.7762017,37.804947],[-8.7705725,37.810813],[-8.7613638,37.812061],[-8.7606738,37.815639],[-8.7493067,37.8122849],[-8.7366165,37.8149243],[-8.7316105,37.8074583],[-8.7264659,37.8086225],[-8.7188061,37.7943928],[-8.7091534,37.7872724],[-8.7072621,37.778906],[-8.6950529,37.7757786],[-8.6956843,37.7712215],[-8.6901472,37.7585881],[-8.6834625,37.7532283],[-8.6720329,37.7584687],[-8.6723379,37.7632473],[-8.6679344,37.7667138],[-8.6603056,37.7681726],[-8.6526857,37.7643766],[-8.6451568,37.7629389],[-8.6330203,37.7530859],[-8.6246901,37.7546698],[-8.6233303,37.749962],[-8.6172856,37.7494971],[-8.6084384,37.7594038],[-8.5877036,37.7569001],[-8.5899784,37.7785024],[-8.5841436,37.7842433],[-8.5820125,37.7896303],[-8.5837512,37.7993704],[-8.5690816,37.8170246],[-8.5644408,37.8191998],[-8.5481157,37.8183016],[-8.552037,37.8287846],[-8.5532113,37.838625],[-8.5512684,37.8473828],[-8.5326702,37.8549075],[-8.4793047,37.8549848],[-8.4703346,37.8578463],[-8.4620809,37.8655979],[-8.4404938,37.8599907],[-8.439911,37.8670712],[-8.4346928,37.8709093],[-8.4243343,37.8669975],[-8.3858224,37.8603305],[-8.3808042,37.8620966],[-8.3678252,37.8610467],[-8.3665476,37.8575744],[-8.3592593,37.8579193],[-8.3577657,37.8542345],[-8.3307688,37.8470258],[-8.3329533,37.8574094],[-8.3361924,37.8645885],[-8.3317148,37.8690759],[-8.3111257,37.8818432],[-8.3125772,37.8917257],[-8.299378,37.8991783],[-8.3082844,37.9069043],[-8.3093024,37.9116648],[-8.3000993,37.9241302],[-8.3071191,37.9299501],[-8.295917,37.9509867],[-8.2945105,37.9644427],[-8.2951785,37.9796499],[-8.2936102,37.9841544],[-8.2956479,37.9932582],[-8.3056666,37.9991466],[-8.3144288,38.0163658],[-8.3278188,38.0239462],[-8.347504,38.0171684],[-8.3531172,38.0274118],[-8.3638374,38.0219729],[-8.3631627,38.0277277],[-8.3744362,38.0317185],[-8.3713298,38.0406147],[-8.3762867,38.0443014],[-8.382504,38.0447258],[-8.3882366,38.0513077],[-8.3947996,38.0528546],[-8.4077421,38.0663943],[-8.4095644,38.072996],[-8.4026956,38.0763587],[-8.3939241,38.0994182],[-8.394285,38.1074511],[-8.386574,38.1161589],[-8.3728227,38.1075206],[-8.3700722,38.1032862],[-8.3633584,38.1039012],[-8.3602631,38.112643],[-8.3544933,38.1189947],[-8.3532855,38.1286976],[-8.3560052,38.1376015],[-8.3492665,38.1420253],[-8.3401323,38.1404511],[-8.3369768,38.142741],[-8.3366831,38.1504363],[-8.3336,38.155204],[-8.3245031,38.1489244],[-8.3138891,38.1436903],[-8.3146249,38.140565],[-8.3080387,38.1373314],[-8.2910511,38.1386821],[-8.2915174,38.1550013],[-8.287138,38.1619541],[-8.2898934,38.1703671],[-8.2852531,38.1804955],[-8.2843277,38.1865776],[-8.2747996,38.186098],[-8.2664465,38.1801124],[-8.2533072,38.1822426],[-8.2490274,38.1795756],[-8.2396944,38.1794776],[-8.2352769,38.1832932],[-8.2297134,38.1970013],[-8.2186072,38.2030568],[-8.2031293,38.200703],[-8.1917834,38.2038291],[-8.18289,38.2078163],[-8.180922,38.2111783],[-8.1653836,38.217637],[-8.1604528,38.2166367],[-8.1419781,38.2195772],[-8.1298613,38.2239871],[-8.1312857,38.2311645],[-8.1299389,38.2441728],[-8.1309944,38.2557924],[-8.1296963,38.2663],[-8.1366277,38.2744357],[-8.1355707,38.2781318],[-8.1430876,38.2978385],[-8.1613697,38.3178727],[-8.1702232,38.3194104],[-8.1977336,38.3425849],[-8.2056446,38.344733],[-8.2374736,38.3462847],[-8.2583809,38.3532576],[-8.2692472,38.3536216],[-8.2772863,38.3715438],[-8.3005718,38.3755225],[-8.3225708,38.3721828],[-8.3013303,38.3996892],[-8.2837185,38.4120708],[-8.2875948,38.4173428],[-8.3013509,38.4230027],[-8.2862265,38.4296987],[-8.2932776,38.4380453],[-8.3084558,38.4370989],[-8.325486,38.4433371],[-8.3240504,38.4523138],[-8.3103125,38.4585042],[-8.3231589,38.4836707],[-8.3287771,38.4881685],[-8.3359848,38.5069556],[-8.3482709,38.5187009],[-8.3581497,38.5244195],[-8.3691204,38.5457436],[-8.3791439,38.5452034],[-8.3997082,38.5375485],[-8.4103961,38.525121],[-8.4231303,38.5209834],[-8.4421745,38.5221969],[-8.4463581,38.5260514],[-8.475922,38.5167669],[-8.4800924,38.5332008],[-8.4912127,38.528919],[-8.4975573,38.5488198],[-8.5201955,38.5429148],[-8.5069516,38.5264652],[-8.5068553,38.5193201],[-8.5202767,38.5124059],[-8.5287202,38.5111552],[-8.5323778,38.5281491],[-8.5725397,38.5316194],[-8.5752184,38.5479212],[-8.5899126,38.5421163],[-8.6156845,38.5530991],[-8.6391139,38.5494912],[-8.6409156,38.5674735],[-8.6482195,38.5773203],[-8.6515718,38.593507],[-8.6580211,38.6017929],[-8.6564997,38.6078542],[-8.6367088,38.6203728],[-8.6321667,38.6280905],[-8.6203301,38.6345276],[-8.6125448,38.6446486],[-8.6015424,38.6459049],[-8.5906562,38.6540505],[-8.5773991,38.6676229],[-8.5790013,38.6715985],[-8.5662137,38.67818],[-8.5583092,38.6777506],[-8.5312145,38.691861],[-8.5199302,38.7090133],[-8.5010184,38.7154949],[-8.5008929,38.7222133],[-8.511379,38.7325663],[-8.5055929,38.7458636],[-8.4917343,38.7546045],[-8.4909721,38.7613107],[-8.5145137,38.7648909],[-8.5245559,38.7617809],[-8.5483153,38.7629117],[-8.5574438,38.7692888],[-8.5779283,38.7718941],[-8.5845008,38.766696],[-8.5965098,38.7716113],[-8.6007999,38.7764917],[-8.6072199,38.7773635],[-8.6125004,38.7859634],[-8.6053544,38.7918298],[-8.6039723,38.8012671],[-8.6067122,38.8082972],[-8.6038462,38.8227536],[-8.6060361,38.826409],[-8.5992576,38.8313941],[-8.5983098,38.8403563],[-8.612166,38.8388869],[-8.6152088,38.8350818],[-8.6293065,38.8306662],[-8.6306623,38.8220527],[-8.638676,38.8132522],[-8.6393102,38.8092891],[-8.6475376,38.8094996],[-8.6577045,38.8129284],[-8.670697,38.8224675],[-8.6853492,38.8262855],[-8.6969247,38.8403907],[-8.7040019,38.839961],[-8.7093536,38.8258853],[-8.7338844,38.7933906],[-8.7438817,38.7774512],[-8.749628,38.7492351],[-8.7536053,38.7428242],[-8.7791323,38.7339234],[-8.7915816,38.7341218],[-8.801854,38.7416305],[-8.8102958,38.740119],[-8.8143582,38.7458263],[-8.8335404,38.7611112],[-8.8389348,38.7617882],[-8.8508499,38.7584946],[-8.8558957,38.7541374],[-8.8924142,38.741349],[-8.9039515,38.7469113],[-8.9082977,38.7419392],[-8.9240567,38.7508953],[-8.9242321,38.7578602],[-8.9307236,38.7672842],[-8.9354916,38.7850618],[-8.9418294,38.8004196],[-8.9536486,38.8154012],[-8.9684661,38.827765]]]}}
]
}
