{
"type": "FeatureCollection",
"name": "16",
"crs": { "type": "name", "properties": { "name": "urn:ogc:def:crs:OGC:1.3:CRS84" } },
"features": [
{"type":"Feature","properties":{"iso3166":"PT-16"},"geometry":{"type":"Polygon","coordinates":[[[-8.1717214,41.8790917],[-8.1828773,41.8750091],[-8.1933976,41.8764404],[-8.2000178,41.8736997],[-8.2012919,41.8881108],[-8.2154339,41.8987933],[-8.2168993,41.9131548],[-8.2102795,41.9235824],[-8.2049985,41.9261346],[-8.1978863,41.9395342],[-8.1890914,41.9475426],[-8.1748625,41.95514],[-8.1763732,41.9586336],[-8.165258,41.9705742],[-8.1630193,41.9826918],[-8.1407603,41.9886782],[-8.1303502,42.003571],[-8.1247195,42.006624],[-8.1150304,42.0048635],[-8.093139,42.0117631],[-8.0860348,42.0164922],[-8.0827652,42.0282451],[-8.0844552,42.0473336],[-8.0966008,42.0722575],[-8.1187008,42.0823066],[-8.1379706,42.0757917],[-8.1496451,42.0793164],[-8.1596254,42.0757713],[-8.1703799,42.0673075],[-8.1820468,42.0650225],[-8.1861498,42.0725851],[-8.1849226,42.0833333],[-8.187918,42.0923856],[-8.1858857,42.0982172],[-8.1920793,42.1156646],[-8.1935079,42.1291325],[-8.1879302,42.1366295],[-8.1953886,42.1482],[-8.2066149,42.1410172],[-8.2178892,42.1386405],[-8.2257186,42.132867],[-8.2401296,42.1390948],[-8.2536354,42.1366843],[-8.2555944,42.1272514],[-8.2630639,42.1208772],[-8.2736563,42.1240722],[-8.3039022,42.1038784],[-8.3223684,42.1017196],[-8.3252606,42.0895183],[-8.3318908,42.0838346],[-8.3427236,42.0847262],[-8.3565987,42.0902668],[-8.3710352,42.0883073],[-8.3816433,42.0763459],[-8.3901469,42.0750846],[-8.3936101,42.0801768],[-8.4048398,42.0804348],[-8.4194661,42.073114],[-8.4289422,42.0722866],[-8.43978,42.0814099],[-8.4511823,42.0826869],[-8.4797392,42.0806764],[-8.4860868,42.0819065],[-8.4994224,42.0782067],[-8.5264202,42.0770492],[-8.5254081,42.0637243],[-8.5478477,42.0538221],[-8.5857486,42.0523817],[-8.5953564,42.0568724],[-8.6038337,42.0540441],[-8.6220306,42.0519664],[-8.636781,42.0474867],[-8.6464394,42.0365143],[-8.6540243,42.0333401],[-8.6591598,42.0260022],[-8.657453,42.0177628],[-8.6613788,42.003299],[-8.677317,41.9920713],[-8.6869108,41.990528],[-8.701578,41.9830288],[-8.7161364,41.9801555],[-8.7351741,41.9714116],[-8.7485084,41.9590963],[-8.748412,41.9413004],[-8.7562819,41.933129],[-8.7856289,41.9169414],[-8.8059373,41.9092408],[-8.8159518,41.9071333],[-8.828261,41.8990485],[-8.852533,41.8752372],[-8.8664566,41.8692585],[-8.8709665,41.8639288],[-8.866363,41.8531595],[-8.8686795,41.84452],[-8.8757326,41.8404022],[-8.874335,41.8198849],[-8.8649816,41.8124247],[-8.8670788,41.8050563],[-8.8745562,41.7959028],[-8.8714543,41.7888096],[-8.8724635,41.7745174],[-8.8769481,41.7679371],[-8.8786331,41.7553652],[-8.877694,41.7417827],[-8.8567877,41.7005504],[-8.8489599,41.6927584],[-8.8464092,41.6819729],[-8.8387289,41.68336],[-8.8306796,41.677576],[-8.825099,41.6655658],[-8.8273627,41.6497311],[-8.8209942,41.6369238],[-8.8221886,41.6285382],[-8.8160457,41.6233522],[-8.8115744,41.6115677],[-8.8085467,41.6062369],[-8.7749171,41.6138217],[-8.7568137,41.614385],[-8.7567242,41.6215289],[-8.7482325,41.6249359],[-8.7419563,41.6191119],[-8.7324482,41.6216876],[-8.7241953,41.6338215],[-8.7049287,41.633075],[-8.696352,41.6407409],[-8.6772917,41.6396443],[-8.6640333,41.642315],[-8.6504554,41.6315612],[-8.6463355,41.6327874],[-8.6477703,41.6451661],[-8.6432819,41.6543798],[-8.6286448,41.650833],[-8.6271451,41.6429825],[-8.6164416,41.6439524],[-8.6041346,41.6343145],[-8.5850971,41.6439043],[-8.5773102,41.6429579],[-8.5650015,41.6253053],[-8.5407472,41.6313088],[-8.5426735,41.6376933],[-8.5371536,41.6535018],[-8.54736,41.663275],[-8.5428613,41.6714326],[-8.5355939,41.6737089],[-8.530228,41.6804232],[-8.5217652,41.6795741],[-8.5137414,41.7212985],[-8.5183442,41.7262517],[-8.4935198,41.7415417],[-8.4872877,41.7398291],[-8.4857157,41.7271756],[-8.4614797,41.732262],[-8.4540761,41.7406672],[-8.4372151,41.7477942],[-8.4306134,41.753609],[-8.4141881,41.7589933],[-8.3988009,41.757789],[-8.3945954,41.761113],[-8.3825644,41.7613628],[-8.3748339,41.770626],[-8.3645384,41.7628549],[-8.349679,41.7597938],[-8.3367048,41.7646451],[-8.3219803,41.764046],[-8.3083226,41.7610716],[-8.2993133,41.7683736],[-8.2974769,41.777888],[-8.2915304,41.7819444],[-8.2709558,41.7714366],[-8.260907,41.7783915],[-8.2454323,41.7829061],[-8.2405839,41.7888686],[-8.2316878,41.7874194],[-8.2140297,41.8022591],[-8.2055813,41.8041556],[-8.1966555,41.8122086],[-8.183494,41.8127814],[-8.1767091,41.808082],[-8.1686548,41.8072296],[-8.1634354,41.8316451],[-8.1617724,41.8609751],[-8.1663848,41.8623601],[-8.1717214,41.8790917]]]}}
]
}
