{
"type": "FeatureCollection",
"name": "17",
"crs": { "type": "name", "properties": { "name": "urn:ogc:def:crs:OGC:1.3:CRS84" } },
"features": [
{"type":"Feature","properties":{"iso3166":"PT-17"},"geometry":{"type":"Polygon","coordinates":[[[-7.198549666923641,41.878765929105619],[-7.2083421,41.8800101],[-7.2330618,41.8672986],[-7.2445043,41.8687935],[-7.2578163,41.8659265],[-7.2838384,41.8522155],[-7.3009872,41.8515755],[-7.3153151,41.8425454],[-7.3412136,41.8442578],[-7.3564436,41.8405299],[-7.3639133,41.8528383],[-7.3754788,41.8467814],[-7.3899642,41.8423054],[-7.3975884,41.8263732],[-7.4088332,41.8167245],[-7.4280601,41.807608],[-7.4250379,41.817473],[-7.4305865,41.8213793],[-7.4284414,41.832766],[-7.4437506,41.8393707],[-7.4488427,41.8528206],[-7.4456165,41.8577837],[-7.4524993,41.8650817],[-7.4742132,41.8637553],[-7.4852722,41.861291],[-7.4912922,41.8712445],[-7.5022254,41.869384],[-7.5133117,41.8621168],[-7.5056421,41.8507795],[-7.5207437,41.8421695],[-7.5508833,41.8337031],[-7.5589974,41.8343958],[-7.5739119,41.82972],[-7.5987799,41.8331251],[-7.6113481,41.8292128],[-7.614322,41.8367749],[-7.6115476,41.8467068],[-7.5928862,41.8698633],[-7.5833021,41.8786666],[-7.592007,41.8806448],[-7.6075947,41.8794817],[-7.6184104,41.8850896],[-7.6254244,41.8799011],[-7.6538714,41.8811985],[-7.6669184,41.8891856],[-7.678141,41.8932379],[-7.6878191,41.9021847],[-7.7041425,41.9073398],[-7.7221245,41.9004458],[-7.7333538,41.892277],[-7.7450174,41.89307],[-7.7532309,41.8982243],[-7.7635052,41.8990044],[-7.7783616,41.8868777],[-7.8024353,41.8819708],[-7.8451878,41.8812791],[-7.8419286,41.8659978],[-7.8499025,41.8615797],[-7.8663175,41.8588767],[-7.8728863,41.8466066],[-7.8816327,41.8561095],[-7.8922425,41.8601889],[-7.8882335,41.8660767],[-7.8844314,41.8890534],[-7.8874052,41.9073098],[-7.8837189,41.9183801],[-7.8879606,41.926785],[-7.9063431,41.9270958],[-7.9097496,41.9224584],[-7.9100881,41.9073451],[-7.9213046,41.8818142],[-7.9488425,41.8710097],[-7.9603944,41.8755539],[-7.9745661,41.8753095],[-7.9886675,41.8675176],[-7.9944257,41.8542014],[-8.0059762,41.8470605],[-8.0126026,41.8335317],[-8.0300998,41.8295674],[-8.0390578,41.829845],[-8.0531948,41.820229],[-8.0451487,41.8104141],[-8.0487175,41.7997004],[-8.0572751,41.7981138],[-8.0636259,41.7737416],[-8.0611603,41.7624863],[-8.0764968,41.7498008],[-8.0819549,41.7329429],[-8.0817277,41.7251275],[-8.0878495,41.7131582],[-8.094276,41.7074058],[-8.1090173,41.7019389],[-8.1185336,41.692266],[-8.1124054,41.6877974],[-8.0737636,41.6954901],[-8.0652735,41.6918018],[-8.0480045,41.6927905],[-8.0389127,41.7005853],[-8.0238163,41.6979615],[-8.017718,41.6890546],[-8.0096211,41.6905732],[-7.9940824,41.6865249],[-7.9815366,41.6780634],[-7.988768,41.6664867],[-7.9947362,41.6636382],[-7.9989387,41.6533452],[-7.9945098,41.6509266],[-8.0012381,41.6408994],[-8.0030188,41.6208849],[-7.9966059,41.6030835],[-7.9869897,41.6007861],[-7.966488,41.6039247],[-7.9527371,41.5931306],[-7.9463604,41.5960959],[-7.9321221,41.595272],[-7.9056072,41.5869702],[-7.8908128,41.5932531],[-7.8793819,41.5882334],[-7.8573373,41.6014174],[-7.8509128,41.6150729],[-7.8395447,41.6109819],[-7.8295209,41.6022235],[-7.8106767,41.5733459],[-7.8137845,41.5653289],[-7.8219536,41.5559057],[-7.8325624,41.556905],[-7.8393069,41.5533189],[-7.835884,41.5473142],[-7.8378054,41.5393324],[-7.852912,41.5271657],[-7.8640027,41.524429],[-7.8613522,41.5117831],[-7.8885845,41.508966],[-7.9025803,41.4893257],[-7.914799,41.4917855],[-7.9273222,41.4876122],[-7.9381895,41.4773562],[-7.9387241,41.4606429],[-7.9438452,41.4525893],[-7.9373619,41.4459012],[-7.9416915,41.4299839],[-7.9666763,41.4120686],[-7.9629786,41.4038556],[-7.972033,41.3927422],[-7.9673222,41.3892976],[-7.974425214816973,41.37438697893846],[-7.969864,41.3723031],[-7.9725771,41.3603227],[-7.9594458,41.3584427],[-7.9481411,41.3536896],[-7.951068,41.3453675],[-7.9583514,41.3433683],[-7.9653424,41.3321647],[-7.9557756,41.3231613],[-7.9398218,41.3221713],[-7.9292651,41.3180272],[-7.9137693,41.3055195],[-7.9213669,41.2903216],[-7.9141346,41.2805249],[-7.9151004,41.274287],[-7.8963944,41.2675391],[-7.8942199,41.2487381],[-7.886974,41.2484677],[-7.8755793,41.2420481],[-7.8940898,41.2092383],[-7.8879704,41.1890863],[-7.898941,41.1728618],[-7.8895686,41.1629102],[-7.9036967,41.1547593],[-7.9011868,41.14727],[-7.9136038,41.1349599],[-7.9118639,41.1198896],[-7.9046482,41.1187616],[-7.8974079,41.1240596],[-7.8977017,41.1311999],[-7.8872615,41.1342236],[-7.8856729,41.1409571],[-7.8764204,41.15619],[-7.8602258,41.1584695],[-7.8244434,41.1502364],[-7.8138573,41.1456748],[-7.8052032,41.1585897],[-7.7928058,41.1608542],[-7.7767111,41.1521309],[-7.7641056,41.1524176],[-7.735502,41.1452756],[-7.7163504,41.1449268],[-7.6962587,41.1418773],[-7.6850852,41.1520962],[-7.6646737,41.1627051],[-7.6412117,41.1589063],[-7.6102861,41.1602297],[-7.5901036,41.1562881],[-7.5746525,41.1606996],[-7.556479,41.1731409],[-7.5494075,41.1871823],[-7.5430782,41.1883308],[-7.5279803,41.1805366],[-7.5223091,41.1800355],[-7.5082002,41.1971903],[-7.4977426,41.2000007],[-7.4823693,41.1984247],[-7.4642125,41.2017996],[-7.4512411,41.2144114],[-7.4318921,41.2108015],[-7.4214706,41.2202709],[-7.4226125,41.2403589],[-7.4150512,41.2477],[-7.3897595,41.2425411],[-7.3888851,41.2485904],[-7.3949723,41.262389],[-7.3870855,41.2739412],[-7.3914079,41.2858228],[-7.3731539,41.2930438],[-7.3621542,41.3043108],[-7.3756864,41.313642],[-7.3568739,41.3310079],[-7.3470285,41.3308094],[-7.3141673,41.3414496],[-7.3480982,41.3516345],[-7.3621778,41.3669678],[-7.3535832,41.3755597],[-7.361374,41.3819655],[-7.366138,41.3967241],[-7.3657513,41.4166114],[-7.3596152,41.4242724],[-7.3653229,41.4404229],[-7.3445617,41.4526575],[-7.3330692,41.4510488],[-7.3302709,41.4592373],[-7.3076583,41.4612844],[-7.2973592,41.4991627],[-7.2839546,41.5156278],[-7.2616439,41.5165805],[-7.2291123,41.5227975],[-7.2392995,41.541129],[-7.2483209,41.5455515],[-7.2499124,41.5546035],[-7.2584015,41.5631997],[-7.2587875,41.5734093],[-7.2532925,41.5807788],[-7.2584461,41.5903229],[-7.2522287,41.6125228],[-7.2453488,41.6171911],[-7.2481532,41.6296509],[-7.2429121,41.6421547],[-7.2292662,41.6577891],[-7.2205564,41.6741495],[-7.2138115,41.6811613],[-7.2088957,41.7117779],[-7.1962218,41.719838],[-7.1884387,41.7352856],[-7.1759274,41.7373093],[-7.1712179,41.7699039],[-7.1956072,41.7888655],[-7.1984126,41.8024546],[-7.2087686,41.8092205],[-7.2084295,41.8260567],[-7.2135978,41.8271649],[-7.2017709,41.8496811],[-7.2016875,41.8579663],[-7.1949379,41.8663416],[-7.2029053,41.8730013],[-7.198549666923641,41.878765929105619]]]}}
]
}
