{
"type": "FeatureCollection",
"name": "18",
"crs": { "type": "name", "properties": { "name": "urn:ogc:def:crs:OGC:1.3:CRS84" } },
"features": [
{"type":"Feature","properties":{"iso3166":"PT-18"},"geometry":{"type":"Polygon","coordinates":[[[-7.4318921,41.2108015],[-7.4512411,41.2144114],[-7.4642125,41.2017996],[-7.4823693,41.1984247],[-7.4977426,41.2000007],[-7.5082002,41.1971903],[-7.5223091,41.1800355],[-7.5430782,41.1883308],[-7.5494075,41.1871823],[-7.556479,41.1731409],[-7.5746525,41.1606996],[-7.5901036,41.1562881],[-7.6102861,41.1602297],[-7.6412117,41.1589063],[-7.6646737,41.1627051],[-7.6850852,41.1520962],[-7.6962587,41.1418773],[-7.7163504,41.1449268],[-7.735502,41.1452756],[-7.7641056,41.1524176],[-7.7767111,41.1521309],[-7.7928058,41.1608542],[-7.8052032,41.1585897],[-7.8138573,41.1456748],[-7.8244434,41.1502364],[-7.8602258,41.1584695],[-7.8764204,41.15619],[-7.8856729,41.1409571],[-7.8872615,41.1342236],[-7.8977017,41.1311999],[-7.8974079,41.1240596],[-7.9046482,41.1187616],[-7.9118639,41.1198896],[-7.9294182,41.1182234],[-7.9516499,41.1227008],[-7.9628241,41.1135454],[-7.9695318,41.1157703],[-8.0001321,41.1053629],[-8.0133655,41.1044879],[-8.0253991,41.0969956],[-8.0491324,41.0905379],[-8.0682278,41.0928131],[-8.0827286,41.0917439],[-8.0984314,41.1005603],[-8.1129812,41.0949524],[-8.1179226,41.0887101],[-8.1331506,41.0843886],[-8.146888,41.0841591],[-8.1608917,41.0894368],[-8.1728535,41.0881632],[-8.1853992,41.0925884],[-8.2086411,41.0930382],[-8.2188181,41.0815738],[-8.2328002,41.0790221],[-8.2467102,41.0692215],[-8.2584782,41.0703216],[-8.2686166,41.0641836],[-8.2603086,41.0651078],[-8.2521171,41.0588466],[-8.2404357,41.0599961],[-8.2374139,41.0479113],[-8.2314904,41.0472446],[-8.2299547,41.0359015],[-8.2357372,41.0282417],[-8.2379488,41.0181602],[-8.2289198,41.0138747],[-8.2080313,41.0135258],[-8.2118034,41.0031412],[-8.206952,40.9942792],[-8.1941491,40.998168],[-8.1780781,40.9882026],[-8.1635909,40.9862825],[-8.1575453,40.9886344],[-8.1429181,40.9785566],[-8.134108,40.9784748],[-8.1207561,40.9882046],[-8.1184505,40.9970798],[-8.1054365,41.0034613],[-8.0990678,41.0134445],[-8.0910835,41.0089704],[-8.0920727,40.9977464],[-8.0891722,40.9875553],[-8.1002321,40.980023],[-8.1004627,40.9751762],[-8.115275,40.9655758],[-8.1221748,40.9547152],[-8.1315188,40.9506088],[-8.1320361,40.9420039],[-8.1271665,40.9284328],[-8.120416,40.9179367],[-8.1279604,40.8981502],[-8.1155931,40.8903268],[-8.1101356,40.8736078],[-8.1030436,40.8668711],[-8.1064214,40.8551654],[-8.1248784,40.8494519],[-8.1353815,40.8497736],[-8.1492376,40.8551614],[-8.1659376,40.8658782],[-8.1905129,40.846123],[-8.2053321,40.8480813],[-8.231518,40.8646946],[-8.2550878,40.8558422],[-8.2494846,40.8495123],[-8.2367635,40.8274916],[-8.2434212,40.8072613],[-8.2571308,40.7983777],[-8.254994,40.7913732],[-8.2631554,40.7832673],[-8.2691356,40.7672795],[-8.2877972,40.7517015],[-8.3092266,40.7424642],[-8.3197303,40.7429051],[-8.3335879,40.7370011],[-8.3235515,40.7194637],[-8.3263315,40.7111931],[-8.3138402,40.7038484],[-8.3067232,40.69253],[-8.2976446,40.6943401],[-8.2981422,40.6757506],[-8.2888316,40.6690241],[-8.2947983,40.6456807],[-8.2932478,40.6337818],[-8.2798719,40.6331007],[-8.2600261,40.6252132],[-8.2453833,40.6164054],[-8.2497697,40.6117729],[-8.2649365,40.6098983],[-8.2747787,40.6049284],[-8.2903205,40.6057399],[-8.3032773,40.6016189],[-8.3084199,40.5964078],[-8.2995462,40.5778199],[-8.2891896,40.5687855],[-8.2852822,40.5396509],[-8.2729906,40.5369333],[-8.2500933,40.5112178],[-8.263834,40.5034798],[-8.2828491,40.5091726],[-8.2994262,40.4991055],[-8.3258437,40.491743],[-8.3356022,40.4810551],[-8.3190388,40.4574473],[-8.3175767,40.4411968],[-8.3263974,40.4400488],[-8.344831,40.4230378],[-8.3380511,40.4188132],[-8.3457825,40.4105263],[-8.3548722,40.4088572],[-8.3591746,40.3689739],[-8.3423164,40.3694728],[-8.3343539,40.3589509],[-8.3119491,40.3617982],[-8.2931476,40.3542966],[-8.2764865,40.3356911],[-8.2632715,40.3337338],[-8.2524758,40.323624],[-8.2086353,40.3414055],[-8.1986866,40.3389492],[-8.1891211,40.3420361],[-8.1861831,40.334274],[-8.178485,40.3357338],[-8.1721061,40.3441194],[-8.1519846,40.3375006],[-8.1403498,40.3383384],[-8.1293417,40.3430466],[-8.1218293,40.3387528],[-8.1130119,40.3414187],[-8.100043,40.353148],[-8.0879765,40.3611283],[-8.0747329,40.3633623],[-8.0658654,40.3742449],[-8.0570411,40.3719621],[-8.0395468,40.3865749],[-8.0254902,40.3871105],[-8.003743,40.3915747],[-7.9742563,40.4049827],[-7.954591,40.4238721],[-7.947142,40.4226918],[-7.9306259,40.4291272],[-7.9175002,40.4466075],[-7.9051403,40.4526565],[-7.8838654,40.4732632],[-7.8468292,40.4955541],[-7.8393863,40.4935125],[-7.8289356,40.4943492],[-7.822763,40.4995879],[-7.8228052,40.5078643],[-7.7836221,40.5073748],[-7.7718842,40.5181528],[-7.765872,40.5180681],[-7.7586449,40.5268942],[-7.7451009,40.5259243],[-7.7251558,40.5329552],[-7.7131866,40.5435027],[-7.6990961,40.5479608],[-7.6901206,40.545958],[-7.6826953,40.5520318],[-7.6674368,40.553559],[-7.6654808,40.5596878],[-7.6547174,40.5593363],[-7.6403027,40.5637745],[-7.6353392,40.5680368],[-7.6059268,40.5652733],[-7.5865662,40.5724029],[-7.5890806,40.585522],[-7.5825448,40.5953441],[-7.5731718,40.6192389],[-7.5617512,40.6358742],[-7.5658208,40.6453299],[-7.5420774,40.6593684],[-7.5528442,40.6677358],[-7.5513681,40.6770985],[-7.5351418,40.6903023],[-7.5426159,40.6958622],[-7.5626806,40.6943822],[-7.5862135,40.7094828],[-7.5927272,40.7157354],[-7.5968162,40.7286702],[-7.579708,40.7386138],[-7.5707047,40.7475226],[-7.584082,40.7655032],[-7.5974207,40.7715374],[-7.6072521,40.7728985],[-7.6254064,40.7840084],[-7.620968,40.7954631],[-7.6074326,40.8057752],[-7.5978342,40.8253761],[-7.5914147,40.8296924],[-7.5879356,40.8499422],[-7.5768421,40.8627785],[-7.558532,40.8731591],[-7.5292983,40.8730458],[-7.514061,40.869337],[-7.5108207,40.8593687],[-7.5002004,40.8571267],[-7.4824542,40.8394955],[-7.47912,40.83196],[-7.4637829,40.8260263],[-7.4644371,40.8215211],[-7.4513874,40.8135047],[-7.4359478,40.8243462],[-7.4258819,40.8420386],[-7.413876,40.8563777],[-7.4015422,40.8794044],[-7.3893105,40.8787797],[-7.3815947,40.8711545],[-7.3774005,40.8746473],[-7.3843631,40.8805179],[-7.3762952,40.8870073],[-7.3742092,40.8942791],[-7.3741688,40.912509],[-7.3568467,40.9287569],[-7.3361962,40.9340576],[-7.3310369,40.9584787],[-7.3252722,40.9719607],[-7.3401701,40.9809462],[-7.3488483,40.9810721],[-7.3707666,40.9919489],[-7.3790748,41.0043341],[-7.3790472,41.01336],[-7.3628491,41.0142406],[-7.348028,41.0110975],[-7.3375273,41.0142698],[-7.3349049,41.0223234],[-7.3382767,41.0340998],[-7.3439879,41.0374055],[-7.342781,41.0575095],[-7.3360638,41.0735997],[-7.3300286,41.0782598],[-7.3314047,41.0877841],[-7.3229329,41.1190909],[-7.3182256,41.1210251],[-7.3062043,41.140744],[-7.311226,41.146929],[-7.3408601,41.1438785],[-7.357507,41.1479576],[-7.3612188,41.1565935],[-7.3749921,41.1592026],[-7.3726165,41.1686252],[-7.382477,41.1779723],[-7.3885908,41.1928805],[-7.4086381,41.2013285],[-7.4318921,41.2108015]],[[-7.430244,40.895334],[-7.430112,40.9034434],[-7.4178845,40.9218054],[-7.4095205,40.9218209],[-7.3933939,40.9096745],[-7.3816039,40.9074752],[-7.3788522,40.9011601],[-7.3881111,40.8851127],[-7.404837,40.8800441],[-7.4254716,40.886673],[-7.430244,40.895334]]]}}
]
}
