{
"type": "FeatureCollection",
"name": "20",
"crs": { "type": "name", "properties": { "name": "urn:ogc:def:crs:OGC:1.3:CRS84" } },
"features": [
{"type":"Feature","properties":{"iso3166":"PT-20"},"geometry":{"type":"MultiPolygon","coordinates":[[[[-28.631505018136981,38.233086947243493],[-28.926979694145807,38.366321301339831],[-29.100062146525278,38.595445099541145],[-29.019853205178695,38.734984448701425],[-28.295158384240235,38.960745168523232],[-28.335966442118323,39.107214382663756],[-28.19665617556899,39.269722749002732],[-27.953215002710049,39.299130347868868],[-27.719624050718235,39.155242525538505],[-27.728067097175771,38.885206091868525],[-27.87722758459223,38.812876086994351],[-27.639415109371647,38.716321718624563],[-27.630972062914115,38.852337933931516],[-27.524026807785337,38.948708096129501],[-27.284807158155164,39.009966444674873],[-26.955528346311283,38.943236023739381],[-26.775410021883857,38.785459156337559],[-26.826068300629071,38.539333114151077],[-27.106096008137328,38.407132145329669],[-27.502723025482354,38.512753444395145],[-27.615296978249489,38.372781661802946],[-28.067228079891695,38.195495847758913],[-28.416207333469821,38.183329864437994],[-28.631505018136981,38.233086947243493]]],[[[-26.064109725180476,37.732372964684288],[-25.325991092503713,36.771876538001777],[-24.892581374350222,36.751584571953032],[-24.507015586122773,37.228144597415522],[-24.751138359086358,37.653073161339435],[-25.059309554786402,38.037547983657142],[-25.498347970578248,38.085189400746451],[-25.866267965773996,38.102488231555931],[-26.087734864291463,37.879147742161102],[-26.064109725180476,37.732372964684288]]],[[[-30.93197725882418,39.251498480017709],[-30.859155983127938,39.401713331767105],[-30.856528095224476,39.73175291604344],[-30.962066175943669,39.889030372537491],[-31.162588529310142,39.921413958373037],[-31.31456336554578,39.850149867032144],[-31.551591176129751,39.49754525727068],[-31.531538940793105,39.326313782354497],[-31.39415331849089,39.184815022618295],[-31.140068327868793,39.157083328950705],[-30.93197725882418,39.251498480017709]]]]}}
]
}
