{
  "type": "FeatureCollection",
  "name": "30",
  "crs": {
    "type": "name",
    "properties": {
      "name": "urn:ogc:def:crs:OGC:1.3:CRS84"
    }
  },
  "features": [
    {
      "type": "Feature",
      "properties": {
        "iso3166": "PT-30"
      },
      "geometry": {
        "type": "MultiPolygon",
        "coordinates": [
          [
            [
              [
                -17.5034205,
                32.8332586
              ],
              [
                -17.4893015,
                32.7418376
              ],
              [
                -17.4232995,
                32.6377986
              ],
              [
                -17.2078675,
                32.4917066
              ],
              [
                -16.5742705,
                32.2215036
              ],
              [
                -16.4300915,
                32.2018766
              ],
              [
                -16.3168865,
                32.2439966
              ],
              [
                -16.2382315,
                32.3410526
              ],
              [
                -16.2401015,
                32.4691696
              ],
              [
                -16.3293915,
                32.6825886
              ],
              [
                -16.4152245,
                32.7935546
              ],
              [
                -16.2996655,
                32.8035366
              ],
              [
                -16.1474065,
                32.8796496
              ],
              [
                -16.0397375,
                33.0147666
              ],
              [
                -16.0402995,
                33.1350376
              ],
              [
                -16.0743845,
                33.2288746
              ],
              [
                -16.1785045,
                33.3079676
              ],
              [
                -16.3174905,
                33.3249896
              ],
              [
                -16.5049785,
                33.2668346
              ],
              [
                -16.5803155,
                33.1949096
              ],
              [
                -16.6429825,
                33.0736306
              ],
              [
                -16.6257605,
                32.9489316
              ],
              [
                -16.8567085,
                33.0334066
              ],
              [
                -17.1365395,
                33.0761766
              ],
              [
                -17.2481545,
                33.0708746
              ],
              [
                -17.3387275,
                33.0284116
              ],
              [
                -17.4593955,
                32.9315666
              ],
              [
                -17.5034205,
                32.8332586
              ]
            ]
          ],
          [
            [
              [
                -16.0506725,
                29.828247
              ],
              [
                -15.8740441,
                29.8737811
              ],
              [
                -15.8094618,
                29.9415216
              ],
              [
                -15.729547,
                29.9698903
              ],
              [
                -15.6567937,
                30.0355015
              ],
              [
                -15.6261577,
                30.1068553
              ],
              [
                -15.6374494,
                30.2136808
              ],
              [
                -15.6726051,
                30.2717157
              ],
              [
                -15.8227286,
                30.3559827
              ],
              [
                -15.9638149,
                30.3464115
              ],
              [
                -16.0864221,
                30.2566618
              ],
              [
                -16.1924425,
                30.2133754
              ],
              [
                -16.2756907,
                30.0932898
              ],
              [
                -16.2840402,
                30.0213469
              ],
              [
                -16.2206042,
                29.8925486
              ],
              [
                -16.0506725,
                29.828247
              ]
            ]
          ]
        ]
      }
    }
  ]
}