{
  "type": "Feature",
  "properties": {
    "name": "Мадейра",
    "country": "Португалия",
    "iso3166": "PT-30"
  },
  "geometry": {
    "type": "MultiPolygon",
    "coordinates": [
      [
        [
          [
            -17.5034205,
            32.8332586
          ],
          [
            -17.5013485,
            32.8464286
          ],
          [
            -17.4982615,
            32.8594546
          ],
          [
            -17.4941685,
            32.8722836
          ],
          [
            -17.4890905,
            32.8848586
          ],
          [
            -17.4830455,
            32.8971266
          ],
          [
            -17.4760615,
            32.9090346
          ],
          [
            -17.4681665,
            32.9205306
          ],
          [
            -17.4593955,
            32.9315666
          ],
          [
            -17.4497835,
            32.9420946
          ],
          [
            -17.4393745,
            32.9520686
          ],
          [
            -17.4282105,
            32.9614466
          ],
          [
            -17.4237885,
            32.9648396
          ],
          [
            -17.3387275,
            33.0284116
          ],
          [
            -17.3312685,
            33.0337546
          ],
          [
            -17.3187255,
            33.0418126
          ],
          [
            -17.3055815,
            33.0491616
          ],
          [
            -17.2918915,
            33.0557686
          ],
          [
            -17.2777165,
            33.0616056
          ],
          [
            -17.2631165,
            33.0666486
          ],
          [
            -17.2481545,
            33.0708746
          ],
          [
            -17.2328955,
            33.0742646
          ],
          [
            -17.2174035,
            33.0768066
          ],
          [
            -17.2017475,
            33.0784866
          ],
          [
            -17.1859935,
            33.0792996
          ],
          [
            -17.1702095,
            33.0792406
          ],
          [
            -17.1544655,
            33.0783106
          ],
          [
            -17.1388265,
            33.0765136
          ],
          [
            -17.1365395,
            33.0761766
          ],
          [
            -16.9917513,
            33.0540494
          ],
          [
            -16.8567085,
            33.0334066
          ],
          [
            -16.8435465,
            33.0310556
          ],
          [
            -16.8283425,
            33.0275146
          ],
          [
            -16.8134465,
            33.0231416
          ],
          [
            -16.7989245,
            33.0179546
          ],
          [
            -16.7974175,
            33.0173616
          ],
          [
            -16.6257605,
            32.9489316
          ],
          [
            -16.6314985,
            32.9609536
          ],
          [
            -16.6364155,
            32.9735786
          ],
          [
            -16.6403435,
            32.9864476
          ],
          [
            -16.6432655,
            32.9995056
          ],
          [
            -16.6451695,
            33.0126966
          ],
          [
            -16.6459775,
            33.0239456
          ],
          [
            -16.6465415,
            33.0339346
          ],
          [
            -16.6463845,
            33.0472226
          ],
          [
            -16.6451975,
            33.0604736
          ],
          [
            -16.6429825,
            33.0736306
          ],
          [
            -16.6397485,
            33.0866386
          ],
          [
            -16.6392535,
            33.0883186
          ],
          [
            -16.6392485,
            33.0883346
          ],
          [
            -16.6355065,
            33.0994556
          ],
          [
            -16.6302805,
            33.1119956
          ],
          [
            -16.6240905,
            33.1242216
          ],
          [
            -16.6190295,
            33.1328346
          ],
          [
            -16.5803155,
            33.1949096
          ],
          [
            -16.5782445,
            33.1981546
          ],
          [
            -16.5701945,
            33.2095936
          ],
          [
            -16.5612705,
            33.2205646
          ],
          [
            -16.5515095,
            33.2310206
          ],
          [
            -16.5409525,
            33.2409176
          ],
          [
            -16.5296455,
            33.2502116
          ],
          [
            -16.5176375,
            33.2588626
          ],
          [
            -16.5049785,
            33.2668346
          ],
          [
            -16.4917235,
            33.2740926
          ],
          [
            -16.4779305,
            33.2806056
          ],
          [
            -16.4636565,
            33.2863446
          ],
          [
            -16.4489655,
            33.2912856
          ],
          [
            -16.4429495,
            33.2930436
          ],
          [
            -16.3574385,
            33.3169386
          ],
          [
            -16.3484025,
            33.3192956
          ],
          [
            -16.3330585,
            33.3225686
          ],
          [
            -16.3174905,
            33.3249896
          ],
          [
            -16.3017665,
            33.3265486
          ],
          [
            -16.2859545,
            33.3272396
          ],
          [
            -16.2701225,
            33.3270576
          ],
          [
            -16.2543395,
            33.3260056
          ],
          [
            -16.2386725,
            33.3240866
          ],
          [
            -16.2231885,
            33.3213096
          ],
          [
            -16.2079565,
            33.3176866
          ],
          [
            -16.1930405,
            33.3132326
          ],
          [
            -16.1785045,
            33.3079676
          ],
          [
            -16.1644125,
            33.3019136
          ],
          [
            -16.1508245,
            33.2950966
          ],
          [
            -16.1377985,
            33.2875466
          ],
          [
            -16.1253905,
            33.2792966
          ],
          [
            -16.1136545,
            33.2703806
          ],
          [
            -16.1026405,
            33.2608386
          ],
          [
            -16.0923955,
            33.2507106
          ],
          [
            -16.0829635,
            33.2400406
          ],
          [
            -16.0743845,
            33.2288746
          ],
          [
            -16.0666945,
            33.2172596
          ],
          [
            -16.0599275,
            33.2052476
          ],
          [
            -16.0541105,
            33.1928886
          ],
          [
            -16.0492695,
            33.1802356
          ],
          [
            -16.0454245,
            33.1673446
          ],
          [
            -16.0425915,
            33.1542686
          ],
          [
            -16.0407815,
            33.1410656
          ],
          [
            -16.0402995,
            33.1350376
          ],
          [
            -16.0358425,
            33.0633586
          ],
          [
            -16.0355465,
            33.0561116
          ],
          [
            -16.0358015,
            33.0428236
          ],
          [
            -16.0370885,
            33.0295786
          ],
          [
            -16.0389655,
            33.0185086
          ],
          [
            -16.0393035,
            33.0168426
          ],
          [
            -16.0397375,
            33.0147666
          ],
          [
            -16.0430635,
            33.0017756
          ],
          [
            -16.0473895,
            32.9889956
          ],
          [
            -16.0526975,
            32.9764826
          ],
          [
            -16.0589625,
            32.9642876
          ],
          [
            -16.0661575,
            32.9524636
          ],
          [
            -16.0742535,
            32.9410626
          ],
          [
            -16.0832135,
            32.9301306
          ],
          [
            -16.0929995,
            32.9197166
          ],
          [
            -16.1035705,
            32.9098626
          ],
          [
            -16.1148795,
            32.9006126
          ],
          [
            -16.1268795,
            32.8920056
          ],
          [
            -16.1395185,
            32.8840776
          ],
          [
            -16.1474065,
            32.8796496
          ],
          [
            -16.2517815,
            32.8234426
          ],
          [
            -16.2571095,
            32.8206506
          ],
          [
            -16.2708445,
            32.8141666
          ],
          [
            -16.2850505,
            32.8084546
          ],
          [
            -16.2996655,
            32.8035366
          ],
          [
            -16.3146295,
            32.7994356
          ],
          [
            -16.3298775,
            32.7961676
          ],
          [
            -16.3453455,
            32.7937466
          ],
          [
            -16.3609665,
            32.7921826
          ],
          [
            -16.3766745,
            32.7914836
          ],
          [
            -16.3924035,
            32.7916516
          ],
          [
            -16.4080855,
            32.7926856
          ],
          [
            -16.4152245,
            32.7935546
          ],
          [
            -16.3544335,
            32.7153366
          ],
          [
            -16.3456245,
            32.7053226
          ],
          [
            -16.3370665,
            32.6941806
          ],
          [
            -16.3293915,
            32.6825886
          ],
          [
            -16.3226315,
            32.6705956
          ],
          [
            -16.3168145,
            32.6582556
          ],
          [
            -16.3119665,
            32.6456196
          ],
          [
            -16.3108285,
            32.6418226
          ],
          [
            -16.272769,
            32.5489562
          ],
          [
            -16.2401015,
            32.4691696
          ],
          [
            -16.2362565,
            32.4588826
          ],
          [
            -16.2324175,
            32.4460046
          ],
          [
            -16.2295815,
            32.4329406
          ],
          [
            -16.2277595,
            32.4197486
          ],
          [
            -16.2269595,
            32.4064836
          ],
          [
            -16.2271835,
            32.3932026
          ],
          [
            -16.2284315,
            32.3799626
          ],
          [
            -16.2306955,
            32.3668206
          ],
          [
            -16.2339675,
            32.3538316
          ],
          [
            -16.2382315,
            32.3410526
          ],
          [
            -16.2434705,
            32.3285386
          ],
          [
            -16.2496595,
            32.3163406
          ],
          [
            -16.2567735,
            32.3045136
          ],
          [
            -16.2647805,
            32.2931056
          ],
          [
            -16.2736465,
            32.2821666
          ],
          [
            -16.2833335,
            32.2717436
          ],
          [
            -16.2937995,
            32.2618796
          ],
          [
            -16.3049995,
            32.2526176
          ],
          [
            -16.3168865,
            32.2439966
          ],
          [
            -16.3294085,
            32.2360546
          ],
          [
            -16.3425135,
            32.2288226
          ],
          [
            -16.3561435,
            32.2223346
          ],
          [
            -16.3702425,
            32.2166156
          ],
          [
            -16.3847485,
            32.2116916
          ],
          [
            -16.3996015,
            32.2075826
          ],
          [
            -16.4147375,
            32.2043066
          ],
          [
            -16.4300915,
            32.2018766
          ],
          [
            -16.4455995,
            32.2003046
          ],
          [
            -16.4611945,
            32.1995956
          ],
          [
            -16.4768105,
            32.1997536
          ],
          [
            -16.4923815,
            32.2007776
          ],
          [
            -16.5078405,
            32.2026626
          ],
          [
            -16.5231225,
            32.2054016
          ],
          [
            -16.5381625,
            32.2089826
          ],
          [
            -16.5528965,
            32.2133906
          ],
          [
            -16.5672605,
            32.2186056
          ],
          [
            -16.5742705,
            32.2215036
          ],
          [
            -16.7606762,
            32.3010818
          ],
          [
            -16.8811272,
            32.3524661
          ],
          [
            -16.9817195,
            32.3953565
          ],
          [
            -17.0603009,
            32.4288477
          ],
          [
            -17.1315521,
            32.459204
          ],
          [
            -17.2078675,
            32.4917066
          ],
          [
            -17.2148395,
            32.4947726
          ],
          [
            -17.2148425,
            32.4947746
          ],
          [
            -17.2283795,
            32.5014606
          ],
          [
            -17.2283825,
            32.5014616
          ],
          [
            -17.2388365,
            32.5073476
          ],
          [
            -17.3291195,
            32.5610466
          ],
          [
            -17.3316655,
            32.5625806
          ],
          [
            -17.3440815,
            32.5706966
          ],
          [
            -17.3558475,
            32.5794816
          ],
          [
            -17.3608815,
            32.5836136
          ],
          [
            -17.4069385,
            32.6225136
          ],
          [
            -17.4129735,
            32.6277946
          ],
          [
            -17.4232995,
            32.6377986
          ],
          [
            -17.4328325,
            32.6483526
          ],
          [
            -17.4415325,
            32.6594096
          ],
          [
            -17.4493605,
            32.6709246
          ],
          [
            -17.4531245,
            32.6771626
          ],
          [
            -17.4801435,
            32.7238746
          ],
          [
            -17.4833055,
            32.7295586
          ],
          [
            -17.4893015,
            32.7418376
          ],
          [
            -17.4943355,
            32.7544216
          ],
          [
            -17.4983865,
            32.7672576
          ],
          [
            -17.5014365,
            32.7802896
          ],
          [
            -17.5034725,
            32.7934616
          ],
          [
            -17.5044835,
            32.8067186
          ],
          [
            -17.5044665,
            32.8200036
          ],
          [
            -17.5034205,
            32.8332586
          ]
        ]
      ],
      [
        [
          [
            -16.0506725,
            29.828247
          ],
          [
            -16.0542652,
            29.8282588
          ],
          [
            -16.0578574,
            29.8283194
          ],
          [
            -16.061448,
            29.8284289
          ],
          [
            -16.0650362,
            29.8285871
          ],
          [
            -16.0686211,
            29.8287941
          ],
          [
            -16.0722019,
            29.8290498
          ],
          [
            -16.0757777,
            29.8293541
          ],
          [
            -16.0793477,
            29.8297071
          ],
          [
            -16.0829109,
            29.8301084
          ],
          [
            -16.0864665,
            29.8305582
          ],
          [
            -16.0900137,
            29.8310563
          ],
          [
            -16.0935515,
            29.8316025
          ],
          [
            -16.0970792,
            29.8321967
          ],
          [
            -16.1005958,
            29.8328388
          ],
          [
            -16.1041005,
            29.8335286
          ],
          [
            -16.1075925,
            29.834266
          ],
          [
            -16.111071,
            29.8350507
          ],
          [
            -16.1145349,
            29.8358827
          ],
          [
            -16.1179836,
            29.8367616
          ],
          [
            -16.1214162,
            29.8376872
          ],
          [
            -16.1248319,
            29.8386595
          ],
          [
            -16.1282298,
            29.839678
          ],
          [
            -16.1316091,
            29.8407426
          ],
          [
            -16.134969,
            29.841853
          ],
          [
            -16.1383086,
            29.8430089
          ],
          [
            -16.1416272,
            29.8442101
          ],
          [
            -16.144924,
            29.8454562
          ],
          [
            -16.1481981,
            29.846747
          ],
          [
            -16.1514487,
            29.8480822
          ],
          [
            -16.1546752,
            29.8494613
          ],
          [
            -16.1578766,
            29.8508842
          ],
          [
            -16.1610522,
            29.8523503
          ],
          [
            -16.1642012,
            29.8538595
          ],
          [
            -16.167323,
            29.8554113
          ],
          [
            -16.1704166,
            29.8570053
          ],
          [
            -16.1734814,
            29.8586412
          ],
          [
            -16.1765165,
            29.8603185
          ],
          [
            -16.1795214,
            29.8620369
          ],
          [
            -16.1824952,
            29.8637959
          ],
          [
            -16.1854372,
            29.8655952
          ],
          [
            -16.1883467,
            29.8674341
          ],
          [
            -16.1912231,
            29.8693125
          ],
          [
            -16.1940655,
            29.8712296
          ],
          [
            -16.1968733,
            29.8731852
          ],
          [
            -16.1996458,
            29.8751787
          ],
          [
            -16.2023824,
            29.8772096
          ],
          [
            -16.2050823,
            29.8792775
          ],
          [
            -16.207745,
            29.8813818
          ],
          [
            -16.2103697,
            29.8835221
          ],
          [
            -16.2129558,
            29.8856978
          ],
          [
            -16.2129925,
            29.8857291
          ],
          [
            -16.2155708,
            29.8879673
          ],
          [
            -16.2181082,
            29.8902406
          ],
          [
            -16.2206042,
            29.8925486
          ],
          [
            -16.2230581,
            29.8948907
          ],
          [
            -16.2254693,
            29.8972662
          ],
          [
            -16.2278372,
            29.8996746
          ],
          [
            -16.2301612,
            29.9021152
          ],
          [
            -16.2324407,
            29.9045876
          ],
          [
            -16.2346752,
            29.907091
          ],
          [
            -16.2368641,
            29.9096248
          ],
          [
            -16.2390068,
            29.9121884
          ],
          [
            -16.2411028,
            29.9147812
          ],
          [
            -16.2431516,
            29.9174025
          ],
          [
            -16.2451527,
            29.9200517
          ],
          [
            -16.2471055,
            29.9227281
          ],
          [
            -16.2490097,
            29.925431
          ],
          [
            -16.2508646,
            29.9281598
          ],
          [
            -16.2526698,
            29.9309137
          ],
          [
            -16.2544249,
            29.9336921
          ],
          [
            -16.2561294,
            29.9364944
          ],
          [
            -16.257783,
            29.9393197
          ],
          [
            -16.2586867,
            29.9409261
          ],
          [
            -16.2595602,
            29.9423989
          ],
          [
            -16.261178,
            29.9452356
          ],
          [
            -16.2627442,
            29.9480942
          ],
          [
            -16.2642585,
            29.950974
          ],
          [
            -16.2657205,
            29.9538742
          ],
          [
            -16.2671297,
            29.9567941
          ],
          [
            -16.2684859,
            29.9597331
          ],
          [
            -16.2697887,
            29.9626903
          ],
          [
            -16.2710378,
            29.965665
          ],
          [
            -16.2722329,
            29.9686566
          ],
          [
            -16.2733736,
            29.9716642
          ],
          [
            -16.2744596,
            29.9746871
          ],
          [
            -16.2754908,
            29.9777245
          ],
          [
            -16.2764668,
            29.9807757
          ],
          [
            -16.2773873,
            29.98384
          ],
          [
            -16.2782523,
            29.9869165
          ],
          [
            -16.2790613,
            29.9900045
          ],
          [
            -16.2798143,
            29.9931033
          ],
          [
            -16.280511,
            29.996212
          ],
          [
            -16.2811512,
            29.9993299
          ],
          [
            -16.2817348,
            30.0024562
          ],
          [
            -16.2822617,
            30.0055902
          ],
          [
            -16.2827316,
            30.0087309
          ],
          [
            -16.2831445,
            30.0118778
          ],
          [
            -16.2835003,
            30.0150299
          ],
          [
            -16.2837989,
            30.0181866
          ],
          [
            -16.2840402,
            30.0213469
          ],
          [
            -16.284224,
            30.0245101
          ],
          [
            -16.2843505,
            30.0276755
          ],
          [
            -16.2844195,
            30.0308422
          ],
          [
            -16.284431,
            30.0340095
          ],
          [
            -16.284385,
            30.0371766
          ],
          [
            -16.2842815,
            30.0403426
          ],
          [
            -16.2841206,
            30.0435068
          ],
          [
            -16.2839022,
            30.0466683
          ],
          [
            -16.2836265,
            30.0498265
          ],
          [
            -16.2836202,
            30.0498913
          ],
          [
            -16.2832876,
            30.0530418
          ],
          [
            -16.2828978,
            30.0561873
          ],
          [
            -16.282451,
            30.059327
          ],
          [
            -16.2819473,
            30.0624603
          ],
          [
            -16.2817436,
            30.0635963
          ],
          [
            -16.2817271,
            30.0636963
          ],
          [
            -16.2816514,
            30.0641103
          ],
          [
            -16.2813867,
            30.0655862
          ],
          [
            -16.2813167,
            30.0659402
          ],
          [
            -16.2811563,
            30.066817
          ],
          [
            -16.2805289,
            30.0699296
          ],
          [
            -16.2798452,
            30.0730331
          ],
          [
            -16.2797772,
            30.0733176
          ],
          [
            -16.2795685,
            30.07476
          ],
          [
            -16.2790616,
            30.077869
          ],
          [
            -16.2784987,
            30.0809708
          ],
          [
            -16.27788,
            30.0840645
          ],
          [
            -16.2772057,
            30.0871495
          ],
          [
            -16.2764758,
            30.0902248
          ],
          [
            -16.2756907,
            30.0932898
          ],
          [
            -16.2748503,
            30.0963438
          ],
          [
            -16.2739551,
            30.0993859
          ],
          [
            -16.2730051,
            30.1024155
          ],
          [
            -16.2720006,
            30.1054317
          ],
          [
            -16.2709418,
            30.1084339
          ],
          [
            -16.269829,
            30.1114213
          ],
          [
            -16.2686625,
            30.1143932
          ],
          [
            -16.2674426,
            30.1173488
          ],
          [
            -16.2661695,
            30.1202875
          ],
          [
            -16.2648435,
            30.1232084
          ],
          [
            -16.2648046,
            30.1232923
          ],
          [
            -16.2639548,
            30.1250816
          ],
          [
            -16.2637274,
            30.1256412
          ],
          [
            -16.2624683,
            30.1285914
          ],
          [
            -16.2611562,
            30.131524
          ],
          [
            -16.2597911,
            30.1344384
          ],
          [
            -16.2583735,
            30.1373337
          ],
          [
            -16.2569038,
            30.1402094
          ],
          [
            -16.2553822,
            30.1430646
          ],
          [
            -16.2538092,
            30.1458988
          ],
          [
            -16.2521851,
            30.1487111
          ],
          [
            -16.2505104,
            30.1515008
          ],
          [
            -16.2487854,
            30.1542674
          ],
          [
            -16.2470106,
            30.1570101
          ],
          [
            -16.2451863,
            30.1597283
          ],
          [
            -16.2433131,
            30.1624212
          ],
          [
            -16.2413914,
            30.1650882
          ],
          [
            -16.2394217,
            30.1677286
          ],
          [
            -16.2374044,
            30.1703418
          ],
          [
            -16.2353401,
            30.1729272
          ],
          [
            -16.2332292,
            30.1754841
          ],
          [
            -16.2310723,
            30.1780118
          ],
          [
            -16.2288699,
            30.1805098
          ],
          [
            -16.2266225,
            30.1829774
          ],
          [
            -16.2243308,
            30.1854141
          ],
          [
            -16.2234118,
            30.1863604
          ],
          [
            -16.2232369,
            30.1865477
          ],
          [
            -16.2209005,
            30.1889719
          ],
          [
            -16.2185202,
            30.1913637
          ],
          [
            -16.2160967,
            30.1937225
          ],
          [
            -16.2136305,
            30.1960478
          ],
          [
            -16.2111224,
            30.198339
          ],
          [
            -16.2085728,
            30.2005955
          ],
          [
            -16.2059825,
            30.2028168
          ],
          [
            -16.2033521,
            30.2050023
          ],
          [
            -16.2006822,
            30.2071514
          ],
          [
            -16.1979735,
            30.2092637
          ],
          [
            -16.1952267,
            30.2113385
          ],
          [
            -16.1924425,
            30.2133754
          ],
          [
            -16.1896215,
            30.2153738
          ],
          [
            -16.1867645,
            30.2173334
          ],
          [
            -16.1866656,
            30.2174001
          ],
          [
            -16.1837725,
            30.2193207
          ],
          [
            -16.1808447,
            30.2212013
          ],
          [
            -16.1778831,
            30.2230416
          ],
          [
            -16.1748883,
            30.224841
          ],
          [
            -16.1718611,
            30.2265991
          ],
          [
            -16.1688022,
            30.2283154
          ],
          [
            -16.1657124,
            30.2299896
          ],
          [
            -16.1625925,
            30.2316211
          ],
          [
            -16.1594433,
            30.2332097
          ],
          [
            -16.1562655,
            30.2347549
          ],
          [
            -16.1530599,
            30.2362563
          ],
          [
            -16.1498273,
            30.2377135
          ],
          [
            -16.1465686,
            30.2391262
          ],
          [
            -16.1432846,
            30.240494
          ],
          [
            -16.139976,
            30.2418166
          ],
          [
            -16.1366437,
            30.2430937
          ],
          [
            -16.1332885,
            30.2443249
          ],
          [
            -16.1308018,
            30.2451974
          ],
          [
            -16.1286613,
            30.2459559
          ],
          [
            -16.1252966,
            30.247095
          ],
          [
            -16.1219116,
            30.2481883
          ],
          [
            -16.1185073,
            30.2492354
          ],
          [
            -16.1150845,
            30.250236
          ],
          [
            -16.1116441,
            30.25119
          ],
          [
            -16.1081867,
            30.2520971
          ],
          [
            -16.1047135,
            30.252957
          ],
          [
            -16.101225,
            30.2537696
          ],
          [
            -16.0977224,
            30.2545346
          ],
          [
            -16.0942063,
            30.2552519
          ],
          [
            -16.0906777,
            30.2559213
          ],
          [
            -16.0905114,
            30.2559517
          ],
          [
            -16.0869297,
            30.25658
          ],
          [
            -16.0864221,
            30.2566618
          ],
          [
            -16.0853332,
            30.2583102
          ],
          [
            -16.0834942,
            30.2609962
          ],
          [
            -16.0816071,
            30.2636569
          ],
          [
            -16.0796724,
            30.2662918
          ],
          [
            -16.0776905,
            30.2689001
          ],
          [
            -16.075662,
            30.2714813
          ],
          [
            -16.0735872,
            30.2740347
          ],
          [
            -16.0714668,
            30.2765597
          ],
          [
            -16.0693011,
            30.2790557
          ],
          [
            -16.0670909,
            30.2815221
          ],
          [
            -16.0648365,
            30.2839582
          ],
          [
            -16.0625385,
            30.2863636
          ],
          [
            -16.0601975,
            30.2887375
          ],
          [
            -16.057814,
            30.2910794
          ],
          [
            -16.0553887,
            30.2933888
          ],
          [
            -16.0529221,
            30.295665
          ],
          [
            -16.0504149,
            30.2979076
          ],
          [
            -16.0478675,
            30.300116
          ],
          [
            -16.0452807,
            30.3022896
          ],
          [
            -16.0451657,
            30.3023847
          ],
          [
            -16.0424829,
            30.3045688
          ],
          [
            -16.0397602,
            30.3067156
          ],
          [
            -16.0369984,
            30.3088244
          ],
          [
            -16.0341982,
            30.3108947
          ],
          [
            -16.0313602,
            30.312926
          ],
          [
            -16.0284852,
            30.3149178
          ],
          [
            -16.0255738,
            30.3168696
          ],
          [
            -16.022627,
            30.3187809
          ],
          [
            -16.0196453,
            30.3206512
          ],
          [
            -16.0166295,
            30.32248
          ],
          [
            -16.0135805,
            30.3242668
          ],
          [
            -16.010499,
            30.3260113
          ],
          [
            -16.0073857,
            30.3277129
          ],
          [
            -16.0042415,
            30.3293712
          ],
          [
            -16.0010672,
            30.3309858
          ],
          [
            -15.9978635,
            30.3325563
          ],
          [
            -15.9946314,
            30.3340823
          ],
          [
            -15.9913715,
            30.3355634
          ],
          [
            -15.9880847,
            30.3369993
          ],
          [
            -15.984772,
            30.3383894
          ],
          [
            -15.981434,
            30.3397336
          ],
          [
            -15.9780717,
            30.3410314
          ],
          [
            -15.974686,
            30.3422826
          ],
          [
            -15.9743253,
            30.34241
          ],
          [
            -15.9737831,
            30.3426334
          ],
          [
            -15.9704834,
            30.343938
          ],
          [
            -15.9671604,
            30.3451974
          ],
          [
            -15.9638149,
            30.3464115
          ],
          [
            -15.9604478,
            30.3475797
          ],
          [
            -15.9570599,
            30.348702
          ],
          [
            -15.9536521,
            30.3497779
          ],
          [
            -15.9502251,
            30.3508073
          ],
          [
            -15.9467799,
            30.3517898
          ],
          [
            -15.9433173,
            30.3527252
          ],
          [
            -15.9398381,
            30.3536134
          ],
          [
            -15.9363432,
            30.354454
          ],
          [
            -15.9328334,
            30.3552469
          ],
          [
            -15.9293098,
            30.3559918
          ],
          [
            -15.925773,
            30.3566886
          ],
          [
            -15.922224,
            30.3573372
          ],
          [
            -15.9186636,
            30.3579373
          ],
          [
            -15.9150928,
            30.3584887
          ],
          [
            -15.9115125,
            30.3589915
          ],
          [
            -15.9079234,
            30.3594454
          ],
          [
            -15.9043265,
            30.3598503
          ],
          [
            -15.9007228,
            30.3602062
          ],
          [
            -15.897113,
            30.3605129
          ],
          [
            -15.8954229,
            30.3606332
          ],
          [
            -15.8948935,
            30.3606749
          ],
          [
            -15.8942652,
            30.3607157
          ],
          [
            -15.8934981,
            30.3607703
          ],
          [
            -15.8928478,
            30.3608077
          ],
          [
            -15.8912703,
            30.3609101
          ],
          [
            -15.8876433,
            30.3610959
          ],
          [
            -15.8840133,
            30.3612321
          ],
          [
            -15.8803813,
            30.3613187
          ],
          [
            -15.8767482,
            30.3613558
          ],
          [
            -15.8731149,
            30.3613432
          ],
          [
            -15.8694822,
            30.361281
          ],
          [
            -15.8658511,
            30.3611693
          ],
          [
            -15.8622225,
            30.361008
          ],
          [
            -15.8585973,
            30.3607971
          ],
          [
            -15.8549764,
            30.3605368
          ],
          [
            -15.8513607,
            30.3602271
          ],
          [
            -15.847751,
            30.3598681
          ],
          [
            -15.8441483,
            30.3594598
          ],
          [
            -15.8405535,
            30.3590024
          ],
          [
            -15.8369674,
            30.358496
          ],
          [
            -15.833391,
            30.3579406
          ],
          [
            -15.8298252,
            30.3573365
          ],
          [
            -15.8262707,
            30.3566838
          ],
          [
            -15.8227286,
            30.3559827
          ],
          [
            -15.8191997,
            30.3552333
          ],
          [
            -15.8156848,
            30.3544358
          ],
          [
            -15.8153388,
            30.3543547
          ],
          [
            -15.8117895,
            30.353497
          ],
          [
            -15.8082566,
            30.3525903
          ],
          [
            -15.8047408,
            30.3516348
          ],
          [
            -15.801243,
            30.3506307
          ],
          [
            -15.7977643,
            30.3495783
          ],
          [
            -15.7943053,
            30.3484779
          ],
          [
            -15.7908672,
            30.3473297
          ],
          [
            -15.7874506,
            30.3461341
          ],
          [
            -15.7840565,
            30.3448913
          ],
          [
            -15.7806857,
            30.3436017
          ],
          [
            -15.7773392,
            30.3422656
          ],
          [
            -15.7740177,
            30.3408833
          ],
          [
            -15.7707222,
            30.3394552
          ],
          [
            -15.7701962,
            30.3392181
          ],
          [
            -15.7697215,
            30.3390437
          ],
          [
            -15.7663588,
            30.3377532
          ],
          [
            -15.7630203,
            30.3364165
          ],
          [
            -15.7597068,
            30.3350337
          ],
          [
            -15.7564191,
            30.3336054
          ],
          [
            -15.7531582,
            30.3321318
          ],
          [
            -15.7499248,
            30.3306132
          ],
          [
            -15.7467197,
            30.3290502
          ],
          [
            -15.7435438,
            30.3274431
          ],
          [
            -15.7403979,
            30.3257924
          ],
          [
            -15.7372827,
            30.3240983
          ],
          [
            -15.7371058,
            30.3240003
          ],
          [
            -15.7340672,
            30.3222892
          ],
          [
            -15.7310601,
            30.320537
          ],
          [
            -15.7280851,
            30.318744
          ],
          [
            -15.7251429,
            30.3169107
          ],
          [
            -15.7222344,
            30.3150376
          ],
          [
            -15.7193601,
            30.3131251
          ],
          [
            -15.7165209,
            30.3111737
          ],
          [
            -15.7137173,
            30.3091838
          ],
          [
            -15.7109502,
            30.307156
          ],
          [
            -15.7082201,
            30.3050908
          ],
          [
            -15.7055277,
            30.3029887
          ],
          [
            -15.7028738,
            30.3008502
          ],
          [
            -15.700259,
            30.2986757
          ],
          [
            -15.6976838,
            30.296466
          ],
          [
            -15.6954023,
            30.2944457
          ],
          [
            -15.6937115,
            30.2929875
          ],
          [
            -15.6912385,
            30.2907883
          ],
          [
            -15.6888048,
            30.2885565
          ],
          [
            -15.6864109,
            30.2862925
          ],
          [
            -15.6840573,
            30.2839969
          ],
          [
            -15.6817447,
            30.2816702
          ],
          [
            -15.6794735,
            30.279313
          ],
          [
            -15.6772443,
            30.2769258
          ],
          [
            -15.6771032,
            30.2767724
          ],
          [
            -15.6748309,
            30.2742596
          ],
          [
            -15.6726051,
            30.2717157
          ],
          [
            -15.6704264,
            30.2691413
          ],
          [
            -15.6682953,
            30.2665371
          ],
          [
            -15.6662124,
            30.2639037
          ],
          [
            -15.6641782,
            30.2612417
          ],
          [
            -15.6621932,
            30.258552
          ],
          [
            -15.6602579,
            30.2558351
          ],
          [
            -15.6583728,
            30.2530918
          ],
          [
            -15.6571089,
            30.2512188
          ],
          [
            -15.655284,
            30.2484642
          ],
          [
            -15.6535098,
            30.2456849
          ],
          [
            -15.6517865,
            30.2428815
          ],
          [
            -15.6501147,
            30.2400547
          ],
          [
            -15.6484948,
            30.2372053
          ],
          [
            -15.6469272,
            30.2343339
          ],
          [
            -15.6454123,
            30.2314412
          ],
          [
            -15.6439505,
            30.2285281
          ],
          [
            -15.6425421,
            30.2255952
          ],
          [
            -15.6411874,
            30.2226433
          ],
          [
            -15.6398869,
            30.219673
          ],
          [
            -15.6386408,
            30.2166853
          ],
          [
            -15.6374494,
            30.2136808
          ],
          [
            -15.6363131,
            30.2106602
          ],
          [
            -15.6352321,
            30.2076244
          ],
          [
            -15.6342067,
            30.204574
          ],
          [
            -15.6332371,
            30.2015099
          ],
          [
            -15.6323236,
            30.1984329
          ],
          [
            -15.6314664,
            30.1953437
          ],
          [
            -15.6306657,
            30.192243
          ],
          [
            -15.6300834,
            30.1898081
          ],
          [
            -15.6297575,
            30.1887067
          ],
          [
            -15.6289053,
            30.1856261
          ],
          [
            -15.6281094,
            30.1825342
          ],
          [
            -15.6273698,
            30.1794318
          ],
          [
            -15.6266867,
            30.1763196
          ],
          [
            -15.6260604,
            30.1731984
          ],
          [
            -15.6254909,
            30.1700689
          ],
          [
            -15.6249784,
            30.1669321
          ],
          [
            -15.6245231,
            30.1637886
          ],
          [
            -15.624125,
            30.1606392
          ],
          [
            -15.6237843,
            30.1574848
          ],
          [
            -15.6235009,
            30.1543261
          ],
          [
            -15.623275,
            30.1511639
          ],
          [
            -15.6231067,
            30.1479989
          ],
          [
            -15.6229959,
            30.1448321
          ],
          [
            -15.6229426,
            30.1416641
          ],
          [
            -15.622947,
            30.1384958
          ],
          [
            -15.623009,
            30.135328
          ],
          [
            -15.6231285,
            30.1321614
          ],
          [
            -15.6233056,
            30.1289968
          ],
          [
            -15.6235401,
            30.125835
          ],
          [
            -15.6238321,
            30.1226769
          ],
          [
            -15.6238474,
            30.1225258
          ],
          [
            -15.6241958,
            30.1193798
          ],
          [
            -15.6246011,
            30.116239
          ],
          [
            -15.6250633,
            30.1131041
          ],
          [
            -15.6255822,
            30.109976
          ],
          [
            -15.6261577,
            30.1068553
          ],
          [
            -15.6267897,
            30.1037429
          ],
          [
            -15.6274779,
            30.1006395
          ],
          [
            -15.6282223,
            30.097546
          ],
          [
            -15.6290226,
            30.094463
          ],
          [
            -15.6298787,
            30.0913913
          ],
          [
            -15.6307902,
            30.0883318
          ],
          [
            -15.631757,
            30.0852852
          ],
          [
            -15.6327789,
            30.0822521
          ],
          [
            -15.6338555,
            30.0792334
          ],
          [
            -15.6349866,
            30.0762299
          ],
          [
            -15.6361719,
            30.0732422
          ],
          [
            -15.6374111,
            30.0702711
          ],
          [
            -15.638704,
            30.0673174
          ],
          [
            -15.6400501,
            30.0643817
          ],
          [
            -15.6414492,
            30.0614649
          ],
          [
            -15.6429008,
            30.0585675
          ],
          [
            -15.6444047,
            30.0556904
          ],
          [
            -15.6459604,
            30.0528343
          ],
          [
            -15.6475676,
            30.0499998
          ],
          [
            -15.6492258,
            30.0471877
          ],
          [
            -15.6509347,
            30.0443987
          ],
          [
            -15.6526938,
            30.0416334
          ],
          [
            -15.6535496,
            30.0403366
          ],
          [
            -15.6549392,
            30.0382226
          ],
          [
            -15.6567937,
            30.0355015
          ],
          [
            -15.6586973,
            30.0328062
          ],
          [
            -15.6588322,
            30.0326218
          ],
          [
            -15.6590916,
            30.0322533
          ],
          [
            -15.6610302,
            30.0295943
          ],
          [
            -15.6630165,
            30.026962
          ],
          [
            -15.6650499,
            30.0243572
          ],
          [
            -15.6671299,
            30.0217805
          ],
          [
            -15.6692561,
            30.0192325
          ],
          [
            -15.6714278,
            30.0167138
          ],
          [
            -15.6736447,
            30.014225
          ],
          [
            -15.675906,
            30.0117668
          ],
          [
            -15.6782113,
            30.0093398
          ],
          [
            -15.68056,
            30.0069445
          ],
          [
            -15.6829515,
            30.0045816
          ],
          [
            -15.6853853,
            30.0022516
          ],
          [
            -15.6878606,
            29.9999551
          ],
          [
            -15.690377,
            29.9976926
          ],
          [
            -15.6929337,
            29.9954648
          ],
          [
            -15.6955302,
            29.9932722
          ],
          [
            -15.6981658,
            29.9911152
          ],
          [
            -15.7008399,
            29.9889945
          ],
          [
            -15.7035518,
            29.9869106
          ],
          [
            -15.7063008,
            29.9848639
          ],
          [
            -15.7090863,
            29.982855
          ],
          [
            -15.7119075,
            29.9808843
          ],
          [
            -15.7147639,
            29.9789524
          ],
          [
            -15.7176546,
            29.9770598
          ],
          [
            -15.720579,
            29.9752067
          ],
          [
            -15.7235363,
            29.9733939
          ],
          [
            -15.7265259,
            29.9716216
          ],
          [
            -15.729547,
            29.9698903
          ],
          [
            -15.7325988,
            29.9682005
          ],
          [
            -15.7356805,
            29.9665526
          ],
          [
            -15.7387916,
            29.9649469
          ],
          [
            -15.7419311,
            29.9633838
          ],
          [
            -15.7450983,
            29.9618638
          ],
          [
            -15.7482924,
            29.9603872
          ],
          [
            -15.7515126,
            29.9589544
          ],
          [
            -15.7547582,
            29.9575657
          ],
          [
            -15.7580284,
            29.9562215
          ],
          [
            -15.7613223,
            29.954922
          ],
          [
            -15.7646391,
            29.9536677
          ],
          [
            -15.7679781,
            29.9524588
          ],
          [
            -15.7713383,
            29.9512956
          ],
          [
            -15.7747191,
            29.9501785
          ],
          [
            -15.7781195,
            29.9491076
          ],
          [
            -15.7815387,
            29.9480832
          ],
          [
            -15.7849759,
            29.9471056
          ],
          [
            -15.7884302,
            29.9461751
          ],
          [
            -15.7898791,
            29.9458063
          ],
          [
            -15.7901919,
            29.9457231
          ],
          [
            -15.791316,
            29.9454406
          ],
          [
            -15.7919008,
            29.9452918
          ],
          [
            -15.7920645,
            29.9452525
          ],
          [
            -15.7936569,
            29.9448524
          ],
          [
            -15.7971371,
            29.9440289
          ],
          [
            -15.8006317,
            29.9432529
          ],
          [
            -15.8041396,
            29.9425246
          ],
          [
            -15.8076603,
            29.9418442
          ],
          [
            -15.8094618,
            29.9415216
          ],
          [
            -15.8099345,
            29.9407088
          ],
          [
            -15.8116127,
            29.9379317
          ],
          [
            -15.8133404,
            29.9351777
          ],
          [
            -15.8151174,
            29.9324475
          ],
          [
            -15.8169431,
            29.929742
          ],
          [
            -15.818817,
            29.9270615
          ],
          [
            -15.8207388,
            29.924407
          ],
          [
            -15.822708,
            29.9217789
          ],
          [
            -15.824724,
            29.919178
          ],
          [
            -15.8267864,
            29.9166048
          ],
          [
            -15.8288946,
            29.91406
          ],
          [
            -15.8310482,
            29.9115443
          ],
          [
            -15.8332466,
            29.9090582
          ],
          [
            -15.8354893,
            29.9066023
          ],
          [
            -15.8377757,
            29.9041772
          ],
          [
            -15.8401053,
            29.9017836
          ],
          [
            -15.8424774,
            29.899422
          ],
          [
            -15.8448916,
            29.897093
          ],
          [
            -15.8473472,
            29.8947971
          ],
          [
            -15.8498436,
            29.892535
          ],
          [
            -15.8523802,
            29.8903071
          ],
          [
            -15.8549564,
            29.888114
          ],
          [
            -15.8575716,
            29.8859563
          ],
          [
            -15.8602251,
            29.8838345
          ],
          [
            -15.8629162,
            29.881749
          ],
          [
            -15.8656444,
            29.8797005
          ],
          [
            -15.8684089,
            29.8776893
          ],
          [
            -15.871209,
            29.875716
          ],
          [
            -15.8740441,
            29.8737811
          ],
          [
            -15.8769135,
            29.8718851
          ],
          [
            -15.8798165,
            29.8700283
          ],
          [
            -15.8827524,
            29.8682113
          ],
          [
            -15.8857204,
            29.8664345
          ],
          [
            -15.8887199,
            29.8646983
          ],
          [
            -15.89175,
            29.8630032
          ],
          [
            -15.8948102,
            29.8613495
          ],
          [
            -15.8948547,
            29.8613259
          ],
          [
            -15.8979747,
            29.8596984
          ],
          [
            -15.9011237,
            29.858114
          ],
          [
            -15.9043009,
            29.8565731
          ],
          [
            -15.9075056,
            29.8550761
          ],
          [
            -15.9107369,
            29.8536234
          ],
          [
            -15.913994,
            29.8522152
          ],
          [
            -15.9172762,
            29.850852
          ],
          [
            -15.9205826,
            29.8495342
          ],
          [
            -15.9239124,
            29.8482619
          ],
          [
            -15.925301,
            29.847754
          ],
          [
            -15.9262991,
            29.8473594
          ],
          [
            -15.9296115,
            29.8461038
          ],
          [
            -15.9329461,
            29.8448937
          ],
          [
            -15.9363019,
            29.8437294
          ],
          [
            -15.9396782,
            29.842611
          ],
          [
            -15.9430742,
            29.8415388
          ],
          [
            -15.946489,
            29.8405132
          ],
          [
            -15.9499218,
            29.8395344
          ],
          [
            -15.9533717,
            29.8386026
          ],
          [
            -15.9568379,
            29.837718
          ],
          [
            -15.9603195,
            29.8368809
          ],
          [
            -15.9638158,
            29.8360915
          ],
          [
            -15.9640999,
            29.8360315
          ],
          [
            -15.9641518,
            29.8360196
          ],
          [
            -15.9676718,
            29.8352685
          ],
          [
            -15.971205,
            29.8345656
          ],
          [
            -15.9747503,
            29.8339113
          ],
          [
            -15.978307,
            29.8333057
          ],
          [
            -15.9818742,
            29.8327489
          ],
          [
            -15.9854509,
            29.8322411
          ],
          [
            -15.9890364,
            29.8317823
          ],
          [
            -15.9926296,
            29.8313728
          ],
          [
            -15.9962298,
            29.8310126
          ],
          [
            -15.999836,
            29.8307018
          ],
          [
            -16.0034473,
            29.8304405
          ],
          [
            -16.0070629,
            29.8302287
          ],
          [
            -16.0073125,
            29.8302175
          ],
          [
            -16.0086584,
            29.8300678
          ],
          [
            -16.0122565,
            29.8297175
          ],
          [
            -16.0158604,
            29.8294166
          ],
          [
            -16.0194693,
            29.8291651
          ],
          [
            -16.0230822,
            29.828963
          ],
          [
            -16.0266983,
            29.8288104
          ],
          [
            -16.0303167,
            29.8287074
          ],
          [
            -16.0339366,
            29.828654
          ],
          [
            -16.037042,
            29.8286507
          ],
          [
            -16.039899,
            29.8285046
          ],
          [
            -16.0434885,
            29.8283699
          ],
          [
            -16.0470799,
            29.828284
          ],
          [
            -16.0506725,
            29.828247
          ]
        ]
      ]
    ]
  }
}